id,name,email,phone,city,state,country
,Carolyn Harome,charome0@answers.com,7177712719,Stanowice,,Poland
,Gray Billett,gbillett1@reuters.com,3304308032,Youngstown,Ohio,United States
,Brian Martinets,bmartinets2@theguardian.com,7797456793,Örnsköldsvik,Västernorrland,Sweden
,Brig Guillerman,bguillerman3@yellowbook.com,7834122589,Plasy,,Czech Republic
,Thaddus Coyne,tcoyne4@businessweek.com,6346388491,Alor Setar,Kedah,Malaysia
,Dianna Kern,dkern5@tmall.com,6751431883,Pueai Noi,,Thailand
,Sara Mattingson,smattingson6@cmu.edu,7803927330,Prómachoi,,Greece
,Colette Goghin,cgoghin7@usnews.com,2774345454,Pangpang,,Philippines
,Alfonso Littley,alittley8@jimdo.com,3517570116,São Borja,,Brazil
,Wendell Chetham,wchetham9@oakley.com,2942456241,Partesh,,Kosovo
,Danica Laird,dlairda@photobucket.com,5029524969,Louisville,Kentucky,United States
,Abran Bulch,abulchb@examiner.com,6979783137,Yeniköy,Manisa,Turkey
,Tillie Robilliard,trobilliardc@ucla.edu,6889672485,Valenciennes,Nord-Pas-de-Calais,France
,Cornall Kalaher,ckalaherd@thetimes.co.uk,1105272591,Ziyuan,,China
,Bellina Paslow,bpaslowe@bigcartel.com,2282001596,Qingping,,China
,Ariela Denizet,adenizetf@bluehost.com,3075149853,Buenavista,,Philippines
,Belle Cloughton,bcloughtong@google.de,3715790969,Wuyun,,China
,Alis Darnbrough,adarnbroughh@jiathis.com,5987030775,Bugul’ma,,Russia
,Jerome Boyat,jboyati@china.com.cn,2251839593,Farīdpur,,Bangladesh
,Gardie Dodson,gdodsonj@dedecms.com,7547940033,Bhāi Pheru,,Pakistan
,Gale Pearse,gpearsel@google.fr,4949050014,Cikalong,,Indonesia
,Mari Ruter,mruterk@foxnews.com,4514206112,General Villegas,,Argentina
,Stavro McEntee,smcenteem@wunderground.com,8904155253,Jiujie,,China
,Connor Mellor,cmellorn@acquirethisname.com,5395120594,Litian,,China
,Dennet Giorgini,dgiorginio@icq.com,7673454422,San Antonio,,Colombia
,Shani Wigg,swiggp@sakura.ne.jp,6004645802,Šentjur,,Slovenia
,Babs Lawlie,blawlieq@ibm.com,4042116972,Nanping,,China
,Jo Gilliland,jgillilandr@virginia.edu,9982297014,Sonquil,,Philippines
,Chrissy Jeanet,cjeanets@independent.co.uk,8423593090,Omišalj,,Croatia
,Jamal Evetts,jevettst@slate.com,5834422103,Xiaomei,,China
,Lillian Fowlds,lfowldsu@ed.gov,8219510454,Neglasari,,Indonesia
,Dilly Churcher,dchurcherv@nih.gov,4418334044,Novoaltaysk,,Russia
,Domenico Gentreau,dgentreauw@opensource.org,5987248183,Al Mazār,,Jordan
,Ketty Sinnat,ksinnaty@symantec.com,4763017723,Bangluo,,China
,Egan Akam,eakamx@wufoo.com,6163610989,Nazca,,Peru
,Cathlene Cadd,ccaddz@exblog.jp,6974755785,Idritsa,,Russia
,Rogers Dibley,rdibley11@tripadvisor.com,6764428117,Ganzi,,China
,Paolo Halward,phalward10@examiner.com,7139303595,Olenyok,,Russia
,Joannes Cherrett,jcherrett13@wikipedia.org,2966840629,Maesan,,Indonesia
,Malory Osgerby,mosgerby12@state.gov,4326344430,Trubchevsk,,Russia
,Irene Russell,irussell14@friendfeed.com,2616356836,Hongchang,,China
,Mitch Hubbuck,mhubbuck15@netlog.com,6255561155,Nagasaki-shi,,Japan
,Ruy Riglesford,rriglesford17@joomla.org,6662293803,Pont-Rouge,Québec,Canada
,Korrie Crowhurst,kcrowhurst19@wikispaces.com,1184144526,Youlongchuan,,China
,Daune Drew,ddrew16@eventbrite.com,3276053070,Yasenskaya,,Russia
,Ravid Boustead,rboustead1a@digg.com,9997549862,Sololá,,Guatemala
,Elbertine Pedrick,epedrick18@loc.gov,7788649367,Sułów,,Poland
,Euphemia Smeall,esmeall1b@macromedia.com,7273450997,Saripin,,Indonesia
,Samuele Ricciardi,sricciardi1c@apple.com,3962169263,Nancy,Lorraine,France
,Eva Kynd,ekynd1d@cnn.com,4281627415,Inashiki,,Japan
,Jojo Pinwell,jpinwell1e@google.es,2111328566,Ríohacha,,Colombia
,Nikolaus Collymore,ncollymore1f@google.ru,4438955907,Pedreira,,Brazil
,Job McClymond,jmcclymond1h@noaa.gov,4536909425,Passo,,Indonesia
,Leonanie Fouch,lfouch1g@altervista.org,7689965821,Banjaranyar,,Indonesia
,Weider Jerrems,wjerrems1i@photobucket.com,7178159017,Pinhal General,Setúbal,Portugal
,Brigham Botler,bbotler1j@163.com,6702280237,Algarvia,Ilha de São Miguel,Portugal
,Gusti McCann,gmccann1n@nationalgeographic.com,8645441827,Thị Trấn Yên Thịnh,,Vietnam
,Mair Gilhool,mgilhool1o@sbwire.com,1362306159,Bayan-Ovoo,,Mongolia
,Kimmie Clail,kclail1p@ow.ly,8836107839,Lantera,,Indonesia
,Uriah Adair,uadair1q@narod.ru,9626326022,Bocowanti,,Indonesia
,Jobina Dunkley,jdunkley1r@constantcontact.com,7012349312,Santa Catalina,,Philippines
,Jarrid Sanbrooke,jsanbrooke1s@nhs.uk,4655217922,Lampa,,Peru
,Lindy Ollin,lollin1t@creativecommons.org,9767314305,Mkushi,,Zambia
,Humfried Leyre,hleyre1u@mapquest.com,3637455726,Plavsk,,Russia
,Anjela McKernon,amckernon1v@irs.gov,4494122751,Gaoyi,,China
,Trip Wimpeney,twimpeney1w@cisco.com,3721882715,Fryazino,,Russia
,Korrie Mattaser,kmattaser1x@marriott.com,3508180354,Szombathely,Vas,Hungary
,Roxana Winfrey,rwinfrey1y@toplist.cz,6911942717,Tarbes,Midi-Pyrénées,France
,Laurens Machin,lmachin1z@geocities.jp,2947842667,Khlong Khuean,,Thailand
,Daisie Delaprelle,ddelaprelle20@huffingtonpost.com,9951541481,Shuidong,,China
,Blithe Rushmer,brushmer21@tinypic.com,9182933838,Cikaras,,Indonesia
,Davine Summerskill,dsummerskill22@fda.gov,4223984738,Shuinanxu,,China
,Caye Digman,cdigman23@163.com,4717905370,Shakīso,,Ethiopia
,Mariska Mattacks,mmattacks24@barnesandnoble.com,5877878408,Doctor Juan León Mallorquín,,Paraguay
,Solomon Skirlin,sskirlin1k@privacy.gov.au,3392528281,La Asunción,,Venezuela
,Jervis MacKonochie,jmackonochie1l@ow.ly,4263404057,Mulan,,China
,Godiva Valentin,gvalentin1m@rediff.com,5525108296,Port-Gentil,,Gabon
,Marinna Ollenbuttel,mollenbuttel25@nps.gov,8404443253,Cheonan,,South Korea
,Jannelle Halton,jhalton26@issuu.com,5229145603,Tây Hồ,,Vietnam
,Arri Rubinow,arubinow27@ameblo.jp,5833276058,Liulin,,China
,Wynn Goodson,wgoodson28@github.com,7106139555,Tuopu,,China
,Juliet Keates,jkeates29@hostgator.com,2149075373,Byala,,Bulgaria
,Inesita Duddan,iduddan2d@fema.gov,8178195491,Perivóli,,Greece
,Spense Bateup,sbateup2e@usgs.gov,4414836647,Madette,,Indonesia
,Dionne Bridgestock,dbridgestock2f@weather.com,8476916735,Hisya,,Syria
,Roxanne Waddilove,rwaddilove2g@cam.ac.uk,6176964672,Ołpiny,,Poland
,Aurore Slidders,aslidders2h@wiley.com,9307775071,Novoderevyankovskaya,,Russia
,Daile Pearsall,dpearsall2i@about.com,5554738188,Goma,,Democratic Republic of the Congo
,Halley Filipputti,hfilipputti2j@stumbleupon.com,4814814020,Al Mughayyir,,Palestinian Territory
,Tim Huyge,thuyge2k@ucoz.ru,2334711288,Ulan Hua,,China
,Kathe Scobbie,kscobbie2l@buzzfeed.com,2491970152,Kołbiel,,Poland
,Tabbie Matiasek,tmatiasek2m@pbs.org,7371459998,Kalengwa,,Zambia
,Damien Karpychev,dkarpychev2n@jiathis.com,2197645086,Dębe Wielkie,,Poland
,Chrysler Spire,cspire2o@newyorker.com,7262036734,Curibaya,,Peru
,Dion Brixey,dbrixey2p@unblog.fr,9678072306,Lincoln,,Argentina
,Chantalle Vonderdell,cvonderdell2q@amazon.de,7346524486,Dorowa Mining Lease,,Zimbabwe
,Mattie Meineck,mmeineck2r@yelp.com,8908780152,Ugep,,Nigeria
,Emmaline Blainey,eblainey2s@unblog.fr,2293277019,Angoulême,Poitou-Charentes,France
,Erminia Halvorsen,ehalvorsen2t@senate.gov,1447005265,Cerro,,Cuba
,Barbara-anne Jennens,bjennens2u@google.pl,9781459874,Tha Mai,,Thailand
,Millie Gossage,mgossage2a@latimes.com,3456103360,Amherstburg,Ontario,Canada
,Chloette Haack,chaack2b@ustream.tv,4966233170,Nogueira,Porto,Portugal
,Scarface Ilyasov,silyasov2c@parallels.com,2918701835,Hamburg,Hamburg,Germany
,Irwinn Masdin,imasdin2v@who.int,3995627976,Auas,,Honduras
,Alissa Plume,aplume2w@patch.com,2034907318,Conceição da Feira,,Brazil
,Jammie Soulsby,jsoulsby2x@blogs.com,6417567830,Christchurch,,New Zealand
,Carlyle Attkins,cattkins2y@dailymotion.com,7934021338,Železniki,,Slovenia
,Maurene Gossage,mgossage2z@illinois.edu,5443351029,Mas‘adah,,Syria
,Lon Rawll,lrawll33@stanford.edu,5503013342,Paleran,,Indonesia
,Salli Yarn,syarn34@alexa.com,7106797322,Borzoy,,Russia
,Jasmine Jakel,jjakel35@rambler.ru,5236968086,Dubá,,Czech Republic
,Egor Wilcinskis,ewilcinskis36@ocn.ne.jp,3537659812,Machico,Ilha da Madeira,Portugal
,Sly Vile,svile37@disqus.com,6838091732,Argelia,,Colombia
,Darci Gamwell,dgamwell38@prlog.org,9902873122,Luohe,,China
,Fairleigh Doumenc,fdoumenc39@ca.gov,8824988486,Baishi,,China
,Gerty MacParland,gmacparland3a@toplist.cz,6854485894,Gujō,,Japan
,Valle Crapper,vcrapper3b@smh.com.au,9876813601,Verd,,Slovenia
,Paulita Muzzullo,pmuzzullo3c@over-blog.com,4559346800,Nonghe,,China
,Benny Ison,bison3d@ycombinator.com,3492186129,Ugba,,Nigeria
,Regan Dabell,rdabell3e@jigsy.com,4195874910,Berón de Astrada,,Argentina
,Kimmi Haseman,khaseman3f@sitemeter.com,2269468663,Willemstad,,Curacao
,Guglielma Wyard,gwyard3g@sun.com,3186710536,Igarra,,Nigeria
,Nichole Tongs,ntongs3h@nyu.edu,2724071323,Wangcun,,China
,Lil Jarnell,ljarnell3i@guardian.co.uk,1517971396,Palkovice,,Czech Republic
,Kincaid Burness,kburness3j@economist.com,4054143922,Bangangté,,Cameroon
,Harriette Durgan,hdurgan3k@chron.com,2428876799,Puerto Francisco de Orellana,,Ecuador
,Patric Glewe,pglewe30@thetimes.co.uk,6498645330,Sincelejo,,Colombia
,Deane Mothersdale,dmothersdale31@yolasite.com,5916034215,Ruše,,Slovenia
,Leonerd Blacklawe,lblacklawe32@myspace.com,5456188868,Montijo,,Panama
,Huberto Petrescu,hpetrescu3l@scientificamerican.com,7613285711,Oroin Xibe,,China
,Kamillah Hail,khail3m@paypal.com,4101914984,Peer,,Indonesia
,Kipp Kloser,kkloser3n@tinypic.com,7985831303,Kembangan,,Indonesia
,Leon De Marchi,lde3o@illinois.edu,4384720322,Piraju,,Brazil
,Gerrilee Lyngsted,glyngsted3p@businessweek.com,3848716131,Orekhovo-Borisovo Severnoye,,Russia
,Lynnell Blackaller,lblackaller3t@unblog.fr,3132996925,Beizhang,,China
,Isac Meachan,imeachan3u@answers.com,7569778560,Torbeck,,Haiti
,Evered Parradine,eparradine3v@chicagotribune.com,2276758454,Foxrock,,Ireland
,Kale Torrese,ktorrese3w@dell.com,7004630102,Ljungskile,Västra Götaland,Sweden
,Chryste Smithin,csmithin3x@sakura.ne.jp,2592619334,Helsingborg,Skåne,Sweden
,Beck Wanne,bwanne3y@live.com,7271453617,Danan,,China
,Abigale Lamberti,alamberti3z@tripadvisor.com,7572416113,Drohiczyn,,Poland
,Bethena Dmiterko,bdmiterko40@homestead.com,4243696167,Anolaima,,Colombia
,Wileen Lehmann,wlehmann41@miibeian.gov.cn,1468624300,Dali,,China
,Franky Morais,fmorais42@upenn.edu,4322012415,Midland,Texas,United States
,Ingar Schohier,ischohier43@tamu.edu,1366229490,Salantai,,Lithuania
,Wes Tinline,wtinline44@japanpost.jp,8208897621,Smilavichy,,Belarus
,Donnajean Pearle,dpearle45@artisteer.com,8652953420,Shihuiqiao,,China
,Gordie Larenson,glarenson46@feedburner.com,9151956019,Oele,,Indonesia
,Berenice Chalcot,bchalcot47@fema.gov,3249127416,Sungaibengkal,,Indonesia
,Carr Burger,cburger48@exblog.jp,1467627893,Noisy-le-Grand,Île-de-France,France
,Christoph Tingle,ctingle49@devhub.com,3768808414,Valencia,,Philippines
,Cherish Overell,coverell4a@woothemes.com,2302908271,Ad Dīs ash Sharqīyah,,Yemen
,Lodovico Andreou,landreou3q@zimbio.com,4334888734,Troparëvo,,Russia
,Nikita Plumer,nplumer3r@tamu.edu,6254843869,Greater Napanee,Ontario,Canada
,Adelice Gregoriou,agregoriou3s@pinterest.com,1945064837,Shiogama,,Japan
,Glynnis Haffner,ghaffner4b@tinypic.com,8993639685,Santa Paz,,Philippines
,Camille Southey,csouthey4c@yellowpages.com,3742701742,San Jose,Veracruz Llave,Mexico
,Ardella Ohrtmann,aohrtmann4d@linkedin.com,7859994191,Hede,,China
,Alexander Labone,alabone4e@bloglines.com,8696044994,Goya,,Argentina
,Megen Umfrey,mumfrey4f@clickbank.net,4474101912,Bairro,Porto,Portugal
,Ara Sijmons,asijmons4j@time.com,2214589131,Zhuyu,,China
,Lin Womersley,lwomersley4k@twitpic.com,1665039206,Bruxelles,Bruxelles-Capitale,Belgium
,Dallon Froude,dfroude4l@youtube.com,2084146535,Boise,Idaho,United States
,Gerri Crowson,gcrowson4m@hp.com,3376492712,Anulid,,Philippines
,Druci Treherne,dtreherne4n@google.com.br,3395621056,Várzea da Serra,Viseu,Portugal
,Jessamine Lowndes,jlowndes4o@tripod.com,1801565093,Yirga ‘Alem,,Ethiopia
,Dina Maydway,dmaydway4p@java.com,4062978295,Mosquera,,Colombia
,Curcio Simpson,csimpson4q@lulu.com,8085955466,Quyangqiao,,China
,Alyson Sirl,asirl4r@com.com,9242820259,Trilj,,Croatia
,Trescha Abeau,tabeau4s@exblog.jp,3063703650,Winseler,,Luxembourg
,Livvie Patley,lpatley4t@marriott.com,8722577980,Silvares,Viseu,Portugal
,Raffarty Ravillas,rravillas4u@meetup.com,9807078712,Sukasari,,Indonesia
,Nadeen Bachshell,nbachshell4v@examiner.com,7087938036,Rudo,,Bosnia and Herzegovina
,Creighton Vanshin,cvanshin4w@china.com.cn,6559392934,Gornyak,,Russia
,Reece Brockley,rbrockley4x@yellowbook.com,3639638668,Kajanan,,Indonesia
,Koral Orgill,korgill4y@nydailynews.com,1732280389,Haoyi,,China
,Karlis Robardey,krobardey4z@taobao.com,9185497462,Haarlem,Provincie Noord-Holland,Netherlands
,Daniela Ellse,dellse50@purevolume.com,8406065542,Rumat Heib,,Israel
,Morlee Dagon,mdagon4g@buzzfeed.com,8458902568,Amphoe Sikhiu,,Thailand
,Barbey Ricardon,bricardon4h@spotify.com,3093560124,El Calvario,Guerrero,Mexico
,Burty Shelsher,bshelsher4i@reddit.com,1753191829,Ambarawa,,Indonesia
,Erminia Gairdner,egairdner51@xinhuanet.com,9947392555,Tushi,,China
,Cece Tuppeny,ctuppeny52@oakley.com,7437026467,Lümeng,,China
,Jillana Jowers,jjowers53@gizmodo.com,1123601206,Xianren,,China
,Gussy Spenton,gspenton54@wikispaces.com,2266960366,Jiguan,,China
,Marinna Follows,mfollows55@dell.com,9532159414,Krajan,,Indonesia
,Rhona Fanthome,rfanthome57@mapquest.com,6082347021,Chornomors’ke,,Ukraine
,Wendi Radsdale,wradsdale58@google.com,4888413395,Gyangqai,,China
,Delora Santostefano.,dsantostefano59@sun.com,5766539849,Psyzh,,Russia
,Tova Twinbrow,ttwinbrow56@twitpic.com,1823158748,Sumoto,,Japan
,Bearnard Rupp,brupp5a@topsy.com,4864974122,San Antonio,,Philippines
,Antoni Molineux,amolineux5b@washingtonpost.com,6182901970,Uglegorsk,,Russia
,Camala Ciccone,cciccone5d@tumblr.com,1563830050,General Roca,,Argentina
,Tera Swatridge,tswatridge5c@msu.edu,4667623732,Itabirito,,Brazil
,Matthias Robertelli,mrobertelli5e@wikipedia.org,8831576413,Satun,,Thailand
,Chariot O'Flaherty,coflaherty5f@shinystat.com,4866494460,Hanlin,,China
,Gertrud Downer,gdowner5g@lulu.com,1582907928,Síkinos,,Greece
,Kellen Haldenby,khaldenby5h@hao123.com,1565918301,Los Santos,,Panama
,Pandora Geake,pgeake5i@google.fr,6043054544,Okpoma,,Nigeria
,Bonnibelle Torvey,btorvey5j@stumbleupon.com,2776855009,Beigao,,China
,Veronika Hawkings,vhawkings5k@ihg.com,7092421758,Jambangan,,Indonesia
,Jacob Stranks,jstranks5l@a8.net,1695327043,Yako,,Burkina Faso
,Guglielma Sonier,gsonier5m@quantcast.com,6877284820,Magomeni,,Tanzania
,Vitia Irvine,virvine5n@ustream.tv,5423121390,Ninh Hòa,,Vietnam
,Thomasin Wudeland,twudeland5o@networksolutions.com,6647954640,Balas,,Philippines
,Collin Glidder,cglidder5p@tinypic.com,1475022400,Pirallahı,,Azerbaijan
,Cly Pemberton,cpemberton5q@issuu.com,1638154214,Nasavrky,,Czech Republic
,Alford Frugier,afrugier5r@bloomberg.com,9319893797,São João del Rei,,Brazil
,Katleen Westby,kwestby5s@1688.com,6954432315,Socorro,,Colombia
,Johanna MacSweeney,jmacsweeney5u@multiply.com,2471127647,Yujin,,China
,Evonne Waymont,ewaymont5t@soundcloud.com,6452630319,Göteborg,Västra Götaland,Sweden
,Katee Mossman,kmossman5v@amazon.com,2813494690,Lokossa,,Benin
,Eustace McMychem,emcmychem5w@blogger.com,7682865170,San Vicente,,Philippines
,Ame Voisey,avoisey5x@hostgator.com,5876805560,Xiakou,,China
,Kelcey Reichert,kreichert5y@cdc.gov,9241375479,Hammam Sousse,,Tunisia
,Richie Vasyunin,rvasyunin5z@ycombinator.com,3101362913,Los Angeles,California,United States
,Silvain Curtain,scurtain60@tamu.edu,8947390696,Åkersberga,Stockholm,Sweden
,Maureen Chevin,mchevin62@freewebs.com,4514234630,Yuanling,,China
,Mile Saunper,msaunper61@tuttocitta.it,4688465284,Jacutinga,,Brazil
,Jesselyn Coster,jcoster63@macromedia.com,9198148437,Taounza,,Morocco
,Dian Gomme,dgomme64@buzzfeed.com,8829515349,Bonneuil-sur-Marne,Île-de-France,France
,Darnall Kane,dkane65@twitpic.com,3272796452,Kipen’,,Russia
,Zebadiah Haith,zhaith66@a8.net,7859630065,Koper,,Slovenia
,Coleman Empleton,cempleton67@hostgator.com,6713779081,Boden,Norrbotten,Sweden
,Constancy Hallaways,challaways69@who.int,5408611932,Vandœuvre-lès-Nancy,Lorraine,France
,Barbey Larn,blarn6c@sciencedirect.com,4684911009,Matou,,China
,Melany Manders,mmanders6d@godaddy.com,4964035424,Śmiłowo,,Poland
,Cross Tyrer,ctyrer6e@indiatimes.com,4039024116,Ketanggungan,,Indonesia
,Selina Townley,stownley6b@mapy.cz,7926911618,Nanhai,,China
,Emmeline Chyuerton,echyuerton68@mapquest.com,5543193707,San Pablo,,Peru
,Ramsey Parkes,rparkes6a@ehow.com,4672107232,Songkan,,China
,Tania Birchill,tbirchill6f@newyorker.com,4296815920,Banshu,,China
,Fairlie Vsanelli,fvsanelli6g@wikispaces.com,1627590273,Jiaobei,,China
,Ronda Khomich,rkhomich6i@amazon.de,8932124502,Akropong,,Ghana
,Margalo Calbert,mcalbert6l@fotki.com,7933736443,Atyrá,,Paraguay
,Kalinda Bleue,kbleue6m@livejournal.com,1322779928,Luksuhin,,Philippines
,Jesselyn Serris,jserris6j@mozilla.com,5163509647,Ankazondandy,,Madagascar
,Elvera Martell,emartell6k@whitehouse.gov,4429411536,Warungtanjung,,Indonesia
,Fancy Habbergham,fhabbergham6o@rambler.ru,7206495753,Kisovec,,Slovenia
,Cristian Elsip,celsip6n@topsy.com,5089358906,Sidenreng,,Indonesia
,Vick Goodby,vgoodby6h@sourceforge.net,4656753634,Starominskaya,,Russia
,Amii Debrett,adebrett6p@github.io,9566753469,Naebugis,,Indonesia
,Marietta Chastel,mchastel6q@about.com,4527595115,Guanambi,,Brazil
,Dulcea Overland,doverland6r@diigo.com,2998033710,Changshan,,China
,Shaina Janaway,sjanaway6s@ovh.net,4899793097,Xiaosong,,China
,Kamillah Bartosik,kbartosik6t@sciencedirect.com,1613311183,Muqi,,China
,Karrah Dozdill,kdozdill6u@slate.com,1599756295,Pulau Pinang,Pulau Pinang,Malaysia
,Clint Hartrick,chartrick6w@skyrock.com,7321277403,Damatulan,,Philippines
,Tyler Paik,tpaik6v@angelfire.com,2905091197,Recarei,Porto,Portugal
,Stanfield Kerbey,skerbey6x@salon.com,5843539986,Batulawang,,Indonesia
,Goldarina Kerrod,gkerrod6y@patch.com,7112523455,Sivers’k,,Ukraine
,Kat Jerrim,kjerrim6z@nps.gov,7632066510,Rouen,Haute-Normandie,France
,Donica Mearing,dmearing70@t-online.de,1064097977,Ponte,Porto,Portugal
,Mikel Bairstow,mbairstow71@cnn.com,4989283056,Dok Kham Tai,,Thailand
,Cyrill Arnefield,carnefield72@51.la,5519858424,Kertosari,,Indonesia
,Cullin Hoult,choult73@ow.ly,3221541054,Patique,,Philippines
,Ardra Jaksic,ajaksic74@prnewswire.com,7603186370,Huangdu,,China
,Margarette Ronisch,mronisch75@epa.gov,9656179390,Zhangbang,,China
,Tawnya Ciccottini,tciccottini76@deviantart.com,4277080867,Tielu,,China
,Olia Churchman,ochurchman78@issuu.com,4955136099,Cipatujah,,Indonesia
,Marthena Bim,mbim77@bizjournals.com,5485592366,Baikouquan,,China
,Loreen Jewers,ljewers79@multiply.com,9333586089,Pontes,Santarém,Portugal
,Wilbert Corbet,wcorbet7a@edublogs.org,6753446748,Nymburk,,Czech Republic
,Valentijn Janecki,vjanecki7b@state.tx.us,4349967885,North Side,,Cayman Islands
,Karin Mandrake,kmandrake7c@ibm.com,5147930236,Nakhchivan,,Azerbaijan
,Lalo Kearford,lkearford7d@constantcontact.com,5726810238,Kalpáki,,Greece
,Hurley Klus,hklus7e@baidu.com,3546678044,Bāglung,,Nepal
,Harvey Schulkins,hschulkins7f@cocolog-nifty.com,4799219621,Balekambang,,Indonesia
,Alessandra Rassell,arassell7g@goo.gl,9921817087,Palangan,,Indonesia
,Margi Norewood,mnorewood7h@berkeley.edu,7939947455,Kęsowo,,Poland
,Arman Cornbell,acornbell7i@washington.edu,4286127907,Swedru,,Ghana
,Cally Sinden,csinden7j@si.edu,8243243425,Santa Quitéria,,Brazil
,Marci Leinster,mleinster7k@opera.com,1855710783,Melong,,Cameroon
,Cirillo Crossthwaite,ccrossthwaite7l@gmpg.org,8631448317,Ongi,,Mongolia
,Opal Colmore,ocolmore7m@disqus.com,6551361488,Bindura,,Zimbabwe
,Marwin Vanni,mvanni7n@vistaprint.com,7562961893,Hinunangan,,Philippines
,Lance Oakly,loakly7o@sitemeter.com,9865959143,Tiantai,,China
,Galvin Millership,gmillership7p@chicagotribune.com,3388722966,Terpsithéa,,Greece
,Silvan Sutty,ssutty7q@usgs.gov,1521621759,Železnice,,Czech Republic
,Ardine O'Duilleain,aoduilleain7r@uol.com.br,7899122780,Corcuera,,Philippines
,Mela Molloy,mmolloy7s@vkontakte.ru,6689200488,Tibigan,,Philippines
,Cristine Ledgister,cledgister7t@4shared.com,3271302895,Póvoa,Leiria,Portugal
,Spence Angear,sangear7u@twitter.com,2403928642,Tinaco,,Venezuela
,Arny Bagge,abagge7v@bluehost.com,3986146402,Gizałki,,Poland
,Ad Summerfield,asummerfield7w@webs.com,4534735797,Vilar do Monte,Braga,Portugal
,Gerek Konneke,gkonneke7x@imdb.com,8784468786,Uppsala,Uppsala,Sweden
,Dena Suggitt,dsuggitt7y@odnoklassniki.ru,7761070073,Clifden,,Ireland
,Sinclair Sutch,ssutch7z@nps.gov,5835057609,Lesnoy,,Russia
,Caldwell Draisey,cdraisey80@tinypic.com,3249795864,Vinhas,Porto,Portugal
,Inger Parcells,iparcells81@nymag.com,2729519646,Non Sung,,Thailand
,Cass Seage,cseage82@npr.org,5256603242,España,,Philippines
,Darb Vyvyan,dvyvyan84@va.gov,6368726392,Sapol,,Philippines
,Dru Yitzhakof,dyitzhakof83@ed.gov,7353685681,Bao’an,,China
,Cristobal Quenell,cquenell85@biblegateway.com,5937856944,Mooka,,Japan
,Jessamyn De Dei,jde86@google.com.hk,5835261325,Bendo,,Indonesia
,Beitris Ison,bison87@amazon.com,2257543602,Jelat,,Indonesia
,Colline Jambrozek,cjambrozek88@patch.com,5012556060,Messina,,South Africa
,Anna-diana Otton,aotton8a@comsenz.com,7694770330,Benešov nad Černou,,Czech Republic
,Renaud Swale,rswale89@amazon.co.uk,1799326969,Kladovo,,Serbia
,Elise Ridder,eridder8b@yolasite.com,2509652208,Albrechtice,,Czech Republic
,Freeland Bohike,fbohike8c@mapquest.com,6624550890,Krychaw,,Belarus
,Lucia Blaes,lblaes8d@shutterfly.com,9452609237,Karanganyar,,Indonesia
,Jobyna Chestney,jchestney8e@dailymotion.com,1657085612,Bojadła,,Poland
,Curcio Kinch,ckinch8f@flavors.me,8628874231,Xianzong,,China
,Shaine Haken,shaken8g@surveymonkey.com,2161810631,Yangdang,,China
,Shaun Orviss,sorviss8h@so-net.ne.jp,7131806173,Houston,Texas,United States
,Chaddie Skedgell,cskedgell8i@com.com,3131529145,Agogo,,Ghana
,Minnaminnie Gadson,mgadson8j@unblog.fr,2414860244,Bajo Pichanaqui,,Peru
,Frankie Mould,fmould8k@kickstarter.com,6007804149,Vodyane,,Ukraine
,Hayley Gaspard,hgaspard8l@1und1.de,4374734889,Campelos,Lisboa,Portugal
,Guendolen Fairpo,gfairpo8m@examiner.com,2835769248,Kirovs’k,,Ukraine
,Pinchas Riall,priall8n@multiply.com,1802025873,Hořice,,Czech Republic
,Pancho Lavies,plavies8o@gmpg.org,3976329994,Clichy,Île-de-France,France
,Pascale Tewkesberrie,ptewkesberrie8q@arizona.edu,9718934328,Si Narong,,Thailand
,Bron Tappor,btappor8s@macromedia.com,7724703137,Zhourui,,China
,Carolynn Ollie,collie8p@ycombinator.com,8141362249,Timaru,,New Zealand
,Maximo Chastney,mchastney8r@istockphoto.com,5341876539,Moulay Abdallah,,Morocco
,Hurley Chiommienti,hchiommienti8t@woothemes.com,7717307133,Chile Chico,,Chile
,Marissa Mumbey,mmumbey8u@rakuten.co.jp,7386058438,Sidi Slimane,,Morocco
,Skylar Podbury,spodbury8v@facebook.com,5884667392,Church End,England,United Kingdom
,Gwyn Kauffman,gkauffman8w@tuttocitta.it,4471001799,Canaman,,Philippines
,Si Dudill,sdudill8x@wordpress.com,2797388041,Néa Ankhíalos,,Greece
,Stern Berry,sberry8y@mit.edu,1786565008,Bolotnoye,,Russia
,Norina McLane,nmclane8z@tiny.cc,7622768536,Morteros,,Argentina
,Nels Fairs,nfairs90@meetup.com,7716067724,Béziers,Languedoc-Roussillon,France
,Harley Tickel,htickel91@businessweek.com,9741921702,Zoumaling,,China
,Jane Bartleet,jbartleet92@yellowpages.com,9738102843,Panganiban,,Philippines
,Vally Gadesby,vgadesby93@xinhuanet.com,1029683786,Pumaqangtang,,China
,Norton Burkinshaw,nburkinshaw94@cloudflare.com,5433192538,Chengnan,,China
,Zebadiah Mussared,zmussared95@engadget.com,1219278942,Khānaqāh,,Afghanistan
,Daisie Roney,droney96@xrea.com,8718087443,Sydney,New South Wales,Australia
,Barri McQuode,bmcquode97@hao123.com,5841362834,Crateús,,Brazil
,Maribeth Meakin,mmeakin98@wordpress.org,2538079237,Parthenay,Poitou-Charentes,France
,Tedda Watsham,twatsham99@a8.net,7625654344,Karangjaladri,,Indonesia
,Tommi Panchin,tpanchin9a@businessinsider.com,8834431481,Muqui,,Peru
,Terrel Golbourn,tgolbourn9b@163.com,2176376214,Göteborg,Västra Götaland,Sweden
,Lonnard Lillecrap,llillecrap9c@comsenz.com,9869975185,Tegalagung,,Indonesia
,Katee Bennedsen,kbennedsen9d@springer.com,9297255900,Cap Malheureux,,Mauritius
,Jerrilee Bienvenu,jbienvenu9e@mashable.com,2456800487,Kulia Village,,Tuvalu
,Stephani Plowell,splowell9f@jalbum.net,4901365659,Linköping,Östergötland,Sweden
,Betty Giovannardi,bgiovannardi9g@tinyurl.com,3923649916,Oeleu,,Indonesia
,Vernon McQuorkell,vmcquorkell9h@blogspot.com,2733388630,Renliu,,China
,Rayshell Dunckley,rdunckley9i@usda.gov,9784779656,Stizhkivs’ke,,Ukraine
,Dolph Olech,dolech9k@nyu.edu,9774271781,Timon,,Indonesia
,Izaak Cootes,icootes9j@washington.edu,6631722274,General Alvear,,Argentina
,Lucian Cunradi,lcunradi9l@washingtonpost.com,5516801888,Santa Catalina,,Philippines
,Sol Capelen,scapelen9m@github.com,2749938919,Zhanxu,,China
,Lorant Winram,lwinram9n@prweb.com,3762295969,San Vicente,,Costa Rica
,Donnell Gouldthorp,dgouldthorp9o@loc.gov,5361846407,Pederneiras,,Brazil
,Aggi Malletratt,amalletratt9p@addthis.com,1012638746,Chicacao,,Guatemala
,Tiebout Sharnock,tsharnock9q@hud.gov,7081913882,Tomaszów Lubelski,,Poland
,Myles Greenset,mgreenset9r@latimes.com,2985597047,Quma,,China
,Heindrick McCole,hmccole9u@google.co.uk,2645909011,Aizhai,,China
,Bronny Zanini,bzanini9t@mail.ru,1791147659,Arasji,,Aruba
,Hyacinthie Nordass,hnordass9s@skyrock.com,7108674874,Aghavnatun,,Armenia
,Angelina Mattys,amattys9w@oakley.com,2186239251,Cibunar,,Indonesia
,Emmaline Bridgeland,ebridgeland9v@bbb.org,8658239266,Tarauacá,,Brazil
,Erroll Fishburn,efishburn9x@freewebs.com,1899334593,Sinuknipan,,Philippines
,Theresa Koppes,tkoppes9z@mac.com,4137378788,Szprotawa,,Poland
,Rozina Dencs,rdencs9y@alexa.com,3481469745,Marabahan,,Indonesia
,Gypsy MacGillacolm,gmacgillacolma0@rediff.com,6364030981,Taohua,,China
,Frederico Pipes,fpipesa1@guardian.co.uk,1895487921,Shōbara,,Japan
,Paloma Haskur,phaskura2@archive.org,8707763677,Malaruhatan,,Philippines
,Brandea Beecker,bbeeckera3@istockphoto.com,2887560683,Erétria,,Greece
,Kendell Kluger,kklugera4@techcrunch.com,6699663857,Igreja,Vila Real,Portugal
,Shannen Hadwick,shadwicka5@intel.com,9631476968,Achadinha,Ilha de São Miguel,Portugal
,Sanson Tarbox,starboxa6@ezinearticles.com,4556124611,Harderwijk,Provincie Gelderland,Netherlands
,Roxi Paolicchi,rpaolicchia7@ow.ly,4154727717,San Francisco,California,United States
,Oren Juanico,ojuanicoa9@auda.org.au,4066815510,Yeşilköy,Samsun,Turkey
,Zeke Manchett,zmanchettaa@mtv.com,6168866175,Grand Rapids,Michigan,United States
,Kikelia Dakhno,kdakhnoab@whitehouse.gov,3218335241,Gilowice,,Poland
,Ruggiero Marflitt,rmarflitta8@printfriendly.com,6827446838,Fort Worth,Texas,United States
,Buffy Lawman,blawmanac@tiny.cc,7457841258,Savelugu,,Ghana
,Zebulon Penson,zpensonad@constantcontact.com,9321513015,Nova Friburgo,,Brazil
,Vladimir Jeger,vjegerae@aol.com,1484457293,Chagoda,,Russia
,Emmi Kibel,ekibelaf@usgs.gov,3674025906,Toledo,,Philippines
,Murdoch Tremellan,mtremellanag@rambler.ru,9541092845,Sardasht,,Iran
,Trixi Drance,tdranceah@netvibes.com,6788473580,Manicahan,,Philippines
,Liz Dowsey,ldowseyaj@163.com,7109773133,Rufino,,Argentina
,Roderic Archbold,rarchboldak@unicef.org,4994858216,Caijiapu,,China
,Ricky Beak,rbeakai@bloomberg.com,3529260405,Kabīrwāla,,Pakistan
,Lyndsay Gerren,lgerrenal@theatlantic.com,8283562525,Żabieniec,,Poland
,Nikos Salvadori,nsalvadoriam@washingtonpost.com,6608046146,Rēzekne,,Latvia
,Cullan Shales,cshalesan@cbslocal.com,2157283797,Dār an Naşr,,Yemen
,Bettye Jakobsson,bjakobssonao@issuu.com,9673322055,Keda,,China
,Ave O'Dempsey,aodempseyap@1und1.de,9088621127,Nurabelen,,Indonesia
,Barr Boller,bbolleraq@wisc.edu,2276085819,Gojō,,Japan
,Dre Winfred,dwinfredar@gravatar.com,3506287773,Skien,Telemark,Norway
,Andie Bottell,abottellas@canalblog.com,7882321892,Arcoverde,,Brazil
,Korey Norcliff,knorcliffat@foxnews.com,8697521357,Ban Lam Luk Ka,,Thailand
,Irving Riddall,iriddallau@sbwire.com,2865513433,Bang Khon Thi,,Thailand
,Letisha Allom,lallomav@chron.com,1151810869,Stockholm,Stockholm,Sweden
,Klara Soonhouse,ksoonhouseaw@techcrunch.com,3539960795,Zhongcun,,China
,Felecia Simoncini,fsimonciniax@wikispaces.com,2331312311,Lyon,Rhône-Alpes,France
,Minor Torres,mtorresay@phoca.cz,5812442535,Tohautu,,French Polynesia
,Chico Kimmince,ckimminceb0@pcworld.com,2677994759,Alminhas,Braga,Portugal
,Stillman Kilban,skilbanaz@fastcompany.com,6488543148,Pácora,,Colombia
,Marcello Waywell,mwaywellb1@yellowbook.com,9345007821,Langxi,,China
,Anatola Beringer,aberingerb2@feedburner.com,4434998648,Kuiyong,,China
,Harrietta Sherer,hshererb4@youtu.be,9808053139,Santiago,,Paraguay
,Kattie Jeskins,kjeskinsb3@mozilla.com,3995189569,Vista Hermosa,Guerrero,Mexico
,Christyna Grierson,cgriersonb5@phpbb.com,5278390217,Shatian,,China
,Ethyl Clarae,eclaraeb6@godaddy.com,6197749982,Oripää,,Finland
,Joan Nealand,jnealandb7@canalblog.com,5237606863,Lazaro Cardenas,Tabasco,Mexico
,Ynez Livesley,ylivesleyb8@desdev.cn,9003487722,Qingyang,,China
,Nolly Halpen,nhalpenb9@rediff.com,8095597944,Sumbersewu,,Indonesia
,Odessa Marshman,omarshmanba@nbcnews.com,3056411238,Ulyanovsk,,Russia
,Althea Wickwarth,awickwarthbb@behance.net,9353052234,Al Quwaysimah,,Jordan
,Leann Joscelin,ljoscelinbc@hubpages.com,4409882225,Bayamo,,Cuba
,Aluin Mainstone,amainstonebd@blogspot.com,8689691480,Santa Fe de la Vera Cruz,,Argentina
,Janice Destouche,jdestouchebe@yellowbook.com,3524982792,Shinkafe,,Nigeria
,Joelle Rickell,jrickellbf@51.la,7886889917,Zhichu,,China
,Dallon Dyble,ddyblebg@princeton.edu,6596134251,Sanom,,Thailand
,Cameron Franssen,cfranssenbh@tumblr.com,5105127089,Yotsukaidō,,Japan
,Sarene Rivett,srivettbi@mac.com,9591276011,Sangpi,,China
,Peggie Goligly,pgoliglybj@baidu.com,3818244301,Votkinsk,,Russia
,Homerus Jillitt,hjillittbk@economist.com,6654896757,Russas,,Brazil
,Shell Cartan,scartanbl@google.cn,4828349726,Raheny,,Ireland
,Tressa Haxby,thaxbybm@kickstarter.com,9326476333,El Fasher,,Sudan
,Egon Matson,ematsonbn@sbwire.com,3307463720,Andrushivka,,Ukraine
,Woodrow Maymand,wmaymandbo@oracle.com,5321834472,Uścimów Stary,,Poland
,Enriqueta Barhem,ebarhembp@unc.edu,3427039010,Harrison,,Philippines
,Clovis Bermingham,cberminghambq@hp.com,3042695934,Huntington,West Virginia,United States
,Chancey Thombleson,cthomblesonbr@wordpress.com,8309879684,Krajan,,Indonesia
,Daron Aitken,daitkenbs@prweb.com,1485246527,Jasienica,,Poland
,Katrina Fuidge,kfuidgebu@paginegialle.it,6065902967,Xinji,,China
,Almeria Tuny,atunybv@yandex.ru,3405738972,Hendaye,Aquitaine,France
,Witty Jollye,wjollyebt@wikipedia.org,9167095248,Ugba,,Nigeria
,Ashla Backler,abacklerbw@usatoday.com,7013752032,Lazaro Cardenas,Mexico,Mexico
,Ethan Mitchenson,emitchensonby@icio.us,5739535865,Makabe,,Japan
,Sisile Foreman,sforemanbz@tumblr.com,7378236311,Santa Lucía,,Colombia
,Georas de Cullip,gdebx@ft.com,8198523198,Zhiqu,,China
,Eugen Paolotto,epaolottoc0@nps.gov,1524260778,Trzciana,,Poland
,Averill Bartelot,abartelotc1@oakley.com,2908087456,Talakag,,Philippines
,Dahlia Shinfield,dshinfieldc2@angelfire.com,5531627510,Chenchang,,China
,Tana Martins,tmartinsc3@wufoo.com,6785860910,Tuam,,Ireland
,Armin Becarra,abecarrac4@creativecommons.org,4328084151,Juxing,,China
,Allis Bosden,abosdenc5@bing.com,3222468826,Babica,,Poland
,Pollyanna Lummasana,plummasanac7@apache.org,2061704344,Jiekou,,China
,Melania McNamara,mmcnamarac6@jalbum.net,8685602006,Gaoping,,China
,Seka Baruch,sbaruchc8@qq.com,8491601232,Ramotswa,,Botswana
,Cleve Heys,cheysc9@examiner.com,5865314092,Udanin,,Poland
,Lynelle Breed,lbreedca@twitpic.com,2388282848,Stamáta,,Greece
,Myrtie Valadez,mvaladezcb@hubpages.com,6669900368,Hongdu,,China
,Blane Weddup,bweddupcc@sbwire.com,7543952350,Gaozhou,,China
,Garret Acors,gacorscd@zdnet.com,9972809374,Bitaogan,,Philippines
,Hollis Ride,hridece@themeforest.net,6809525620,Dinggou,,China
,Lory Axworthy,laxworthycf@thetimes.co.uk,3754728311,Cancas,,Peru
,Stevana Puden,spudencg@paginegialle.it,8964643616,Chiguang,,China
,Somerset Bryce,sbrycech@mashable.com,7868831548,Yueshan,,China
,Ives Rennox,irennoxci@github.io,1442468268,Vilarinho da Castanheira,Bragança,Portugal
,Norry Andreacci,nandreaccicj@google.co.jp,7995391734,Domašinec,,Croatia
,Thurstan Cordero,tcorderock@pbs.org,6582041377,Olmos,,Peru
,Hyacintha Moyse,hmoysecl@discuz.net,6272836957,Taghazout,,Morocco
,Alva Sutherby,asutherbycm@addtoany.com,7947963024,Tempeh Tengah,,Indonesia
,Corabel Duxbarry,cduxbarryco@senate.gov,8632933292,Cinyawang,,Indonesia
,Walden Fludder,wfluddercn@sbwire.com,8468658981,Siumate,,Indonesia
,Shannon Randals,srandalscp@last.fm,9545042652,Bantardawa,,Indonesia
,Job Mcsarry,jmcsarrycq@rediff.com,4186620917,Dadaha,,Indonesia
,Catlin Woolliams,cwoolliamscs@mayoclinic.com,1573447105,Vithkuq,,Albania
,Emelita Creany,ecreanycr@etsy.com,7296268146,Borik,,Indonesia
,Bordie Lundberg,blundbergcu@slate.com,1249997203,Sirājganj,,Bangladesh
,Gilbertine Guyonneau,gguyonneauct@wp.com,5073935880,Bologoye,,Russia
,Doloritas Draycott,ddraycottcv@mysql.com,1141006602,Chengnan,,China
,Holmes Churches,hchurchescw@mozilla.org,4311194728,Mādabā,,Jordan
,Billye Geggus,bgegguscx@skyrock.com,8148685591,Hongwei,,China
,Birgit Tolson,btolsoncy@webeden.co.uk,3493028214,Gangtun,,China
,Doug Pawels,dpawelscz@addtoany.com,5713975787,Sterling,Virginia,United States
,Lori Mayne,lmayned0@state.gov,3658698650,Tessaoua,,Niger
,Shae Bucknill,sbucknilld1@weather.com,2775678100,Jabon,,Indonesia
,Forster Forgan,fforgand2@homestead.com,7656315846,Calvinia,,South Africa
,Titus Costello,tcostellod3@cornell.edu,9083394290,Uglich,,Russia
,Caitrin Kittles,ckittlesd5@si.edu,4571858535,Anyu,,China
,Candida Fibbit,cfibbitd4@gravatar.com,6527783162,Bilozerka,,Ukraine
,Berti Wakeling,bwakelingd6@yahoo.co.jp,7242735264,Puolanka,,Finland
,Camille Gircke,cgircked7@google.nl,7824760244,Zorak,,Armenia
,Madalyn Schukert,mschukertd8@state.tx.us,3656742133,Tartagal,,Argentina
,Robinet Baselio,rbaseliod9@sitemeter.com,7019740804,Xinxu,,China
,Martina Danovich,mdanovichda@storify.com,1285536232,Ovalle,,Chile
,Dory Clemes,dclemesdb@hud.gov,7583845672,Steinkjer,Nord-Trondelag,Norway
,Ulrick Thorowgood,uthorowgooddc@dot.gov,6739668343,Daying,,China
,Maighdiln Primo,mprimodd@unicef.org,5942000167,Karangbungur,,Indonesia
,Sena Akister,sakisterde@nifty.com,6293764481,Bibinje,,Croatia
,Stanly Godbold,sgodbolddf@washington.edu,2691065912,Xikou,,China
,Britni Posse,bpossedg@ftc.gov,1985508375,Virojoki,,Finland
,Margette Sweedy,msweedydh@time.com,3621833182,Konin,,Poland
,Isidor Dradey,idradeydi@360.cn,8732434641,Rybatskoye,,Russia
,Haskell Scarr,hscarrdj@cpanel.net,2919627763,Quchanghī,,Afghanistan
,Vilma Mucklow,vmucklowdk@google.ru,7212438868,Canindé,,Brazil
,Renaud Okeshott,rokeshottdl@jugem.jp,9897651277,Dagushan,,China
,Angelica Josuweit,ajosuweitdm@japanpost.jp,8168719663,Mang’it Shahri,,Uzbekistan
,Elane Baggot,ebaggotdn@icio.us,6546605321,Bafang,,Cameroon
,Misti Crumpe,mcrumpedo@istockphoto.com,1488960286,Karak City,,Jordan
,Aldin MacComiskey,amaccomiskeydp@arizona.edu,9714279141,Oesain,,Indonesia
,Martie Rowthorn,mrowthorndr@ask.com,3895127089,Colegiales,,Argentina
,Harland Stiegar,hstiegardq@acquirethisname.com,7608698885,Hakui,,Japan
,Sandro Buckeridge,sbuckeridgeds@i2i.jp,2315933017,Klenčí pod Čerchovem,,Czech Republic
,Oates Espasa,oespasadt@sogou.com,7765911653,Seso,,Indonesia
,Denna Cupitt,dcupittdu@google.de,9732054959,Wujingfu,,China
,Annemarie Martygin,amartygindv@dot.gov,8791504717,Montes Velhos,Beja,Portugal
,Quinn Jannex,qjannexdw@hatena.ne.jp,4398281270,Margita,,Serbia
,Cora Steen,csteendx@studiopress.com,6953736089,Clogherhead,,Ireland
,Edmund McGrann,emcgranndy@psu.edu,2369950361,Água de Pau,Ilha de São Miguel,Portugal
,Andrei Matt,amattdz@photobucket.com,7869663508,La Esmeralda,,Venezuela
,Gertruda Sellwood,gsellwoode0@naver.com,2575828722,Houbai,,China
,Zonnya Loadsman,zloadsmane1@ask.com,6586215729,Mamburao,,Philippines
,Constantine Phillipp,cphillippe2@youku.com,4054276994,Oklahoma City,Oklahoma,United States
,Ajay Dantesia,adantesiae3@bloomberg.com,2201384493,Tangkanpulit,,Indonesia
,Gnni O'Riordan,goriordane4@globo.com,1557771999,Nowogard,,Poland
,Uri Yearns,uyearnse5@mozilla.org,2529372811,Ziyuan,,China
,Cesya Virgo,cvirgoe6@tamu.edu,5023337494,Zarqa,,Jordan
,Garrot Lowther,glowthere7@msn.com,8098466686,Aş Şafaqayn,,Yemen
,El Boylund,eboylunde8@webnode.com,8196230895,Velestíno,,Greece
,Peggy Sturr,psturre9@tiny.cc,4551490504,Villa Nueva,,Honduras
,Bianka Bartod,bbartodec@odnoklassniki.ru,6162444553,Grand Rapids,Michigan,United States
,Marleen Oylett,moylettea@google.ru,5271981864,Yunlong,,China
,Janna Paradine,jparadineeb@oaic.gov.au,4155254950,San Francisco,California,United States
,Marley Enders,mendersed@epa.gov,5217802263,Pehčevo,,Macedonia
,Courtnay Simester,csimesteree@goo.ne.jp,7185681561,Espírito Santo do Pinhal,,Brazil
,Rickert Chesney,rchesneyef@rambler.ru,2867736901,San Pedro Sacatepéquez,,Guatemala
,Emilia Retallack,eretallackeg@amazonaws.com,8093005869,Sanjiangkou,,China
,Viviene Moring,vmoringei@lulu.com,3715267985,Adani,,Nigeria
,Elisabet Pegrum,epegrumeh@ameblo.jp,6676835032,Soacha,,Colombia
,Ado Goby,agobyej@cafepress.com,7447991139,Tournon-sur-Rhône,Rhône-Alpes,France
,Rosabella Bigby,rbigbyek@wordpress.com,5449251160,Benito Juarez,Chihuahua,Mexico
,Kristy Hicken,khickenel@cam.ac.uk,8594569689,Wantou,,China
,Etty Heffer,ehefferem@webs.com,7444389875,Subulussalam,,Indonesia
,Eb Lucken,eluckenen@github.com,3584775523,Starobachaty,,Russia
,Steffi Bynert,sbynerteo@vk.com,5079528522,Hostomice,,Czech Republic
,Adara Hitscher,ahitscherep@mayoclinic.com,1381341086,Staré Křečany,,Czech Republic
,Cristie Coldbath,ccoldbatheq@usa.gov,2601938245,Pomabamba,,Peru
,Kariotta Mussington,kmussingtoner@google.it,1515572935,Gandoang,,Indonesia
,Gael Philipsen,gphilipsenes@youku.com,5028204302,Olyka,,Ukraine
,Earvin Fitzroy,efitzroyet@twitpic.com,8991759586,El Tambo,,Colombia
,Malinde Edy,medyeu@newyorker.com,4862024288,Château-Richer,Québec,Canada
,Ulberto Kohnemann,ukohnemannev@people.com.cn,1343649616,Xichang,,China
,Lurlene Legge,lleggeex@europa.eu,2233373663,Utrecht (stad),Provincie Utrecht,Netherlands
,Masha Rubel,mrubelew@mlb.com,9845883774,Gingsir,,Indonesia
,Lawry Renner,lrennerez@gizmodo.com,1152530820,Rio de Janeiro,,Brazil
,Kathy Tippetts,ktippettsey@bloglines.com,8774010415,Kabakovo,,Russia
,Mehetabel Saltsberg,msaltsbergf0@epa.gov,7693390736,Orlová,,Czech Republic
,Harold McIlhone,hmcilhonef1@plala.or.jp,4115436752,El Capulin,Mexico,Mexico
,Teodora Eytel,teytelf2@ftc.gov,6203375174,Blora,,Indonesia
,Klarrisa Ansill,kansillf3@phoca.cz,7173928030,Arvika,Värmland,Sweden
,Florry Pitrollo,fpitrollof4@shop-pro.jp,2001763899,Glagahan,,Indonesia
,Redford Jeff,rjefff5@skyrock.com,5988670079,Arue,,French Polynesia
,Jaclin O'Kinneally,jokinneallyf6@reverbnation.com,1223941663,Sunampe,,Peru
,Em Sellor,esellorf7@cbc.ca,9691148046,Banovo Polje,,Serbia
,Price Robion,probionf8@yellowpages.com,9086814218,Abobo,,Ivory Coast
,Webster Matiebe,wmatiebef9@homestead.com,3052359065,Morales,,Colombia
,Rocky Zylbermann,rzylbermannfa@hugedomains.com,4403442390,Uherce Mineralne,,Poland
,Benjamin Ledur,bledurfb@furl.net,7672320695,Bharatpur,,Nepal
,Leonidas Matzeitis,lmatzeitisfc@independent.co.uk,4391229475,Bazha,,China
,Perle Jedrys,pjedrysfd@sun.com,8769651981,Nynäshamn,Stockholm,Sweden
,Hernando Kopisch,hkopischfe@washington.edu,9288206181,Montpellier,Languedoc-Roussillon,France
,Jolee Skillitt,jskillittff@yelp.com,2621780163,Wudong,,China
,Barde Woolaghan,bwoolaghanfg@wikipedia.org,3234199190,Zhukovskiy,,Russia
,Roana Drewes,rdrewesfh@zimbio.com,9214679149,Obukhiv,,Ukraine
,Mariette Humphery,mhumpheryfj@chronoengine.com,8818082400,Skhira,,Tunisia
,Lula Hebble,lhebblefi@google.co.uk,5241002969,Qihama,,China
,Morlee Hitschke,mhitschkefk@independent.co.uk,3449254304,Doushan,,China
,Ellery Tibbits,etibbitsfl@uol.com.br,5124777577,Andrushivka,,Ukraine
,Idalina Learoyd,ilearoydfn@uol.com.br,3843596008,Köln,Nordrhein-Westfalen,Germany
,Chico Blaase,cblaasefm@issuu.com,7915651510,Mojo,,Ethiopia
,Florence Baudic,fbaudicfo@wikimedia.org,2073535818,Speightstown,,Barbados
,Falkner Utting,futtingfp@ibm.com,3375864496,Čair,,Macedonia
,Jere Preto,jpretofq@seattletimes.com,3113925718,Kaduy,,Russia
,Ajay Henze,ahenzefr@aboutads.info,2502590062,Esperanza,,Philippines
,Elisha Cosker,ecoskerfs@springer.com,4159203627,Igunga,,Tanzania
,Roddie Samett,rsamettft@ebay.co.uk,3929008315,Puteaux,Île-de-France,France
,Almire Dibnah,adibnahfu@reuters.com,7702151430,Garmeh,,Iran
,Nikki Decker,ndeckerfv@noaa.gov,4312168498,Rancho Viejo,Guerrero,Mexico
,Ludvig Cowmeadow,lcowmeadowfw@posterous.com,1485009196,Xiaoshi,,China
,Heinrick Kidby,hkidbyfx@fastcompany.com,5047012880,Dawa-Dawa,,Philippines
,Goldia Errington,gerringtonfy@smugmug.com,2156137624,Itapema,,Brazil
,Marlowe St Clair,mstfz@buzzfeed.com,3682059576,Morant Bay,,Jamaica
,Merle Glancy,mglancyg0@addthis.com,9516477177,Nowa Dęba,,Poland
,Orland Bolter,obolterg1@sina.com.cn,9988656970,Alderetes,,Argentina
,Pandora Skittrell,pskittrellg4@typepad.com,8478451909,Apucarana,,Brazil
,Mildred Milington,mmilingtong2@edublogs.org,9693431207,Santa Luzia,Ilha do Pico,Portugal
,Ricard Mullord,rmullordg3@theglobeandmail.com,6559842116,Río Tercero,,Argentina
,Goldarina Gibbonson,ggibbonsong5@sitemeter.com,6743834831,Zhongshan Donglu,,China
,Baryram Anthony,banthonyg6@github.com,2264015747,Pamanukan,,Indonesia
,Jarvis Binney,jbinneyg7@sitemeter.com,3642067651,Daying,,China
,Brade Northidge,bnorthidgeg8@si.edu,5565314661,Chenjiaba,,China
,Cordey Esch,ceschg9@wufoo.com,7543178966,Belūsovka,,Kazakhstan
,Graig Cuesta,gcuestaga@buzzfeed.com,4984616982,Armenia,,Colombia
,Jean Lazar,jlazargb@pbs.org,4879305475,Libas,,Philippines
,Grayce McInerney,gmcinerneygc@themeforest.net,1145412582,Nila Dua,,Indonesia
,Vivi Densell,vdensellgd@shareasale.com,2944128041,Luocun,,China
,Suki Kleinzweig,skleinzweigge@github.io,4153263853,Dengzhou,,China
,Alexandro Taveriner,ataverinergf@friendfeed.com,5661611346,Taunggyi,,Myanmar
,Chiquia Matuszak,cmatuszakgg@51.la,1931256026,Mombaça,,Brazil
,Tann Greetland,tgreetlandgh@people.com.cn,6506613508,Mineiros,,Brazil
,Piggy Shepherd,pshepherdgi@sourceforge.net,7689273222,Catarina,,Nicaragua
,Nevins Renouf,nrenoufgj@google.com.au,2708111183,Tournan-en-Brie,Île-de-France,France
,Celie Struttman,cstruttmangk@t-online.de,4199715078,Qiuchuan,,China
,Blaire McGillicuddy,bmcgillicuddygl@oakley.com,5016028048,Troitskiy,,Russia
,Mickie Gettens,mgettensgm@surveymonkey.com,5908130201,Zhenshan,,China
,Terry De Giovanni,tdegn@topsy.com,4358761105,Huinca Renancó,,Argentina
,Stu Lackington,slackingtongo@cornell.edu,8184165629,Azogues,,Ecuador
,Keene Willans,kwillansgp@cargocollective.com,3798301512,Kaznějov,,Czech Republic
,Reynold Eneas,reneasgq@simplemachines.org,6297269392,Tsementnozavodskiy,,Russia
,Normie Gummoe,ngummoegr@yellowbook.com,7827366594,Hauhena,,Indonesia
,Jeddy Bignold,jbignoldgs@issuu.com,2086187022,Cibunut,,Indonesia
,Allys Loder,alodergt@instagram.com,6504783614,Sanski Most,,Bosnia and Herzegovina
,Steve Fierman,sfiermangu@youku.com,6888859665,Finzes,Porto,Portugal
,Estele Botwood,ebotwoodgv@google.com.hk,7541021377,Uyuni,,Bolivia
,Brear Kingston,bkingstongw@furl.net,8551175116,Puerto Quellón,,Chile
,Shirlee McArd,smcardgx@psu.edu,3754197085,Ximapo,,China
,Rosalynd Selburn,rselburngy@un.org,1018457282,Al Qanāwiş,,Yemen
,Harcourt Belliveau,hbelliveaugz@biblegateway.com,7903597435,Mirocin,,Poland
,Valentin Pehrsson,vpehrssonh0@skype.com,8314245416,Melenki,,Russia
,Fabien Fysh,ffyshh1@issuu.com,3904659720,Torre,Vila Real,Portugal
,Bernie Wooff,bwooffh2@deviantart.com,7292574502,Châteauroux,Centre,France
,Rahal Brandsma,rbrandsmah3@360.cn,3084026596,Machinga,,Malawi
,Kerk McCrudden,kmccruddenh5@phoca.cz,9322326753,Dimitrovgrad,,Bulgaria
,Barbi Dallicott,bdallicotth4@canalblog.com,1997037550,Makungu,,Tanzania
,Samara Greasty,sgreastyh6@friendfeed.com,8536330967,Jacaltenango,,Guatemala
,Chance Folli,cfollih7@uol.com.br,2546697371,Julun,,China
,Ring Sokill,rsokillh8@parallels.com,4365195503,Saint-Sauveur,Québec,Canada
,Sybyl Oki,sokih9@pinterest.com,3266539936,Lyubashivka,,Ukraine
,Petrina Whittek,pwhittekha@whitehouse.gov,6782124567,San Benito,,Philippines
,Norrie Bille,nbillehb@wisc.edu,4202206936,Mellieħa,,Malta
,Rowney Fury,rfuryhc@spotify.com,2127734409,Clones,,Ireland
,Godwin Bosket,gboskethd@symantec.com,2176756753,Lumsden,Saskatchewan,Canada
,Sergei MacCart,smaccarthe@dailymotion.com,6205326289,Xiangtang,,China
,Breanne Shilburne,bshilburnehf@europa.eu,9118410149,Niamey,,Niger
,Bree Salazar,bsalazarhg@about.me,4003695515,Vichuga,,Russia
,Archy Slater,aslaterhh@jigsy.com,1926925034,Cimara,,Indonesia
,Kit Pietzke,kpietzkehi@fotki.com,3289227113,Santiaoshi,,China
,Shaw Mocquer,smocquerhj@ovh.net,1081404300,Šmarje pri Jelšah,,Slovenia
,Erick Elnough,eelnoughhk@deliciousdays.com,4002356678,Pilcomay,,Peru
,Dora Dundridge,ddundridgehl@networkadvertising.org,5003435950,Kalapagenep,,Indonesia
,Anselma Older,aolderhm@cmu.edu,5663072225,Boac,,Philippines
,Janeen Mawditt,jmawditthn@mit.edu,3817601352,Yinyang,,China
,Maddy Roseborough,mroseboroughho@behance.net,7965437022,Banjarbaru,,Indonesia
,Aubree Chatainier,achatainierhp@oaic.gov.au,2187172366,Głogów Małopolski,,Poland
,Midge Ivanilov,mivanilovhq@jugem.jp,8067201234,Banjar Dauhpangkung,,Indonesia
,Mar Diwell,mdiwellhr@usa.gov,1065388204,Mongar,,Bhutan
,Fairlie Kennelly,fkennellyhs@artisteer.com,3224254178,Debrecen,Hajdú-Bihar,Hungary
,Shaylyn Mooreed,smooreedht@nsw.gov.au,5485807289,Wyszogród,,Poland
,Stacy Farrow,sfarrowhu@opera.com,3886681003,Zghartā,,Lebanon
,Vale Tripet,vtripethv@tiny.cc,4687034502,Sundsvall,Västernorrland,Sweden
,Cam Hearsey,chearseyhw@vimeo.com,8817860658,Zahlé,,Lebanon
,Josee Lochhead,jlochheadhx@house.gov,9013780811,Zvishavane,,Zimbabwe
,Andie Scotchbrook,ascotchbrookhy@vk.com,2125130284,Leiden,Provincie Zuid-Holland,Netherlands
,Michell Danels,mdanelshz@infoseek.co.jp,2864234664,Sigli,,Indonesia
,Matti Joule,mjoulei0@independent.co.uk,8796465290,Shamboyacu,,Peru
,Kendal Ruck,krucki2@unblog.fr,5216434328,Pancas,,Brazil
,Brig Pattenden,bpattendeni1@desdev.cn,8167078983,Kansas City,Kansas,United States
,Willow Samett,wsametti3@prlog.org,7284127520,Huachos,,Peru
,Garv Schirok,gschiroki4@addthis.com,9772904096,Helmas,,Albania
,Persis Leyborne,pleybornei5@latimes.com,9001154271,Wafang,,China
,Leicester Prydie,lprydiei6@buzzfeed.com,8519341708,Malapaubhara,,Indonesia
,Lucio Liddicoat,lliddicoati7@arstechnica.com,6507251433,Sơn Tịnh,,Vietnam
,Berenice Essex,bessexi9@w3.org,8174791485,Mompach,,Luxembourg
,Dave Castellino,dcastellinoi8@multiply.com,3633119899,Novi Sad,,Serbia
,Ines Brewerton,ibrewertonia@tinypic.com,6086052789,Monze,,Zambia
,Danni Jiracek,djiracekib@rakuten.co.jp,7693710786,Dinjo,,Indonesia
,Ragnar Ebenezer,rebenezeric@tinypic.com,5251801474,Ortiga,Santarém,Portugal
,Fawn Maypother,fmaypotherie@apache.org,6248713220,Lauro de Freitas,,Brazil
,Filmer Pressdee,fpressdeeid@unicef.org,4538761631,Zykovo,,Russia
,Rafaello Orgill,rorgillii@about.me,3807005135,Psary,,Poland
,Sam Halesworth,shalesworthif@blogspot.com,8194611228,Oughterard,,Ireland
,Nadean Bischoff,nbischoffig@liveinternet.ru,1624024633,Matinha,,Brazil
,Cal Ledger,cledgerih@nba.com,5412230071,Neni,,Nigeria
,Marie-ann Capel,mcapelij@goo.gl,9143406141,Frei,More og Romdal,Norway
,Karon Buxsey,kbuxseyik@unblog.fr,1503307365,Matungao,,Philippines
,Mort Callan,mcallanil@vk.com,8867741394,São Pedro,Braga,Portugal
,Lilah Silmon,lsilmonim@github.com,7566789558,Camgyai,,China
,Honoria O' Brian,hoio@macromedia.com,3715674149,Mealhada,Aveiro,Portugal
,Marchall Wellan,mwellanin@upenn.edu,5376638040,Ijero-Ekiti,,Nigeria
,Gray Dantesia,gdantesiaip@flavors.me,5585634849,Paraíso das Águas,,Brazil
,Richie Derry,rderryiq@cocolog-nifty.com,1163345371,Tatebal,,Indonesia
,Wanids Toppas,wtoppasir@facebook.com,6996529106,Le Havre,Haute-Normandie,France
,Wittie Dorgon,wdorgonis@ebay.co.uk,2893859571,Şafāshahr,,Iran
,Nickie Ridge,nridgeit@kickstarter.com,4793838322,Kristiansund N,More og Romdal,Norway
,Luce Gerrett,lgerrettiw@so-net.ne.jp,5018160346,Bukonyo,,Tanzania
,Eyde Foxwell,efoxwelliv@marriott.com,4969218912,Cúa,,Venezuela
,Marlie Blunsum,mblunsumiu@soundcloud.com,3987264667,Dunmanway,,Ireland
,Jeramey Betjes,jbetjesix@wikipedia.org,5475589191,Los Lotes,,Panama
,Ardenia Cheson,achesoniy@fastcompany.com,9875365960,Andongsari,,Indonesia
,Jewel Pinchbeck,jpinchbeckiz@xing.com,2118112060,Nu’erbage,,China
,Fanchon Carrel,fcarrelj0@ning.com,4241387481,Fengjiang,,China
,Thorin Hugueville,thuguevillej1@youtube.com,9394011596,Jiworejo,,Indonesia
,Samuel Maryon,smaryonj2@ucoz.com,1248720263,Ngrayun,,Indonesia
,Rivalee Bartoszek,rbartoszekj3@addtoany.com,6971268719,Chongxian,,China
,Claudine Covert,ccovertj4@histats.com,7039901730,Santo Tomas,,Philippines
,Jorey Kernell,jkernellj5@jalbum.net,6629903971,Anthoúsa,,Greece
,Sapphire Coggings,scoggingsj6@networkadvertising.org,5815248039,Kawaliwu,,Indonesia
,Joelynn Bruffell,jbruffellj7@myspace.com,2099581151,El Copey,,Colombia
,Marjory Heady,mheadyj8@csmonitor.com,1887477266,Rokytnice nad Jizerou,,Czech Republic
,Sydney Whannel,swhannelj9@dedecms.com,3828021365,Stockholm,Stockholm,Sweden
,Inessa Korous,ikorousja@i2i.jp,3427953922,Lyuban’,,Russia
,Karna Khristoforov,kkhristoforovjb@yandex.ru,4722997622,Sebedo,,Indonesia
,Mollie Blankley,mblankleyjc@seattletimes.com,1232486174,Svenljunga,Västra Götaland,Sweden
,Jessee Waddams,jwaddamsjd@oaic.gov.au,3989954616,Vohipaho,,Madagascar
,Amerigo Gretton,agrettonje@hp.com,8581420663,San Francisco,California,United States
,Vinita McClymond,vmcclymondjf@nba.com,4302645110,Willowmore,,South Africa
,Waldon Pollitt,wpollittjg@elegantthemes.com,4066896402,Beylagan,,Azerbaijan
,Alexei Cristofano,acristofanojh@amazon.co.uk,9854715010,Quitilipi,,Argentina
,Aliza Catlow,acatlowji@vk.com,5989603478,‘Alī al Gharbī,,Iraq
,Farrand Pochon,fpochonjj@quantcast.com,5026086325,Louisville,Kentucky,United States
,Agnes Rosendall,arosendalljk@google.it,2243072591,Vila Chã,Viseu,Portugal
,Crystal Sarson,csarsonjl@domainmarket.com,6113418811,Mabiton,,Philippines
,Cathryn Kearn,ckearnjm@sbwire.com,2748164452,Socorro,,Philippines
,Elmer Sipson,esipsonjn@vk.com,4978356823,Shangdundu,,China
,Wright Josefsson,wjosefssonjo@techcrunch.com,7388277840,Malaga,Andalucia,Spain
,Eveleen Whipp,ewhippjp@slashdot.org,5939919149,Monte Alegre,,Brazil
,Guy Fairchild,gfairchildjq@is.gd,6762019403,Aranyaprathet,,Thailand
,Bell Liddell,bliddelljr@vkontakte.ru,6047957464,Leganes,Madrid,Spain
,Adriano Alabone,aalabonejs@mediafire.com,7445407845,Yanshan,,China
,Teressa Faveryear,tfaveryearjt@cafepress.com,8176712445,Fort Worth,Texas,United States
,Aylmer Lambdean,alambdeanjv@bloomberg.com,5107854344,Sam Phran,,Thailand
,Ulberto Wakely,uwakelyju@symantec.com,4772729662,Stepojevac,,Serbia
,Hallie Doidge,hdoidgejw@webmd.com,6715427048,Tarumizu,,Japan
,Whit Rebbeck,wrebbeckjx@uiuc.edu,5185203060,Schenectady,New York,United States
,Louisa Rushforth,lrushforthjy@sphinn.com,5167407673,Jinlong,,China
,Harmonia Rolley,hrolleyk0@fotki.com,9081398754,Novyye Kuz’minki,,Russia
,Gerianna Pregal,gpregaljz@mtv.com,6031752227,Tayuan,,China
,Cal Bonifacio,cbonifaciok1@google.cn,3173665394,Formosa do Rio Preto,,Brazil
,Malanie Oleszczak,moleszczakk2@dell.com,8502197930,Linstead,,Jamaica
,Kiah MacGrath,kmacgrathk3@sbwire.com,1119064787,Cascavel,,Brazil
,Sydney Lampbrecht,slampbrechtk5@kickstarter.com,5715810585,Chernivtsi,,Ukraine
,Tillie Anshell,tanshellk4@ocn.ne.jp,1326156727,Burgeo,Newfoundland and Labrador,Canada
,Anthia Govier,agovierk6@weather.com,3561720340,Guayabal,,Venezuela
,Onida Fincham,ofinchamk7@ftc.gov,1986175340,Jojoima,,Sierra Leone
,Evangeline Renshell,erenshellk8@joomla.org,1287001147,Łęczyce,,Poland
,Haroun Kentwell,hkentwellk9@studiopress.com,9111774915,Đắk Mâm,,Vietnam
,Barbabas Bennen,bbennenka@arstechnica.com,4043965377,Atlanta,Georgia,United States
,Nero Lympenie,nlympeniekb@sciencedirect.com,4735239485,Repki,,Poland
,Ida Redwing,iredwingkc@homestead.com,7149385607,Sandur,,Faroe Islands
,Kim Witten,kwittenkd@blogs.com,4606135751,Cañazas,,Panama
,Theresa Parminter,tparminterke@cornell.edu,2906238288,Gorzyce,,Poland
,Nissa Blague,nblaguekf@hhs.gov,3903521696,Shangcunba,,China
,Batholomew De Bruijn,bdekg@bluehost.com,7904970457,Tangal,,Philippines
,Shay Ottewell,sottewellkh@imageshack.us,3866969779,Jauja,,Peru
,Tallulah Di Gregorio,tdikj@over-blog.com,5989279684,Kitamilo,,Uganda
,Lanni Newband,lnewbandkl@nature.com,3512120916,Lancheng,,China
,Giana Marrill,gmarrillki@tinypic.com,9747188550,Doumen,,China
,Chrissy Watkin,cwatkinkk@ameblo.jp,9254314369,Xambabazar,,China
,Chandler Castiglio,ccastigliokm@prweb.com,6594538966,Labuhan Deli,,Indonesia
,Chandler Constable,cconstablekn@bloomberg.com,5877362889,Da’an,,China
,Diena Falls,dfallsko@51.la,5626308418,San Francisco,California,United States
,Luther Jossum,ljossumkr@histats.com,6021325124,Kacha,,Ukraine
,Cordy Wattins,cwattinskp@paypal.com,6581837726,Miaojie,,China
,Faustine Book,fbookkq@ucla.edu,7341578626,Burgaltay,,Mongolia
,Viv Habin,vhabinks@sbwire.com,7014988211,Deranitan,,Indonesia
,Charmaine Gowry,cgowrykt@jimdo.com,6504165909,Pasirnangka,,Indonesia
,Marthe Oakinfold,moakinfoldku@de.vu,1107216161,Tchaourou,,Benin
,Olav Thelwll,othelwllkv@webmd.com,9821397757,Qishn,,Yemen
,Odelle Haste,ohastekw@whitehouse.gov,4764373182,Teodoro Sampaio,,Brazil
,Kariotta Cicchitello,kcicchitelloky@hibu.com,5324910366,Thị Trấn Mộc Châu,,Vietnam
,Dewie Blazdell,dblazdellkz@feedburner.com,1753277825,Rivne,,Ukraine
,Duky Gilligan,dgilliganl1@examiner.com,3357630803,Nungga,,Indonesia
,Carling Djokovic,cdjokovicl2@uiuc.edu,5493756429,Andahuaylillas,,Peru
,Fredric Wigginton,fwiggintonkx@npr.org,3108236901,Garden Grove,California,United States
,Yovonnda Pyke,ypykel0@google.com,1693897523,Tawau,Sabah,Malaysia
,Lanae Cowser,lcowserl3@networksolutions.com,2038647537,Qiuchuan,,China
,Melisse Bigley,mbigleyl4@pinterest.com,4826017627,Xiaozhen,,China
,Chad Betke,cbetkel5@godaddy.com,5932118816,Tcholliré,,Cameroon
,Corissa Jeschner,cjeschnerl6@list-manage.com,7732786445,Chicago,Illinois,United States
,Devina Darnbrook,ddarnbrookl7@wp.com,1586119015,Huancheng,,China
,Nike Burchett,nburchettl8@discovery.com,5857855212,Pau,Aquitaine,France
,Adan Bonner,abonnerl9@g.co,4558825072,Yuanzhou,,China
,Katya Slaughter,kslaughterla@domainmarket.com,4841827176,Abbottābād,,Pakistan
,Lorena Gislebert,lgislebertlb@cbsnews.com,9895236119,Rivadavia,,Argentina
,Joyce Christiensen,jchristiensenlc@vk.com,3508254967,Tchoban Bey,,Syria
,Micky Dunston,mdunstonld@senate.gov,7991697226,Teluksantong,,Indonesia
,Florette Dore,fdorelf@people.com.cn,7249554960,Zhuxi,,China
,Hazlett Coxwell,hcoxwellli@army.mil,1861374115,Semampir,,Indonesia
,Ailyn Fontin,afontinlh@ovh.net,9633975091,Tangga,,Indonesia
,Aileen Bemlott,abemlottlg@goo.ne.jp,2576200069,Catriel,,Argentina
,Anallese Elliman,aellimanlk@webmd.com,8159167201,Taytayan,,Philippines
,Cullen Glasgow,cglasgowle@google.ca,4478111631,Primorka,,Russia
,Starla Course,scourselj@bbc.co.uk,5092403021,Jinhu,,China
,Luce Losano,llosanoll@edublogs.org,2652610198,Kandy,,Sri Lanka
,Belicia Gier,bgierlm@amazon.com,7412372515,Kafachan,,Nigeria
,Had Thews,hthewsln@about.com,8481878597,Jingxi,,China
,Gaby Shepherd,gshepherdlo@howstuffworks.com,8623216545,Sult,,Albania
,Karlee Loraine,klorainelp@blogspot.com,1738701486,Adtugan,,Philippines
,Danella Quickenden,dquickendenlq@pbs.org,6335618493,Liangshan,,China
,Gradey Edwin,gedwinlr@g.co,8152112142,San Francisco,,Colombia
,Hillie Jerdein,hjerdeinls@ihg.com,5448305258,Miras,,Albania
,Ladonna Maysor,lmaysorlt@creativecommons.org,9176158328,New Washington,,Philippines
,Pat Blything,pblythinglu@google.ca,5515802489,Bojonggaling,,Indonesia
,Noelle Ornillos,nornilloslv@fema.gov,6349789925,Sawahbaru,,Indonesia
,Zonnya Vasilmanov,zvasilmanovlw@cbc.ca,3294452367,San Jose,,Philippines
,Joline Stroder,jstroderlx@is.gd,9556473069,Kebon,,Indonesia
,Pedro York,pyorkly@miibeian.gov.cn,9289474746,Sudzha,,Russia
,Dino Paice,dpaicem0@naver.com,6262933059,Pärnu-Jaagupi,,Estonia
,Craig Guinness,cguinnesslz@businessinsider.com,7876355012,Shangyanzhuang,,China
,Farrell Simko,fsimkom2@alibaba.com,4501497205,Machinga,,Malawi
,Barbee Burdfield,bburdfieldm1@deviantart.com,8787148557,Peremyshl’,,Russia
,Mireielle Wrightson,mwrightsonm3@usa.gov,6508626146,Shentang,,China
,Ula Urridge,uurridgem4@geocities.com,6498036113,Rosário do Sul,,Brazil
,Nanice Gorries,ngorriesm5@tinypic.com,4718210952,Xiangjiazhai,,China
,Melania Housin,mhousinm7@cmu.edu,5829907019,Uluale,,Indonesia
,Bibbie Lucien,blucienm6@toplist.cz,7687697862,Benito Juarez,Veracruz Llave,Mexico
,Andromache Gerardet,agerardetm8@ted.com,8508144947,Jūrmala,,Latvia
,Pavia Cashin,pcashinma@marketwatch.com,2369279292,As Suwaydā’,,Syria
,Theressa Labern,tlabernm9@i2i.jp,7933863440,Lampa,,Indonesia
,Horatia Peevor,hpeevormb@google.com.au,6049393546,Moravský Beroun,,Czech Republic
,Blondy Bullers,bbullersmc@google.fr,1287341724,Lavras,,Brazil
,Binny Laws,blawsmd@cocolog-nifty.com,6612799508,Yerazgavors,,Armenia
,Buckie Redholls,bredhollsme@mozilla.com,7567041255,Pozuzo,,Peru
,Jacinthe Fresson,jfressonmf@histats.com,2202875446,San Salvador de Jujuy,,Argentina
,Mathias Bunning,mbunningmg@weibo.com,8378945246,Krajanjugosari,,Indonesia
,Morten Nancarrow,mnancarrowmh@reverbnation.com,3367731223,Greensboro,North Carolina,United States
,Kerrin Jirieck,kjirieckmi@shop-pro.jp,6479481364,Sinilian First,,Philippines
,Glori Davidof,gdavidofmj@addtoany.com,6539665282,Taokeng,,China
,Ramona Schubbert,rschubbertmk@ftc.gov,6276125649,Dengfeng,,China
,Corinna Tampling,ctamplingml@163.com,6496766165,Huai’an,,China
,Michail Maffini,mmaffinimm@nifty.com,3727620951,Güira de Melena,,Cuba
,Alick Doggart,adoggartmn@europa.eu,9608569017,Portela,Viseu,Portugal
,Jeno Currum,jcurrummp@blogtalkradio.com,4164925725,Ryōtsu-minato,,Japan
,Boniface Cleugher,bcleughermo@booking.com,4668272501,Vitry-le-François,Champagne-Ardenne,France
,Collin Walkinshaw,cwalkinshawmq@unblog.fr,1225354129,Halden,Ostfold,Norway
,Daryl Martland,dmartlandms@amazon.co.jp,9416123761,Rybatskoye,,Russia
,Nicholle Ianiello,nianiellomr@ted.com,7112739671,Sindangkopo,,Indonesia
,Gerty O'Sherrin,gosherrinmt@kickstarter.com,6024164703,Oullins,Rhône-Alpes,France
,Willie Pettifer,wpettifermv@nih.gov,1642583089,Ell,,Luxembourg
,Antoni Halfhead,ahalfheadmw@huffingtonpost.com,1026900531,Mostek,,Czech Republic
,Elladine Lascelles,elascellesmu@columbia.edu,6664929413,Huzhuang,,China
,Hamish Hazeldine,hhazeldinemx@reverbnation.com,3103033986,Tabou,,Ivory Coast
,Lillis Ennion,lennionmy@cnbc.com,6831135260,Göteborg,Västra Götaland,Sweden
,Haskel Shepheard,hshepheardmz@narod.ru,9917527489,San Andres,,Philippines
,Colver Sedgebeer,csedgebeern0@biglobe.ne.jp,6923176553,Gryfino,,Poland
,Thadeus Fronczak,tfronczakn2@rakuten.co.jp,8596455014,Cibulakan,,Indonesia
,Audry Lark,alarkn1@webmd.com,8965214918,Eskilstuna,Södermanland,Sweden
,Monique Dorin,mdorinn3@ocn.ne.jp,6665941654,Easington,,Jamaica
,Bronnie Dagnall,bdagnalln5@technorati.com,2801329065,Staryy Saltiv,,Ukraine
,Codi Colaton,ccolatonn4@bloomberg.com,6304232765,Shijiao,,China
,Monroe Dirr,mdirrn6@ameblo.jp,2099205020,Annecy,Rhône-Alpes,France
,Lamont Bummfrey,lbummfreyn7@barnesandnoble.com,1328415146,Ambositra,,Madagascar
,Iggy Starcks,istarcksn8@fastcompany.com,1478817085,Nampula,,Mozambique
,Eyde Marchetti,emarchettin9@ox.ac.uk,6273686446,Don Matías,,Colombia
,Reece Wormstone,rwormstonenb@sina.com.cn,3887628839,Chengzhong,,China
,Boone Sigmund,bsigmundna@bandcamp.com,1616356080,São Miguel do Rio Torto,Santarém,Portugal
,Cheri Balshaw,cbalshawnc@fc2.com,4495964938,Morangis,Île-de-France,France
,Derrek MacGill,dmacgillnd@princeton.edu,4542358505,Baiyun,,China
,Patrizio Pierse,ppiersene@nsw.gov.au,2537325787,Laoliangcang,,China
,Malory Sommerlie,msommerlieng@i2i.jp,7292958347,Los Charrúas,,Argentina
,Beilul Celler,bcellernf@hc360.com,1045662759,Mboursou Léré,,Chad
,Keelby Purdon,kpurdonnh@netscape.com,6243142681,Oświęcim,,Poland
,Barton Phebey,bphebeyni@time.com,7114994609,Tha Luang,,Thailand
,Madelle Heaffey,mheaffeynj@eventbrite.com,6014887560,Idrinskoye,,Russia
,Margarette Dadson,mdadsonnl@cpanel.net,7502595569,Nombre de Jesús,,Honduras
,Nata Snowdon,nsnowdonnk@prweb.com,4851478262,Coruripe,,Brazil
,Euell Anlay,eanlaynm@arizona.edu,8068162394,Cervantes,,Philippines
,Bertram Biford,bbifordnn@tiny.cc,1971041831,Wuppertal,Nordrhein-Westfalen,Germany
,Filbert Bartali,fbartalino@discovery.com,3708769811,Las Piñas,,Philippines
,Yankee Klemz,yklemznp@elpais.com,1851858852,Itzig,,Luxembourg
,Zebedee Aldcorn,zaldcornnq@dion.ne.jp,5966736648,Joyabaj,,Guatemala
,Glyn Snookes,gsnookesns@trellian.com,8568897601,Karakul’,,Uzbekistan
,Auberta Durbin,adurbinnt@paginegialle.it,6896159818,Smålandsstenar,Jönköping,Sweden
,Hedvig Wooffitt,hwooffittnu@dmoz.org,1804419395,Riachão do Jacuípe,,Brazil
,Sheila Hritzko,shritzkonr@digg.com,3665215002,Kórnik,,Poland
,Benjamin Le Grys,blenw@sogou.com,7682071803,Aleksotas,,Lithuania
,Starla MacTeggart,smacteggartnv@taobao.com,2256519397,Okhotsk,,Russia
,Alphard Sawers,asawersny@rediff.com,8869707841,Canavieiras,,Brazil
,Ervin Oguz,eoguznx@yahoo.co.jp,9507820184,Awjilah,,Libya
,Farrah Duerden,fduerdennz@theguardian.com,1663729895,Mirovka,,Ukraine
,Davina Cammidge,dcammidgeo0@buzzfeed.com,6105621921,San Juan Nepomuceno,,Colombia
,Stormi Petyanin,spetyanino1@opera.com,1148247347,Seraya,,Indonesia
,Kermit Entwistle,kentwistleo2@blogs.com,4029266401,Lincoln,Nebraska,United States
,Yule Cyster,ycystero3@163.com,7709750595,Shimabara,,Japan
,Jerry Stuckford,jstuckfordo4@aol.com,2344914666,Cumedak,,Indonesia
,Floria Hriinchenko,fhriinchenkoo5@census.gov,4439493792,Vareiá,,Greece
,Chen Greed,cgreedo6@businessweek.com,2164732108,Shiquanhe,,China
,Kevyn Antonomolii,kantonomoliio8@hao123.com,8234549243,Sarrat,,Philippines
,Dahlia Janeway,djanewayo7@nydailynews.com,9259485690,Belfast,Northern Ireland,United Kingdom
,Gerardo Shelbourne,gshelbourneo9@gizmodo.com,8323046205,Penápolis,,Brazil
,Olly Hasley,ohasleyoa@naver.com,1703405269,Pokrov,,Russia
,Gilberto Windows,gwindowsob@dell.com,8973348064,Kumbo,,Cameroon
,Dunstan Spilling,dspillingoc@example.com,7004445533,Thị Trấn Cao Phong,,Vietnam
,Padriac Gilli,pgilliod@tuttocitta.it,5307812257,Villa Yapacaní,,Bolivia
,Heidie Schukraft,hschukraftoe@youtu.be,2518455859,Anuling,,Philippines
,Maud Nattrass,mnattrassof@usa.gov,7741722323,Shilong,,China
,Winston Francklin,wfrancklinog@microsoft.com,5047448294,New Orleans,Louisiana,United States
,Mirabella Wayper,mwayperoi@princeton.edu,3217197205,Banjar Kertasari,,Indonesia
,Romy Malyan,rmalyanoh@gmpg.org,4037989358,Talok,,Indonesia
,Adeline Brundill,abrundilloj@joomla.org,8463674770,Aqqan,,China
,Gardiner Antonescu,gantonescuok@tuttocitta.it,3948224808,Belmopan,,Belize
,Germain Karadzas,gkaradzasom@dot.gov,1467997236,Toila,,Estonia
,Hadria Lourens,hlourensol@etsy.com,7586082500,Yunlong,,China
,Lowell Jemmison,ljemmisonon@4shared.com,2463913713,Longos,Braga,Portugal
,Cyndia Buzzing,cbuzzingoo@ameblo.jp,8233286911,Hongqi,,China
,Darill Da Costa,ddaop@multiply.com,7665645022,Shiroishi,,Japan
,Fidelity Naisbet,fnaisbetoq@indiegogo.com,8419853875,La Trinidad,,Philippines
,Jill Sprowell,jsprowellos@redcross.org,5015050082,Yabrūd,,Syria
,Danya Maffioni,dmaffionior@vinaora.com,6511482085,Francisco I Madero,Veracruz Llave,Mexico
,Jade Tupper,jtupperot@friendfeed.com,5769852321,Mujiangping,,China
,Merle Titterington,mtitteringtonou@alibaba.com,3727845713,São Félix do Xingu,,Brazil
,Bertie Shilleto,bshilletoov@imdb.com,8574773258,Mojomulyokrajan,,Indonesia
,Idell Fallon,ifallonow@mozilla.org,8486017506,Del Rosario,,Philippines
,Avivah Ranscombe,aranscombeox@noaa.gov,7828842076,Melong,,Cameroon
,Nanny Bancroft,nbancroftoy@tinyurl.com,1244252866,Taypano,,Philippines
,Maximilian Tonner,mtonneroz@ask.com,8304441139,Tsetsegnuur,,Mongolia
,Karalee Larderot,klarderotp1@webmd.com,7177966101,Junbu,,China
,Olimpia McIlwreath,omcilwreathp0@mediafire.com,4211338021,Al Mawşil al Jadīdah,,Iraq
,Guillaume Elverston,gelverstonp2@nps.gov,9629128582,Tokyo,,Japan
,Kristina Bizley,kbizleyp3@digg.com,4708732578,Sterlibashevo,,Russia
,Karia Kochl,kkochlp4@phoca.cz,9775659590,Pagsañgahan,,Philippines
,Bentlee Undy,bundyp5@slate.com,1436978054,Putrajaya,Putrajaya,Malaysia
,Jacquelyn Candy,jcandyp6@liveinternet.ru,6234754207,Panambi,,Brazil
,Brent Kibble,bkibblep7@1688.com,2455825376,Ciemas,,Indonesia
,Hinda Proffer,hprofferp8@about.com,6987204054,Majin,,China
,Shawna Jacquet,sjacquetp9@behance.net,4299044715,Betio Village,,Kiribati
,Bradford Philippart,bphilippartpa@soundcloud.com,6563574407,Versailles,Île-de-France,France
,Theresa Cazereau,tcazereaupb@engadget.com,4188242158,Tobias Barreto,,Brazil
,Calli Osborne,cosbornepc@epa.gov,1258932699,Aktau,,Kazakhstan
,Aeriell Stendall,astendallpd@census.gov,1451802927,Cañasgordas,,Colombia
,Josefa Anetts,janettsph@youku.com,1573014433,Itapaci,,Brazil
,Farica Gaule,fgaulepe@newyorker.com,2364137015,Żebbuġ,,Malta
,Mahmud Pounds,mpoundspf@pcworld.com,9152084415,Yarīm,,Yemen
,Kasper Frapwell,kfrapwellpg@ftc.gov,4481401484,Praszka,,Poland
,Janette Evers,jeverspi@simplemachines.org,5034834882,Ampera,,Indonesia
,Rosemarie MacAlister,rmacalisterpj@globo.com,5967896780,Lyeskawka,,Belarus
,Hanny Tuminelli,htuminellipk@usgs.gov,1506796369,Rakek,,Slovenia
,Ariela Scholz,ascholzpn@yelp.com,4735904618,Canha,Setúbal,Portugal
,Elden Caron,ecaronpl@joomla.org,9817141172,Cibeureum,,Indonesia
,Loralie Pavinese,lpavinesepm@msu.edu,7434984507,Veranópolis,,Brazil
,Blondell Hucker,bhuckerpo@virginia.edu,3208904954,Santarém,,Brazil
,Blake Flintoft,bflintoftpp@ftc.gov,2473270266,Matingain,,Philippines
,Saidee Peery,speerypq@yelp.com,9978482800,Hamakita,,Japan
,Alanna Wrenn,awrennpr@boston.com,5924768511,Albi,Midi-Pyrénées,France
,Courtney Heckner,checknerps@phoca.cz,5334283294,Riyom,,Nigeria
,Isiahi Pursehouse,ipursehousept@blogs.com,2838818454,Gujiang,,China
,Brien Cluse,bclusepu@themeforest.net,8212028971,Santana,Setúbal,Portugal
,Zonda Greenrod,zgreenrodpv@bing.com,6986204719,Quận Tân Phú,,Vietnam
,Agace Belcham,abelchampw@pbs.org,9148898288,Las Palmas,Tamaulipas,Mexico
,Christie Ickovici,cickovicipx@bloglovin.com,6114667909,Curiapo,,Venezuela
,Pippa Oakton,poaktonpy@creativecommons.org,9008893401,Banjar Dauhpangkung,,Indonesia
,Nan Fincham,nfinchampz@bbc.co.uk,9247881899,Smolenskoye,,Russia
,Hewett Audsley,haudsleyq0@ox.ac.uk,1338390322,Port Antonio,,Jamaica
,Teirtza Woolcocks,twoolcocksq1@globo.com,3096302771,Podu,,China
,Niko Ahrendsen,nahrendsenq2@cloudflare.com,3593202073,Balally,,Ireland
,Elissa Ready,ereadyq3@theglobeandmail.com,8658119994,Amarillo,Texas,United States
,Israel Lambell,ilambellq4@blogtalkradio.com,4812025842,Thị Trấn Mỹ Lộc,,Vietnam
,Murry Lief,mliefq5@google.co.uk,5206491216,Batur Kidul,,Indonesia
,Carmine Scrowby,cscrowbyq6@addthis.com,8972474857,Port Loko,,Sierra Leone
,Modesty Plowman,mplowmanq7@csmonitor.com,4809324132,Svetlyy,,Russia
,Gibb Mabbutt,gmabbuttq8@discovery.com,5271643127,Wuchagou,,China
,Alan Kinnen,akinnenq9@jugem.jp,7648829363,Durazno,,Uruguay
,Christian Woodings,cwoodingsqa@vistaprint.com,1387388937,Calheta de Nesquim,Ilha do Pico,Portugal
,Vonny Basten,vbastenqb@flavors.me,3487170487,Kokop,,Indonesia
,Chrisse Byars,cbyarsqc@nba.com,6338095929,Dishnā,,Egypt
,Jonas Tromans,jtromansqd@cbsnews.com,3169098510,Cabreúva,,Brazil
,Rosalynd Sammon,rsammonqe@telegraph.co.uk,7643899629,Lianzhu,,China
,Julianne Abate,jabateqf@nydailynews.com,4344539273,Daxi,,Taiwan
,Gabbi Coye,gcoyeqg@people.com.cn,8677660099,Tessalit,,Mali
,Cosmo Azema,cazemaqh@rediff.com,3187233766,Shreveport,Louisiana,United States
,Trent Elstub,telstubqi@csmonitor.com,6151465403,Orekhovo-Borisovo,,Russia
,Mallory Atthowe,matthoweqj@t.co,4483101119,El Cobre,,Venezuela
,Colly Sindall,csindallqk@bandcamp.com,4738737743,Serrana,,Brazil
,Ange Joskowitz,ajoskowitzql@bbc.co.uk,7228518340,Anju,,North Korea
,Garrek Hardiker,ghardikerqm@vk.com,3089672457,Lolodorf,,Cameroon
,Dmitri Babinski,dbabinskiqn@auda.org.au,8439626582,Benhao,,China
,Anastasia Winwood,awinwoodqp@slashdot.org,7991419192,Dobřany,,Czech Republic
,Nikkie Walwood,nwalwoodqo@google.com.au,7986159192,Gornji Breg,,Serbia
,Becki Vezey,bvezeyqq@woothemes.com,2792065084,Gunungpeundeuy,,Indonesia
,Velvet Lorraway,vlorrawayqr@latimes.com,5798754118,Bao’an,,China
,Rosabel Delos,rdelosqs@plala.or.jp,3415361330,Yuanqiao,,China
,Seward Ewan,sewanqt@squidoo.com,9073101911,Jingling,,China
,Cassandre Synder,csynderqw@tripod.com,2552562512,Bayan-Ovoo,,Mongolia
,Margo Zipsell,mzipsellqu@dagondesign.com,2198829401,Sandviken,Gävleborg,Sweden
,Godart Wellan,gwellanqv@google.com.br,8188985700,Avarua,,Cook Islands
,Benni Pudden,bpuddenqx@army.mil,3984604195,Yingchuan,,China
,Menard Reeder,mreederqy@privacy.gov.au,7945630484,Qarāwul,,Afghanistan
,Elladine Roddell,eroddellqz@hatena.ne.jp,5827600602,Kan,,China
,Waring Silversmid,wsilversmidr0@wp.com,2709317859,Karangsuko,,Indonesia
,Pepillo Greasley,pgreasleyr1@arstechnica.com,3388918672,Lingbei,,China
,Winifield Caverhill,wcaverhillr2@surveymonkey.com,7352920142,Kut Chap,,Thailand
,Suzie Tow,stowr3@1688.com,5575327527,Bordeaux,Aquitaine,France
,Parrnell Thomton,pthomtonr4@cbslocal.com,3042118191,Pelileo,,Ecuador
,Brandy Liquorish,bliquorishr5@dagondesign.com,9082366152,Buenaventura,,Colombia
,Jayme Burnip,jburnipr6@loc.gov,8587923659,Dukhovnitskoye,,Russia
,Collen Do Rosario,cdor7@reverbnation.com,2204230109,Suodenniemi,,Finland
,Paulie Pulver,ppulverr9@marketwatch.com,6694757862,Tawau,Sabah,Malaysia
,Kasper Betteson,kbettesonr8@state.tx.us,6832946607,Santa Maria,,Philippines
,Shara Goodfellowe,sgoodfellowera@ihg.com,8983469961,Tlumačov,,Czech Republic
,Alaine Bernath,abernathrb@vimeo.com,8436861580,Lyntupy,,Belarus
,Tomkin Chevers,tcheversrc@geocities.com,1027887049,Mafraq,,Jordan
,Lenee Astill,lastillre@newsvine.com,9532588686,Zürich,Kanton Zürich,Switzerland
,Alli Gouthier,agouthierrd@squidoo.com,4165234730,Talodi,,Sudan
,Zachary Kryska,zkryskarf@live.com,5776397220,Malie,,Samoa
,Cyndy Yakuntzov,cyakuntzovrg@instagram.com,7188286446,Esquel,,Argentina
,Winny Crowd,wcrowdrh@seesaa.net,3138082599,Zhangxi,,China
,Anitra Halksworth,ahalksworthri@joomla.org,2883740940,Liujia,,China
,Darrel Pierrepont,dpierrepontrj@pagesperso-orange.fr,9592715770,Quince Mil,,Peru
,Modesta Ganter,mganterrk@flavors.me,9279446321,Baicheng,,China
,Marissa MacBrearty,mmacbreartyrl@xinhuanet.com,4217326756,Jagdaqi,,China
,Jesse Pentelo,jpentelorm@a8.net,4635687614,Orissaare,,Estonia
,Terencio Simcoe,tsimcoern@examiner.com,3298637299,Zhenlong,,China
,Kliment Treadwell,ktreadwellro@mtv.com,1413274960,Qeshm,,Iran
,Diannne Eades,deadesrp@comcast.net,6408455082,Qianzhou,,China
,Rustin Bobasch,rbobaschrq@merriam-webster.com,4478994359,Klina,,Kosovo
,Bondon Beniesh,bbenieshrr@dyndns.org,4055305830,Maopingchang,,China
,Vinod,vinod@vinod.co,9731424784,Bangalore,Karnataka,India
,Kishore,kishore@example.com,1231231231,Vasco,Goa,India
