_id,name,email,phone,city,state,country
ObjectId(5c7f5b8fae6ae747acd44556),Carolyn Harome,charome0@answers.com,7177712719,Stanowice,,Poland
ObjectId(5c7f5b8fae6ae747acd44557),Gray Billett,gbillett1@reuters.com,3304308032,Youngstown,Ohio,United States
ObjectId(5c7f5b8fae6ae747acd44558),Brian Martinets,bmartinets2@theguardian.com,7797456793,Örnsköldsvik,Västernorrland,Sweden
ObjectId(5c7f5b8fae6ae747acd44559),Brig Guillerman,bguillerman3@yellowbook.com,7834122589,Plasy,,Czech Republic
ObjectId(5c7f5b8fae6ae747acd4455a),Thaddus Coyne,tcoyne4@businessweek.com,6346388491,Alor Setar,Kedah,Malaysia
ObjectId(5c7f5b8fae6ae747acd4455b),Dianna Kern,dkern5@tmall.com,6751431883,Pueai Noi,,Thailand
ObjectId(5c7f5b8fae6ae747acd4455c),Sara Mattingson,smattingson6@cmu.edu,7803927330,Prómachoi,,Greece
ObjectId(5c7f5b8fae6ae747acd4455d),Colette Goghin,cgoghin7@usnews.com,2774345454,Pangpang,,Philippines
ObjectId(5c7f5b8fae6ae747acd4455e),Alfonso Littley,alittley8@jimdo.com,3517570116,São Borja,,Brazil
ObjectId(5c7f5b8fae6ae747acd4455f),Wendell Chetham,wchetham9@oakley.com,2942456241,Partesh,,Kosovo
ObjectId(5c7f5b8fae6ae747acd44560),Danica Laird,dlairda@photobucket.com,5029524969,Louisville,Kentucky,United States
ObjectId(5c7f5b8fae6ae747acd44561),Abran Bulch,abulchb@examiner.com,6979783137,Yeniköy,Manisa,Turkey
ObjectId(5c7f5b8fae6ae747acd44562),Tillie Robilliard,trobilliardc@ucla.edu,6889672485,Valenciennes,Nord-Pas-de-Calais,France
ObjectId(5c7f5b8fae6ae747acd44563),Cornall Kalaher,ckalaherd@thetimes.co.uk,1105272591,Ziyuan,,China
ObjectId(5c7f5b8fae6ae747acd44564),Bellina Paslow,bpaslowe@bigcartel.com,2282001596,Qingping,,China
ObjectId(5c7f5b8fae6ae747acd44565),Ariela Denizet,adenizetf@bluehost.com,3075149853,Buenavista,,Philippines
ObjectId(5c7f5b8fae6ae747acd44566),Belle Cloughton,bcloughtong@google.de,3715790969,Wuyun,,China
ObjectId(5c7f5b8fae6ae747acd44567),Alis Darnbrough,adarnbroughh@jiathis.com,5987030775,Bugul’ma,,Russia
ObjectId(5c7f5b8fae6ae747acd44568),Jerome Boyat,jboyati@china.com.cn,2251839593,Farīdpur,,Bangladesh
ObjectId(5c7f5b8fae6ae747acd44569),Gardie Dodson,gdodsonj@dedecms.com,7547940033,Bhāi Pheru,,Pakistan
ObjectId(5c7f5b8fae6ae747acd4456a),Gale Pearse,gpearsel@google.fr,4949050014,Cikalong,,Indonesia
ObjectId(5c7f5b8fae6ae747acd4456b),Mari Ruter,mruterk@foxnews.com,4514206112,General Villegas,,Argentina
ObjectId(5c7f5b8fae6ae747acd4456c),Stavro McEntee,smcenteem@wunderground.com,8904155253,Jiujie,,China
ObjectId(5c7f5b8fae6ae747acd4456d),Connor Mellor,cmellorn@acquirethisname.com,5395120594,Litian,,China
ObjectId(5c7f5b8fae6ae747acd4456e),Dennet Giorgini,dgiorginio@icq.com,7673454422,San Antonio,,Colombia
ObjectId(5c7f5b8fae6ae747acd4456f),Shani Wigg,swiggp@sakura.ne.jp,6004645802,Šentjur,,Slovenia
ObjectId(5c7f5b8fae6ae747acd44570),Babs Lawlie,blawlieq@ibm.com,4042116972,Nanping,,China
ObjectId(5c7f5b8fae6ae747acd44571),Jo Gilliland,jgillilandr@virginia.edu,9982297014,Sonquil,,Philippines
ObjectId(5c7f5b8fae6ae747acd44572),Chrissy Jeanet,cjeanets@independent.co.uk,8423593090,Omišalj,,Croatia
ObjectId(5c7f5b8fae6ae747acd44573),Jamal Evetts,jevettst@slate.com,5834422103,Xiaomei,,China
ObjectId(5c7f5b8fae6ae747acd44574),Lillian Fowlds,lfowldsu@ed.gov,8219510454,Neglasari,,Indonesia
ObjectId(5c7f5b8fae6ae747acd44575),Dilly Churcher,dchurcherv@nih.gov,4418334044,Novoaltaysk,,Russia
ObjectId(5c7f5b8fae6ae747acd44576),Domenico Gentreau,dgentreauw@opensource.org,5987248183,Al Mazār,,Jordan
ObjectId(5c7f5b8fae6ae747acd44577),Ketty Sinnat,ksinnaty@symantec.com,4763017723,Bangluo,,China
ObjectId(5c7f5b8fae6ae747acd44578),Egan Akam,eakamx@wufoo.com,6163610989,Nazca,,Peru
ObjectId(5c7f5b8fae6ae747acd44579),Cathlene Cadd,ccaddz@exblog.jp,6974755785,Idritsa,,Russia
ObjectId(5c7f5b8fae6ae747acd4457a),Rogers Dibley,rdibley11@tripadvisor.com,6764428117,Ganzi,,China
ObjectId(5c7f5b8fae6ae747acd4457b),Paolo Halward,phalward10@examiner.com,7139303595,Olenyok,,Russia
ObjectId(5c7f5b8fae6ae747acd4457c),Joannes Cherrett,jcherrett13@wikipedia.org,2966840629,Maesan,,Indonesia
ObjectId(5c7f5b8fae6ae747acd4457d),Malory Osgerby,mosgerby12@state.gov,4326344430,Trubchevsk,,Russia
ObjectId(5c7f5b8fae6ae747acd4457e),Irene Russell,irussell14@friendfeed.com,2616356836,Hongchang,,China
ObjectId(5c7f5b8fae6ae747acd4457f),Mitch Hubbuck,mhubbuck15@netlog.com,6255561155,Nagasaki-shi,,Japan
ObjectId(5c7f5b8fae6ae747acd44580),Ruy Riglesford,rriglesford17@joomla.org,6662293803,Pont-Rouge,Québec,Canada
ObjectId(5c7f5b8fae6ae747acd44581),Korrie Crowhurst,kcrowhurst19@wikispaces.com,1184144526,Youlongchuan,,China
ObjectId(5c7f5b8fae6ae747acd44582),Daune Drew,ddrew16@eventbrite.com,3276053070,Yasenskaya,,Russia
ObjectId(5c7f5b8fae6ae747acd44583),Ravid Boustead,rboustead1a@digg.com,9997549862,Sololá,,Guatemala
ObjectId(5c7f5b8fae6ae747acd44584),Elbertine Pedrick,epedrick18@loc.gov,7788649367,Sułów,,Poland
ObjectId(5c7f5b8fae6ae747acd44585),Euphemia Smeall,esmeall1b@macromedia.com,7273450997,Saripin,,Indonesia
ObjectId(5c7f5b8fae6ae747acd44586),Samuele Ricciardi,sricciardi1c@apple.com,3962169263,Nancy,Lorraine,France
ObjectId(5c7f5b8fae6ae747acd44587),Eva Kynd,ekynd1d@cnn.com,4281627415,Inashiki,,Japan
ObjectId(5c7f5b8fae6ae747acd44588),Jojo Pinwell,jpinwell1e@google.es,2111328566,Ríohacha,,Colombia
ObjectId(5c7f5b8fae6ae747acd44589),Nikolaus Collymore,ncollymore1f@google.ru,4438955907,Pedreira,,Brazil
ObjectId(5c7f5b8fae6ae747acd4458a),Job McClymond,jmcclymond1h@noaa.gov,4536909425,Passo,,Indonesia
ObjectId(5c7f5b8fae6ae747acd4458b),Leonanie Fouch,lfouch1g@altervista.org,7689965821,Banjaranyar,,Indonesia
ObjectId(5c7f5b8fae6ae747acd4458c),Weider Jerrems,wjerrems1i@photobucket.com,7178159017,Pinhal General,Setúbal,Portugal
ObjectId(5c7f5b8fae6ae747acd4458d),Brigham Botler,bbotler1j@163.com,6702280237,Algarvia,Ilha de São Miguel,Portugal
ObjectId(5c7f5b8fae6ae747acd4458e),Gusti McCann,gmccann1n@nationalgeographic.com,8645441827,Thị Trấn Yên Thịnh,,Vietnam
ObjectId(5c7f5b8fae6ae747acd4458f),Mair Gilhool,mgilhool1o@sbwire.com,1362306159,Bayan-Ovoo,,Mongolia
ObjectId(5c7f5b8fae6ae747acd44590),Kimmie Clail,kclail1p@ow.ly,8836107839,Lantera,,Indonesia
ObjectId(5c7f5b8fae6ae747acd44591),Uriah Adair,uadair1q@narod.ru,9626326022,Bocowanti,,Indonesia
ObjectId(5c7f5b8fae6ae747acd44592),Jobina Dunkley,jdunkley1r@constantcontact.com,7012349312,Santa Catalina,,Philippines
ObjectId(5c7f5b8fae6ae747acd44593),Jarrid Sanbrooke,jsanbrooke1s@nhs.uk,4655217922,Lampa,,Peru
ObjectId(5c7f5b8fae6ae747acd44594),Lindy Ollin,lollin1t@creativecommons.org,9767314305,Mkushi,,Zambia
ObjectId(5c7f5b8fae6ae747acd44595),Humfried Leyre,hleyre1u@mapquest.com,3637455726,Plavsk,,Russia
ObjectId(5c7f5b90ae6ae747acd44596),Anjela McKernon,amckernon1v@irs.gov,4494122751,Gaoyi,,China
ObjectId(5c7f5b90ae6ae747acd44597),Trip Wimpeney,twimpeney1w@cisco.com,3721882715,Fryazino,,Russia
ObjectId(5c7f5b90ae6ae747acd44598),Korrie Mattaser,kmattaser1x@marriott.com,3508180354,Szombathely,Vas,Hungary
ObjectId(5c7f5b90ae6ae747acd44599),Roxana Winfrey,rwinfrey1y@toplist.cz,6911942717,Tarbes,Midi-Pyrénées,France
ObjectId(5c7f5b90ae6ae747acd4459a),Laurens Machin,lmachin1z@geocities.jp,2947842667,Khlong Khuean,,Thailand
ObjectId(5c7f5b90ae6ae747acd4459b),Daisie Delaprelle,ddelaprelle20@huffingtonpost.com,9951541481,Shuidong,,China
ObjectId(5c7f5b90ae6ae747acd4459c),Blithe Rushmer,brushmer21@tinypic.com,9182933838,Cikaras,,Indonesia
ObjectId(5c7f5b90ae6ae747acd4459d),Davine Summerskill,dsummerskill22@fda.gov,4223984738,Shuinanxu,,China
ObjectId(5c7f5b90ae6ae747acd4459e),Caye Digman,cdigman23@163.com,4717905370,Shakīso,,Ethiopia
ObjectId(5c7f5b90ae6ae747acd4459f),Mariska Mattacks,mmattacks24@barnesandnoble.com,5877878408,Doctor Juan León Mallorquín,,Paraguay
ObjectId(5c7f5b90ae6ae747acd445a0),Solomon Skirlin,sskirlin1k@privacy.gov.au,3392528281,La Asunción,,Venezuela
ObjectId(5c7f5b90ae6ae747acd445a1),Jervis MacKonochie,jmackonochie1l@ow.ly,4263404057,Mulan,,China
ObjectId(5c7f5b90ae6ae747acd445a2),Godiva Valentin,gvalentin1m@rediff.com,5525108296,Port-Gentil,,Gabon
ObjectId(5c7f5b90ae6ae747acd445a3),Marinna Ollenbuttel,mollenbuttel25@nps.gov,8404443253,Cheonan,,South Korea
ObjectId(5c7f5b90ae6ae747acd445a4),Jannelle Halton,jhalton26@issuu.com,5229145603,Tây Hồ,,Vietnam
ObjectId(5c7f5b90ae6ae747acd445a5),Arri Rubinow,arubinow27@ameblo.jp,5833276058,Liulin,,China
ObjectId(5c7f5b90ae6ae747acd445a6),Wynn Goodson,wgoodson28@github.com,7106139555,Tuopu,,China
ObjectId(5c7f5b90ae6ae747acd445a7),Juliet Keates,jkeates29@hostgator.com,2149075373,Byala,,Bulgaria
ObjectId(5c7f5b90ae6ae747acd445a8),Inesita Duddan,iduddan2d@fema.gov,8178195491,Perivóli,,Greece
ObjectId(5c7f5b90ae6ae747acd445a9),Spense Bateup,sbateup2e@usgs.gov,4414836647,Madette,,Indonesia
ObjectId(5c7f5b90ae6ae747acd445aa),Dionne Bridgestock,dbridgestock2f@weather.com,8476916735,Hisya,,Syria
ObjectId(5c7f5b90ae6ae747acd445ab),Roxanne Waddilove,rwaddilove2g@cam.ac.uk,6176964672,Ołpiny,,Poland
ObjectId(5c7f5b90ae6ae747acd445ac),Aurore Slidders,aslidders2h@wiley.com,9307775071,Novoderevyankovskaya,,Russia
ObjectId(5c7f5b90ae6ae747acd445ad),Daile Pearsall,dpearsall2i@about.com,5554738188,Goma,,Democratic Republic of the Congo
ObjectId(5c7f5b90ae6ae747acd445ae),Halley Filipputti,hfilipputti2j@stumbleupon.com,4814814020,Al Mughayyir,,Palestinian Territory
ObjectId(5c7f5b90ae6ae747acd445af),Tim Huyge,thuyge2k@ucoz.ru,2334711288,Ulan Hua,,China
ObjectId(5c7f5b90ae6ae747acd445b0),Kathe Scobbie,kscobbie2l@buzzfeed.com,2491970152,Kołbiel,,Poland
ObjectId(5c7f5b90ae6ae747acd445b1),Tabbie Matiasek,tmatiasek2m@pbs.org,7371459998,Kalengwa,,Zambia
ObjectId(5c7f5b90ae6ae747acd445b2),Damien Karpychev,dkarpychev2n@jiathis.com,2197645086,Dębe Wielkie,,Poland
ObjectId(5c7f5b90ae6ae747acd445b3),Chrysler Spire,cspire2o@newyorker.com,7262036734,Curibaya,,Peru
ObjectId(5c7f5b90ae6ae747acd445b4),Dion Brixey,dbrixey2p@unblog.fr,9678072306,Lincoln,,Argentina
ObjectId(5c7f5b90ae6ae747acd445b5),Chantalle Vonderdell,cvonderdell2q@amazon.de,7346524486,Dorowa Mining Lease,,Zimbabwe
ObjectId(5c7f5b90ae6ae747acd445b6),Mattie Meineck,mmeineck2r@yelp.com,8908780152,Ugep,,Nigeria
ObjectId(5c7f5b90ae6ae747acd445b7),Emmaline Blainey,eblainey2s@unblog.fr,2293277019,Angoulême,Poitou-Charentes,France
ObjectId(5c7f5b90ae6ae747acd445b8),Erminia Halvorsen,ehalvorsen2t@senate.gov,1447005265,Cerro,,Cuba
ObjectId(5c7f5b90ae6ae747acd445b9),Barbara-anne Jennens,bjennens2u@google.pl,9781459874,Tha Mai,,Thailand
ObjectId(5c7f5b90ae6ae747acd445ba),Millie Gossage,mgossage2a@latimes.com,3456103360,Amherstburg,Ontario,Canada
ObjectId(5c7f5b90ae6ae747acd445bb),Chloette Haack,chaack2b@ustream.tv,4966233170,Nogueira,Porto,Portugal
ObjectId(5c7f5b90ae6ae747acd445bc),Scarface Ilyasov,silyasov2c@parallels.com,2918701835,Hamburg,Hamburg,Germany
ObjectId(5c7f5b90ae6ae747acd445bd),Irwinn Masdin,imasdin2v@who.int,3995627976,Auas,,Honduras
ObjectId(5c7f5b90ae6ae747acd445be),Alissa Plume,aplume2w@patch.com,2034907318,Conceição da Feira,,Brazil
ObjectId(5c7f5b90ae6ae747acd445bf),Jammie Soulsby,jsoulsby2x@blogs.com,6417567830,Christchurch,,New Zealand
ObjectId(5c7f5b90ae6ae747acd445c0),Carlyle Attkins,cattkins2y@dailymotion.com,7934021338,Železniki,,Slovenia
ObjectId(5c7f5b90ae6ae747acd445c1),Maurene Gossage,mgossage2z@illinois.edu,5443351029,Mas‘adah,,Syria
ObjectId(5c7f5b90ae6ae747acd445c2),Lon Rawll,lrawll33@stanford.edu,5503013342,Paleran,,Indonesia
ObjectId(5c7f5b90ae6ae747acd445c3),Salli Yarn,syarn34@alexa.com,7106797322,Borzoy,,Russia
ObjectId(5c7f5b90ae6ae747acd445c4),Jasmine Jakel,jjakel35@rambler.ru,5236968086,Dubá,,Czech Republic
ObjectId(5c7f5b90ae6ae747acd445c5),Egor Wilcinskis,ewilcinskis36@ocn.ne.jp,3537659812,Machico,Ilha da Madeira,Portugal
ObjectId(5c7f5b90ae6ae747acd445c6),Sly Vile,svile37@disqus.com,6838091732,Argelia,,Colombia
ObjectId(5c7f5b90ae6ae747acd445c7),Darci Gamwell,dgamwell38@prlog.org,9902873122,Luohe,,China
ObjectId(5c7f5b90ae6ae747acd445c8),Fairleigh Doumenc,fdoumenc39@ca.gov,8824988486,Baishi,,China
ObjectId(5c7f5b90ae6ae747acd445c9),Gerty MacParland,gmacparland3a@toplist.cz,6854485894,Gujō,,Japan
ObjectId(5c7f5b90ae6ae747acd445ca),Valle Crapper,vcrapper3b@smh.com.au,9876813601,Verd,,Slovenia
ObjectId(5c7f5b90ae6ae747acd445cb),Paulita Muzzullo,pmuzzullo3c@over-blog.com,4559346800,Nonghe,,China
ObjectId(5c7f5b90ae6ae747acd445cc),Benny Ison,bison3d@ycombinator.com,3492186129,Ugba,,Nigeria
ObjectId(5c7f5b90ae6ae747acd445cd),Regan Dabell,rdabell3e@jigsy.com,4195874910,Berón de Astrada,,Argentina
ObjectId(5c7f5b90ae6ae747acd445ce),Kimmi Haseman,khaseman3f@sitemeter.com,2269468663,Willemstad,,Curacao
ObjectId(5c7f5b90ae6ae747acd445cf),Guglielma Wyard,gwyard3g@sun.com,3186710536,Igarra,,Nigeria
ObjectId(5c7f5b90ae6ae747acd445d0),Nichole Tongs,ntongs3h@nyu.edu,2724071323,Wangcun,,China
ObjectId(5c7f5b90ae6ae747acd445d1),Lil Jarnell,ljarnell3i@guardian.co.uk,1517971396,Palkovice,,Czech Republic
ObjectId(5c7f5b90ae6ae747acd445d2),Kincaid Burness,kburness3j@economist.com,4054143922,Bangangté,,Cameroon
ObjectId(5c7f5b90ae6ae747acd445d3),Harriette Durgan,hdurgan3k@chron.com,2428876799,Puerto Francisco de Orellana,,Ecuador
ObjectId(5c7f5b90ae6ae747acd445d4),Patric Glewe,pglewe30@thetimes.co.uk,6498645330,Sincelejo,,Colombia
ObjectId(5c7f5b90ae6ae747acd445d5),Deane Mothersdale,dmothersdale31@yolasite.com,5916034215,Ruše,,Slovenia
ObjectId(5c7f5b90ae6ae747acd445d6),Leonerd Blacklawe,lblacklawe32@myspace.com,5456188868,Montijo,,Panama
ObjectId(5c7f5b90ae6ae747acd445d7),Huberto Petrescu,hpetrescu3l@scientificamerican.com,7613285711,Oroin Xibe,,China
ObjectId(5c7f5b90ae6ae747acd445d8),Kamillah Hail,khail3m@paypal.com,4101914984,Peer,,Indonesia
ObjectId(5c7f5b90ae6ae747acd445d9),Kipp Kloser,kkloser3n@tinypic.com,7985831303,Kembangan,,Indonesia
ObjectId(5c7f5b90ae6ae747acd445da),Leon De Marchi,lde3o@illinois.edu,4384720322,Piraju,,Brazil
ObjectId(5c7f5b90ae6ae747acd445db),Gerrilee Lyngsted,glyngsted3p@businessweek.com,3848716131,Orekhovo-Borisovo Severnoye,,Russia
ObjectId(5c7f5b90ae6ae747acd445dc),Lynnell Blackaller,lblackaller3t@unblog.fr,3132996925,Beizhang,,China
ObjectId(5c7f5b90ae6ae747acd445dd),Isac Meachan,imeachan3u@answers.com,7569778560,Torbeck,,Haiti
ObjectId(5c7f5b90ae6ae747acd445de),Evered Parradine,eparradine3v@chicagotribune.com,2276758454,Foxrock,,Ireland
ObjectId(5c7f5b90ae6ae747acd445df),Kale Torrese,ktorrese3w@dell.com,7004630102,Ljungskile,Västra Götaland,Sweden
ObjectId(5c7f5b90ae6ae747acd445e0),Chryste Smithin,csmithin3x@sakura.ne.jp,2592619334,Helsingborg,Skåne,Sweden
ObjectId(5c7f5b90ae6ae747acd445e1),Beck Wanne,bwanne3y@live.com,7271453617,Danan,,China
ObjectId(5c7f5b90ae6ae747acd445e2),Abigale Lamberti,alamberti3z@tripadvisor.com,7572416113,Drohiczyn,,Poland
ObjectId(5c7f5b90ae6ae747acd445e3),Bethena Dmiterko,bdmiterko40@homestead.com,4243696167,Anolaima,,Colombia
ObjectId(5c7f5b90ae6ae747acd445e4),Wileen Lehmann,wlehmann41@miibeian.gov.cn,1468624300,Dali,,China
ObjectId(5c7f5b90ae6ae747acd445e5),Franky Morais,fmorais42@upenn.edu,4322012415,Midland,Texas,United States
ObjectId(5c7f5b90ae6ae747acd445e6),Ingar Schohier,ischohier43@tamu.edu,1366229490,Salantai,,Lithuania
ObjectId(5c7f5b90ae6ae747acd445e7),Wes Tinline,wtinline44@japanpost.jp,8208897621,Smilavichy,,Belarus
ObjectId(5c7f5b90ae6ae747acd445e8),Donnajean Pearle,dpearle45@artisteer.com,8652953420,Shihuiqiao,,China
ObjectId(5c7f5b90ae6ae747acd445e9),Gordie Larenson,glarenson46@feedburner.com,9151956019,Oele,,Indonesia
ObjectId(5c7f5b90ae6ae747acd445ea),Berenice Chalcot,bchalcot47@fema.gov,3249127416,Sungaibengkal,,Indonesia
ObjectId(5c7f5b90ae6ae747acd445eb),Carr Burger,cburger48@exblog.jp,1467627893,Noisy-le-Grand,Île-de-France,France
ObjectId(5c7f5b90ae6ae747acd445ec),Christoph Tingle,ctingle49@devhub.com,3768808414,Valencia,,Philippines
ObjectId(5c7f5b90ae6ae747acd445ed),Cherish Overell,coverell4a@woothemes.com,2302908271,Ad Dīs ash Sharqīyah,,Yemen
ObjectId(5c7f5b90ae6ae747acd445ee),Lodovico Andreou,landreou3q@zimbio.com,4334888734,Troparëvo,,Russia
ObjectId(5c7f5b90ae6ae747acd445ef),Nikita Plumer,nplumer3r@tamu.edu,6254843869,Greater Napanee,Ontario,Canada
ObjectId(5c7f5b90ae6ae747acd445f0),Adelice Gregoriou,agregoriou3s@pinterest.com,1945064837,Shiogama,,Japan
ObjectId(5c7f5b90ae6ae747acd445f1),Glynnis Haffner,ghaffner4b@tinypic.com,8993639685,Santa Paz,,Philippines
ObjectId(5c7f5b90ae6ae747acd445f2),Camille Southey,csouthey4c@yellowpages.com,3742701742,San Jose,Veracruz Llave,Mexico
ObjectId(5c7f5b90ae6ae747acd445f3),Ardella Ohrtmann,aohrtmann4d@linkedin.com,7859994191,Hede,,China
ObjectId(5c7f5b90ae6ae747acd445f4),Alexander Labone,alabone4e@bloglines.com,8696044994,Goya,,Argentina
ObjectId(5c7f5b90ae6ae747acd445f5),Megen Umfrey,mumfrey4f@clickbank.net,4474101912,Bairro,Porto,Portugal
ObjectId(5c7f5b90ae6ae747acd445f6),Ara Sijmons,asijmons4j@time.com,2214589131,Zhuyu,,China
ObjectId(5c7f5b90ae6ae747acd445f7),Lin Womersley,lwomersley4k@twitpic.com,1665039206,Bruxelles,Bruxelles-Capitale,Belgium
ObjectId(5c7f5b90ae6ae747acd445f8),Dallon Froude,dfroude4l@youtube.com,2084146535,Boise,Idaho,United States
ObjectId(5c7f5b90ae6ae747acd445f9),Gerri Crowson,gcrowson4m@hp.com,3376492712,Anulid,,Philippines
ObjectId(5c7f5b90ae6ae747acd445fa),Druci Treherne,dtreherne4n@google.com.br,3395621056,Várzea da Serra,Viseu,Portugal
ObjectId(5c7f5b90ae6ae747acd445fb),Jessamine Lowndes,jlowndes4o@tripod.com,1801565093,Yirga ‘Alem,,Ethiopia
ObjectId(5c7f5b90ae6ae747acd445fc),Dina Maydway,dmaydway4p@java.com,4062978295,Mosquera,,Colombia
ObjectId(5c7f5b90ae6ae747acd445fd),Curcio Simpson,csimpson4q@lulu.com,8085955466,Quyangqiao,,China
ObjectId(5c7f5b90ae6ae747acd445fe),Alyson Sirl,asirl4r@com.com,9242820259,Trilj,,Croatia
ObjectId(5c7f5b90ae6ae747acd445ff),Trescha Abeau,tabeau4s@exblog.jp,3063703650,Winseler,,Luxembourg
ObjectId(5c7f5b90ae6ae747acd44600),Livvie Patley,lpatley4t@marriott.com,8722577980,Silvares,Viseu,Portugal
ObjectId(5c7f5b90ae6ae747acd44601),Raffarty Ravillas,rravillas4u@meetup.com,9807078712,Sukasari,,Indonesia
ObjectId(5c7f5b90ae6ae747acd44602),Nadeen Bachshell,nbachshell4v@examiner.com,7087938036,Rudo,,Bosnia and Herzegovina
ObjectId(5c7f5b90ae6ae747acd44603),Creighton Vanshin,cvanshin4w@china.com.cn,6559392934,Gornyak,,Russia
ObjectId(5c7f5b90ae6ae747acd44604),Reece Brockley,rbrockley4x@yellowbook.com,3639638668,Kajanan,,Indonesia
ObjectId(5c7f5b90ae6ae747acd44605),Koral Orgill,korgill4y@nydailynews.com,1732280389,Haoyi,,China
ObjectId(5c7f5b90ae6ae747acd44606),Karlis Robardey,krobardey4z@taobao.com,9185497462,Haarlem,Provincie Noord-Holland,Netherlands
ObjectId(5c7f5b90ae6ae747acd44607),Daniela Ellse,dellse50@purevolume.com,8406065542,Rumat Heib,,Israel
ObjectId(5c7f5b90ae6ae747acd44608),Morlee Dagon,mdagon4g@buzzfeed.com,8458902568,Amphoe Sikhiu,,Thailand
ObjectId(5c7f5b90ae6ae747acd44609),Barbey Ricardon,bricardon4h@spotify.com,3093560124,El Calvario,Guerrero,Mexico
ObjectId(5c7f5b90ae6ae747acd4460a),Burty Shelsher,bshelsher4i@reddit.com,1753191829,Ambarawa,,Indonesia
ObjectId(5c7f5b90ae6ae747acd4460b),Erminia Gairdner,egairdner51@xinhuanet.com,9947392555,Tushi,,China
ObjectId(5c7f5b90ae6ae747acd4460c),Cece Tuppeny,ctuppeny52@oakley.com,7437026467,Lümeng,,China
ObjectId(5c7f5b90ae6ae747acd4460d),Jillana Jowers,jjowers53@gizmodo.com,1123601206,Xianren,,China
ObjectId(5c7f5b90ae6ae747acd4460e),Gussy Spenton,gspenton54@wikispaces.com,2266960366,Jiguan,,China
ObjectId(5c7f5b90ae6ae747acd4460f),Marinna Follows,mfollows55@dell.com,9532159414,Krajan,,Indonesia
ObjectId(5c7f5b90ae6ae747acd44610),Rhona Fanthome,rfanthome57@mapquest.com,6082347021,Chornomors’ke,,Ukraine
ObjectId(5c7f5b90ae6ae747acd44611),Wendi Radsdale,wradsdale58@google.com,4888413395,Gyangqai,,China
ObjectId(5c7f5b90ae6ae747acd44612),Delora Santostefano.,dsantostefano59@sun.com,5766539849,Psyzh,,Russia
ObjectId(5c7f5b90ae6ae747acd44613),Tova Twinbrow,ttwinbrow56@twitpic.com,1823158748,Sumoto,,Japan
ObjectId(5c7f5b90ae6ae747acd44614),Bearnard Rupp,brupp5a@topsy.com,4864974122,San Antonio,,Philippines
ObjectId(5c7f5b90ae6ae747acd44615),Antoni Molineux,amolineux5b@washingtonpost.com,6182901970,Uglegorsk,,Russia
ObjectId(5c7f5b90ae6ae747acd44616),Camala Ciccone,cciccone5d@tumblr.com,1563830050,General Roca,,Argentina
ObjectId(5c7f5b90ae6ae747acd44617),Tera Swatridge,tswatridge5c@msu.edu,4667623732,Itabirito,,Brazil
ObjectId(5c7f5b90ae6ae747acd44618),Matthias Robertelli,mrobertelli5e@wikipedia.org,8831576413,Satun,,Thailand
ObjectId(5c7f5b90ae6ae747acd44619),Chariot O'Flaherty,coflaherty5f@shinystat.com,4866494460,Hanlin,,China
ObjectId(5c7f5b90ae6ae747acd4461a),Gertrud Downer,gdowner5g@lulu.com,1582907928,Síkinos,,Greece
ObjectId(5c7f5b90ae6ae747acd4461b),Kellen Haldenby,khaldenby5h@hao123.com,1565918301,Los Santos,,Panama
ObjectId(5c7f5b90ae6ae747acd4461c),Pandora Geake,pgeake5i@google.fr,6043054544,Okpoma,,Nigeria
ObjectId(5c7f5b90ae6ae747acd4461d),Bonnibelle Torvey,btorvey5j@stumbleupon.com,2776855009,Beigao,,China
ObjectId(5c7f5b90ae6ae747acd4461e),Veronika Hawkings,vhawkings5k@ihg.com,7092421758,Jambangan,,Indonesia
ObjectId(5c7f5b90ae6ae747acd4461f),Jacob Stranks,jstranks5l@a8.net,1695327043,Yako,,Burkina Faso
ObjectId(5c7f5b90ae6ae747acd44620),Guglielma Sonier,gsonier5m@quantcast.com,6877284820,Magomeni,,Tanzania
ObjectId(5c7f5b90ae6ae747acd44621),Vitia Irvine,virvine5n@ustream.tv,5423121390,Ninh Hòa,,Vietnam
ObjectId(5c7f5b90ae6ae747acd44622),Thomasin Wudeland,twudeland5o@networksolutions.com,6647954640,Balas,,Philippines
ObjectId(5c7f5b90ae6ae747acd44623),Collin Glidder,cglidder5p@tinypic.com,1475022400,Pirallahı,,Azerbaijan
ObjectId(5c7f5b90ae6ae747acd44624),Cly Pemberton,cpemberton5q@issuu.com,1638154214,Nasavrky,,Czech Republic
ObjectId(5c7f5b90ae6ae747acd44625),Alford Frugier,afrugier5r@bloomberg.com,9319893797,São João del Rei,,Brazil
ObjectId(5c7f5b90ae6ae747acd44626),Katleen Westby,kwestby5s@1688.com,6954432315,Socorro,,Colombia
ObjectId(5c7f5b90ae6ae747acd44627),Johanna MacSweeney,jmacsweeney5u@multiply.com,2471127647,Yujin,,China
ObjectId(5c7f5b90ae6ae747acd44628),Evonne Waymont,ewaymont5t@soundcloud.com,6452630319,Göteborg,Västra Götaland,Sweden
ObjectId(5c7f5b90ae6ae747acd44629),Katee Mossman,kmossman5v@amazon.com,2813494690,Lokossa,,Benin
ObjectId(5c7f5b90ae6ae747acd4462a),Eustace McMychem,emcmychem5w@blogger.com,7682865170,San Vicente,,Philippines
ObjectId(5c7f5b90ae6ae747acd4462b),Ame Voisey,avoisey5x@hostgator.com,5876805560,Xiakou,,China
ObjectId(5c7f5b90ae6ae747acd4462c),Kelcey Reichert,kreichert5y@cdc.gov,9241375479,Hammam Sousse,,Tunisia
ObjectId(5c7f5b90ae6ae747acd4462d),Richie Vasyunin,rvasyunin5z@ycombinator.com,3101362913,Los Angeles,California,United States
ObjectId(5c7f5b90ae6ae747acd4462e),Silvain Curtain,scurtain60@tamu.edu,8947390696,Åkersberga,Stockholm,Sweden
ObjectId(5c7f5b90ae6ae747acd4462f),Maureen Chevin,mchevin62@freewebs.com,4514234630,Yuanling,,China
ObjectId(5c7f5b90ae6ae747acd44630),Mile Saunper,msaunper61@tuttocitta.it,4688465284,Jacutinga,,Brazil
ObjectId(5c7f5b90ae6ae747acd44631),Jesselyn Coster,jcoster63@macromedia.com,9198148437,Taounza,,Morocco
ObjectId(5c7f5b90ae6ae747acd44632),Dian Gomme,dgomme64@buzzfeed.com,8829515349,Bonneuil-sur-Marne,Île-de-France,France
ObjectId(5c7f5b90ae6ae747acd44633),Darnall Kane,dkane65@twitpic.com,3272796452,Kipen’,,Russia
ObjectId(5c7f5b90ae6ae747acd44634),Zebadiah Haith,zhaith66@a8.net,7859630065,Koper,,Slovenia
ObjectId(5c7f5b90ae6ae747acd44635),Coleman Empleton,cempleton67@hostgator.com,6713779081,Boden,Norrbotten,Sweden
ObjectId(5c7f5b90ae6ae747acd44636),Constancy Hallaways,challaways69@who.int,5408611932,Vandœuvre-lès-Nancy,Lorraine,France
ObjectId(5c7f5b90ae6ae747acd44637),Barbey Larn,blarn6c@sciencedirect.com,4684911009,Matou,,China
ObjectId(5c7f5b90ae6ae747acd44638),Melany Manders,mmanders6d@godaddy.com,4964035424,Śmiłowo,,Poland
ObjectId(5c7f5b90ae6ae747acd44639),Cross Tyrer,ctyrer6e@indiatimes.com,4039024116,Ketanggungan,,Indonesia
ObjectId(5c7f5b90ae6ae747acd4463a),Selina Townley,stownley6b@mapy.cz,7926911618,Nanhai,,China
ObjectId(5c7f5b90ae6ae747acd4463b),Emmeline Chyuerton,echyuerton68@mapquest.com,5543193707,San Pablo,,Peru
ObjectId(5c7f5b90ae6ae747acd4463c),Ramsey Parkes,rparkes6a@ehow.com,4672107232,Songkan,,China
ObjectId(5c7f5b90ae6ae747acd4463d),Tania Birchill,tbirchill6f@newyorker.com,4296815920,Banshu,,China
ObjectId(5c7f5b90ae6ae747acd4463e),Fairlie Vsanelli,fvsanelli6g@wikispaces.com,1627590273,Jiaobei,,China
ObjectId(5c7f5b90ae6ae747acd4463f),Ronda Khomich,rkhomich6i@amazon.de,8932124502,Akropong,,Ghana
ObjectId(5c7f5b90ae6ae747acd44640),Margalo Calbert,mcalbert6l@fotki.com,7933736443,Atyrá,,Paraguay
ObjectId(5c7f5b90ae6ae747acd44641),Kalinda Bleue,kbleue6m@livejournal.com,1322779928,Luksuhin,,Philippines
ObjectId(5c7f5b90ae6ae747acd44642),Jesselyn Serris,jserris6j@mozilla.com,5163509647,Ankazondandy,,Madagascar
ObjectId(5c7f5b90ae6ae747acd44643),Elvera Martell,emartell6k@whitehouse.gov,4429411536,Warungtanjung,,Indonesia
ObjectId(5c7f5b90ae6ae747acd44644),Fancy Habbergham,fhabbergham6o@rambler.ru,7206495753,Kisovec,,Slovenia
ObjectId(5c7f5b90ae6ae747acd44645),Cristian Elsip,celsip6n@topsy.com,5089358906,Sidenreng,,Indonesia
ObjectId(5c7f5b90ae6ae747acd44646),Vick Goodby,vgoodby6h@sourceforge.net,4656753634,Starominskaya,,Russia
ObjectId(5c7f5b90ae6ae747acd44647),Amii Debrett,adebrett6p@github.io,9566753469,Naebugis,,Indonesia
ObjectId(5c7f5b90ae6ae747acd44648),Marietta Chastel,mchastel6q@about.com,4527595115,Guanambi,,Brazil
ObjectId(5c7f5b90ae6ae747acd44649),Dulcea Overland,doverland6r@diigo.com,2998033710,Changshan,,China
ObjectId(5c7f5b90ae6ae747acd4464a),Shaina Janaway,sjanaway6s@ovh.net,4899793097,Xiaosong,,China
ObjectId(5c7f5b90ae6ae747acd4464b),Kamillah Bartosik,kbartosik6t@sciencedirect.com,1613311183,Muqi,,China
ObjectId(5c7f5b90ae6ae747acd4464c),Karrah Dozdill,kdozdill6u@slate.com,1599756295,Pulau Pinang,Pulau Pinang,Malaysia
ObjectId(5c7f5b90ae6ae747acd4464d),Clint Hartrick,chartrick6w@skyrock.com,7321277403,Damatulan,,Philippines
ObjectId(5c7f5b90ae6ae747acd4464e),Tyler Paik,tpaik6v@angelfire.com,2905091197,Recarei,Porto,Portugal
ObjectId(5c7f5b90ae6ae747acd4464f),Stanfield Kerbey,skerbey6x@salon.com,5843539986,Batulawang,,Indonesia
ObjectId(5c7f5b90ae6ae747acd44650),Goldarina Kerrod,gkerrod6y@patch.com,7112523455,Sivers’k,,Ukraine
ObjectId(5c7f5b90ae6ae747acd44651),Kat Jerrim,kjerrim6z@nps.gov,7632066510,Rouen,Haute-Normandie,France
ObjectId(5c7f5b90ae6ae747acd44652),Donica Mearing,dmearing70@t-online.de,1064097977,Ponte,Porto,Portugal
ObjectId(5c7f5b90ae6ae747acd44653),Mikel Bairstow,mbairstow71@cnn.com,4989283056,Dok Kham Tai,,Thailand
ObjectId(5c7f5b90ae6ae747acd44654),Cyrill Arnefield,carnefield72@51.la,5519858424,Kertosari,,Indonesia
ObjectId(5c7f5b90ae6ae747acd44655),Cullin Hoult,choult73@ow.ly,3221541054,Patique,,Philippines
ObjectId(5c7f5b90ae6ae747acd44656),Ardra Jaksic,ajaksic74@prnewswire.com,7603186370,Huangdu,,China
ObjectId(5c7f5b90ae6ae747acd44657),Margarette Ronisch,mronisch75@epa.gov,9656179390,Zhangbang,,China
ObjectId(5c7f5b90ae6ae747acd44658),Tawnya Ciccottini,tciccottini76@deviantart.com,4277080867,Tielu,,China
ObjectId(5c7f5b90ae6ae747acd44659),Olia Churchman,ochurchman78@issuu.com,4955136099,Cipatujah,,Indonesia
ObjectId(5c7f5b90ae6ae747acd4465a),Marthena Bim,mbim77@bizjournals.com,5485592366,Baikouquan,,China
ObjectId(5c7f5b90ae6ae747acd4465b),Loreen Jewers,ljewers79@multiply.com,9333586089,Pontes,Santarém,Portugal
ObjectId(5c7f5b90ae6ae747acd4465c),Wilbert Corbet,wcorbet7a@edublogs.org,6753446748,Nymburk,,Czech Republic
ObjectId(5c7f5b90ae6ae747acd4465d),Valentijn Janecki,vjanecki7b@state.tx.us,4349967885,North Side,,Cayman Islands
ObjectId(5c7f5b90ae6ae747acd4465e),Karin Mandrake,kmandrake7c@ibm.com,5147930236,Nakhchivan,,Azerbaijan
ObjectId(5c7f5b90ae6ae747acd4465f),Lalo Kearford,lkearford7d@constantcontact.com,5726810238,Kalpáki,,Greece
ObjectId(5c7f5b90ae6ae747acd44660),Hurley Klus,hklus7e@baidu.com,3546678044,Bāglung,,Nepal
ObjectId(5c7f5b90ae6ae747acd44661),Harvey Schulkins,hschulkins7f@cocolog-nifty.com,4799219621,Balekambang,,Indonesia
ObjectId(5c7f5b90ae6ae747acd44662),Alessandra Rassell,arassell7g@goo.gl,9921817087,Palangan,,Indonesia
ObjectId(5c7f5b90ae6ae747acd44663),Margi Norewood,mnorewood7h@berkeley.edu,7939947455,Kęsowo,,Poland
ObjectId(5c7f5b90ae6ae747acd44664),Arman Cornbell,acornbell7i@washington.edu,4286127907,Swedru,,Ghana
ObjectId(5c7f5b90ae6ae747acd44665),Cally Sinden,csinden7j@si.edu,8243243425,Santa Quitéria,,Brazil
ObjectId(5c7f5b90ae6ae747acd44666),Marci Leinster,mleinster7k@opera.com,1855710783,Melong,,Cameroon
ObjectId(5c7f5b90ae6ae747acd44667),Cirillo Crossthwaite,ccrossthwaite7l@gmpg.org,8631448317,Ongi,,Mongolia
ObjectId(5c7f5b90ae6ae747acd44668),Opal Colmore,ocolmore7m@disqus.com,6551361488,Bindura,,Zimbabwe
ObjectId(5c7f5b90ae6ae747acd44669),Marwin Vanni,mvanni7n@vistaprint.com,7562961893,Hinunangan,,Philippines
ObjectId(5c7f5b90ae6ae747acd4466a),Lance Oakly,loakly7o@sitemeter.com,9865959143,Tiantai,,China
ObjectId(5c7f5b90ae6ae747acd4466b),Galvin Millership,gmillership7p@chicagotribune.com,3388722966,Terpsithéa,,Greece
ObjectId(5c7f5b90ae6ae747acd4466c),Silvan Sutty,ssutty7q@usgs.gov,1521621759,Železnice,,Czech Republic
ObjectId(5c7f5b90ae6ae747acd4466d),Ardine O'Duilleain,aoduilleain7r@uol.com.br,7899122780,Corcuera,,Philippines
ObjectId(5c7f5b90ae6ae747acd4466e),Mela Molloy,mmolloy7s@vkontakte.ru,6689200488,Tibigan,,Philippines
ObjectId(5c7f5b90ae6ae747acd4466f),Cristine Ledgister,cledgister7t@4shared.com,3271302895,Póvoa,Leiria,Portugal
ObjectId(5c7f5b90ae6ae747acd44670),Spence Angear,sangear7u@twitter.com,2403928642,Tinaco,,Venezuela
ObjectId(5c7f5b90ae6ae747acd44671),Arny Bagge,abagge7v@bluehost.com,3986146402,Gizałki,,Poland
ObjectId(5c7f5b90ae6ae747acd44672),Ad Summerfield,asummerfield7w@webs.com,4534735797,Vilar do Monte,Braga,Portugal
ObjectId(5c7f5b90ae6ae747acd44673),Gerek Konneke,gkonneke7x@imdb.com,8784468786,Uppsala,Uppsala,Sweden
ObjectId(5c7f5b90ae6ae747acd44674),Dena Suggitt,dsuggitt7y@odnoklassniki.ru,7761070073,Clifden,,Ireland
ObjectId(5c7f5b90ae6ae747acd44675),Sinclair Sutch,ssutch7z@nps.gov,5835057609,Lesnoy,,Russia
ObjectId(5c7f5b90ae6ae747acd44676),Caldwell Draisey,cdraisey80@tinypic.com,3249795864,Vinhas,Porto,Portugal
ObjectId(5c7f5b90ae6ae747acd44677),Inger Parcells,iparcells81@nymag.com,2729519646,Non Sung,,Thailand
ObjectId(5c7f5b90ae6ae747acd44678),Cass Seage,cseage82@npr.org,5256603242,España,,Philippines
ObjectId(5c7f5b90ae6ae747acd44679),Darb Vyvyan,dvyvyan84@va.gov,6368726392,Sapol,,Philippines
ObjectId(5c7f5b90ae6ae747acd4467a),Dru Yitzhakof,dyitzhakof83@ed.gov,7353685681,Bao’an,,China
ObjectId(5c7f5b90ae6ae747acd4467b),Cristobal Quenell,cquenell85@biblegateway.com,5937856944,Mooka,,Japan
ObjectId(5c7f5b90ae6ae747acd4467c),Jessamyn De Dei,jde86@google.com.hk,5835261325,Bendo,,Indonesia
ObjectId(5c7f5b90ae6ae747acd4467d),Beitris Ison,bison87@amazon.com,2257543602,Jelat,,Indonesia
ObjectId(5c7f5b90ae6ae747acd4467e),Colline Jambrozek,cjambrozek88@patch.com,5012556060,Messina,,South Africa
ObjectId(5c7f5b90ae6ae747acd4467f),Anna-diana Otton,aotton8a@comsenz.com,7694770330,Benešov nad Černou,,Czech Republic
ObjectId(5c7f5b90ae6ae747acd44680),Renaud Swale,rswale89@amazon.co.uk,1799326969,Kladovo,,Serbia
ObjectId(5c7f5b90ae6ae747acd44681),Elise Ridder,eridder8b@yolasite.com,2509652208,Albrechtice,,Czech Republic
ObjectId(5c7f5b90ae6ae747acd44682),Freeland Bohike,fbohike8c@mapquest.com,6624550890,Krychaw,,Belarus
ObjectId(5c7f5b90ae6ae747acd44683),Lucia Blaes,lblaes8d@shutterfly.com,9452609237,Karanganyar,,Indonesia
ObjectId(5c7f5b90ae6ae747acd44684),Jobyna Chestney,jchestney8e@dailymotion.com,1657085612,Bojadła,,Poland
ObjectId(5c7f5b90ae6ae747acd44685),Curcio Kinch,ckinch8f@flavors.me,8628874231,Xianzong,,China
ObjectId(5c7f5b90ae6ae747acd44686),Shaine Haken,shaken8g@surveymonkey.com,2161810631,Yangdang,,China
ObjectId(5c7f5b90ae6ae747acd44687),Shaun Orviss,sorviss8h@so-net.ne.jp,7131806173,Houston,Texas,United States
ObjectId(5c7f5b90ae6ae747acd44688),Chaddie Skedgell,cskedgell8i@com.com,3131529145,Agogo,,Ghana
ObjectId(5c7f5b90ae6ae747acd44689),Minnaminnie Gadson,mgadson8j@unblog.fr,2414860244,Bajo Pichanaqui,,Peru
ObjectId(5c7f5b90ae6ae747acd4468a),Frankie Mould,fmould8k@kickstarter.com,6007804149,Vodyane,,Ukraine
ObjectId(5c7f5b90ae6ae747acd4468b),Hayley Gaspard,hgaspard8l@1und1.de,4374734889,Campelos,Lisboa,Portugal
ObjectId(5c7f5b90ae6ae747acd4468c),Guendolen Fairpo,gfairpo8m@examiner.com,2835769248,Kirovs’k,,Ukraine
ObjectId(5c7f5b90ae6ae747acd4468d),Pinchas Riall,priall8n@multiply.com,1802025873,Hořice,,Czech Republic
ObjectId(5c7f5b90ae6ae747acd4468e),Pancho Lavies,plavies8o@gmpg.org,3976329994,Clichy,Île-de-France,France
ObjectId(5c7f5b90ae6ae747acd4468f),Pascale Tewkesberrie,ptewkesberrie8q@arizona.edu,9718934328,Si Narong,,Thailand
ObjectId(5c7f5b90ae6ae747acd44690),Bron Tappor,btappor8s@macromedia.com,7724703137,Zhourui,,China
ObjectId(5c7f5b90ae6ae747acd44691),Carolynn Ollie,collie8p@ycombinator.com,8141362249,Timaru,,New Zealand
ObjectId(5c7f5b90ae6ae747acd44692),Maximo Chastney,mchastney8r@istockphoto.com,5341876539,Moulay Abdallah,,Morocco
ObjectId(5c7f5b90ae6ae747acd44693),Hurley Chiommienti,hchiommienti8t@woothemes.com,7717307133,Chile Chico,,Chile
ObjectId(5c7f5b90ae6ae747acd44694),Marissa Mumbey,mmumbey8u@rakuten.co.jp,7386058438,Sidi Slimane,,Morocco
ObjectId(5c7f5b90ae6ae747acd44695),Skylar Podbury,spodbury8v@facebook.com,5884667392,Church End,England,United Kingdom
ObjectId(5c7f5b90ae6ae747acd44696),Gwyn Kauffman,gkauffman8w@tuttocitta.it,4471001799,Canaman,,Philippines
ObjectId(5c7f5b90ae6ae747acd44697),Si Dudill,sdudill8x@wordpress.com,2797388041,Néa Ankhíalos,,Greece
ObjectId(5c7f5b90ae6ae747acd44698),Stern Berry,sberry8y@mit.edu,1786565008,Bolotnoye,,Russia
ObjectId(5c7f5b90ae6ae747acd44699),Norina McLane,nmclane8z@tiny.cc,7622768536,Morteros,,Argentina
ObjectId(5c7f5b90ae6ae747acd4469a),Nels Fairs,nfairs90@meetup.com,7716067724,Béziers,Languedoc-Roussillon,France
ObjectId(5c7f5b90ae6ae747acd4469b),Harley Tickel,htickel91@businessweek.com,9741921702,Zoumaling,,China
ObjectId(5c7f5b90ae6ae747acd4469c),Jane Bartleet,jbartleet92@yellowpages.com,9738102843,Panganiban,,Philippines
ObjectId(5c7f5b90ae6ae747acd4469d),Vally Gadesby,vgadesby93@xinhuanet.com,1029683786,Pumaqangtang,,China
ObjectId(5c7f5b90ae6ae747acd4469e),Norton Burkinshaw,nburkinshaw94@cloudflare.com,5433192538,Chengnan,,China
ObjectId(5c7f5b90ae6ae747acd4469f),Zebadiah Mussared,zmussared95@engadget.com,1219278942,Khānaqāh,,Afghanistan
ObjectId(5c7f5b90ae6ae747acd446a0),Daisie Roney,droney96@xrea.com,8718087443,Sydney,New South Wales,Australia
ObjectId(5c7f5b90ae6ae747acd446a1),Barri McQuode,bmcquode97@hao123.com,5841362834,Crateús,,Brazil
ObjectId(5c7f5b90ae6ae747acd446a2),Maribeth Meakin,mmeakin98@wordpress.org,2538079237,Parthenay,Poitou-Charentes,France
ObjectId(5c7f5b90ae6ae747acd446a3),Tedda Watsham,twatsham99@a8.net,7625654344,Karangjaladri,,Indonesia
ObjectId(5c7f5b90ae6ae747acd446a4),Tommi Panchin,tpanchin9a@businessinsider.com,8834431481,Muqui,,Peru
ObjectId(5c7f5b90ae6ae747acd446a5),Terrel Golbourn,tgolbourn9b@163.com,2176376214,Göteborg,Västra Götaland,Sweden
ObjectId(5c7f5b90ae6ae747acd446a6),Lonnard Lillecrap,llillecrap9c@comsenz.com,9869975185,Tegalagung,,Indonesia
ObjectId(5c7f5b90ae6ae747acd446a7),Katee Bennedsen,kbennedsen9d@springer.com,9297255900,Cap Malheureux,,Mauritius
ObjectId(5c7f5b90ae6ae747acd446a8),Jerrilee Bienvenu,jbienvenu9e@mashable.com,2456800487,Kulia Village,,Tuvalu
ObjectId(5c7f5b90ae6ae747acd446a9),Stephani Plowell,splowell9f@jalbum.net,4901365659,Linköping,Östergötland,Sweden
ObjectId(5c7f5b90ae6ae747acd446aa),Betty Giovannardi,bgiovannardi9g@tinyurl.com,3923649916,Oeleu,,Indonesia
ObjectId(5c7f5b90ae6ae747acd446ab),Vernon McQuorkell,vmcquorkell9h@blogspot.com,2733388630,Renliu,,China
ObjectId(5c7f5b90ae6ae747acd446ac),Rayshell Dunckley,rdunckley9i@usda.gov,9784779656,Stizhkivs’ke,,Ukraine
ObjectId(5c7f5b90ae6ae747acd446ad),Dolph Olech,dolech9k@nyu.edu,9774271781,Timon,,Indonesia
ObjectId(5c7f5b90ae6ae747acd446ae),Izaak Cootes,icootes9j@washington.edu,6631722274,General Alvear,,Argentina
ObjectId(5c7f5b90ae6ae747acd446af),Lucian Cunradi,lcunradi9l@washingtonpost.com,5516801888,Santa Catalina,,Philippines
ObjectId(5c7f5b90ae6ae747acd446b0),Sol Capelen,scapelen9m@github.com,2749938919,Zhanxu,,China
ObjectId(5c7f5b90ae6ae747acd446b1),Lorant Winram,lwinram9n@prweb.com,3762295969,San Vicente,,Costa Rica
ObjectId(5c7f5b90ae6ae747acd446b2),Donnell Gouldthorp,dgouldthorp9o@loc.gov,5361846407,Pederneiras,,Brazil
ObjectId(5c7f5b90ae6ae747acd446b3),Aggi Malletratt,amalletratt9p@addthis.com,1012638746,Chicacao,,Guatemala
ObjectId(5c7f5b90ae6ae747acd446b4),Tiebout Sharnock,tsharnock9q@hud.gov,7081913882,Tomaszów Lubelski,,Poland
ObjectId(5c7f5b90ae6ae747acd446b5),Myles Greenset,mgreenset9r@latimes.com,2985597047,Quma,,China
ObjectId(5c7f5b90ae6ae747acd446b6),Heindrick McCole,hmccole9u@google.co.uk,2645909011,Aizhai,,China
ObjectId(5c7f5b90ae6ae747acd446b7),Bronny Zanini,bzanini9t@mail.ru,1791147659,Arasji,,Aruba
ObjectId(5c7f5b90ae6ae747acd446b8),Hyacinthie Nordass,hnordass9s@skyrock.com,7108674874,Aghavnatun,,Armenia
ObjectId(5c7f5b90ae6ae747acd446b9),Angelina Mattys,amattys9w@oakley.com,2186239251,Cibunar,,Indonesia
ObjectId(5c7f5b90ae6ae747acd446ba),Emmaline Bridgeland,ebridgeland9v@bbb.org,8658239266,Tarauacá,,Brazil
ObjectId(5c7f5b90ae6ae747acd446bb),Erroll Fishburn,efishburn9x@freewebs.com,1899334593,Sinuknipan,,Philippines
ObjectId(5c7f5b90ae6ae747acd446bc),Theresa Koppes,tkoppes9z@mac.com,4137378788,Szprotawa,,Poland
ObjectId(5c7f5b90ae6ae747acd446bd),Rozina Dencs,rdencs9y@alexa.com,3481469745,Marabahan,,Indonesia
ObjectId(5c7f5b90ae6ae747acd446be),Gypsy MacGillacolm,gmacgillacolma0@rediff.com,6364030981,Taohua,,China
ObjectId(5c7f5b90ae6ae747acd446bf),Frederico Pipes,fpipesa1@guardian.co.uk,1895487921,Shōbara,,Japan
ObjectId(5c7f5b90ae6ae747acd446c0),Paloma Haskur,phaskura2@archive.org,8707763677,Malaruhatan,,Philippines
ObjectId(5c7f5b90ae6ae747acd446c1),Brandea Beecker,bbeeckera3@istockphoto.com,2887560683,Erétria,,Greece
ObjectId(5c7f5b90ae6ae747acd446c2),Kendell Kluger,kklugera4@techcrunch.com,6699663857,Igreja,Vila Real,Portugal
ObjectId(5c7f5b90ae6ae747acd446c3),Shannen Hadwick,shadwicka5@intel.com,9631476968,Achadinha,Ilha de São Miguel,Portugal
ObjectId(5c7f5b90ae6ae747acd446c4),Sanson Tarbox,starboxa6@ezinearticles.com,4556124611,Harderwijk,Provincie Gelderland,Netherlands
ObjectId(5c7f5b90ae6ae747acd446c5),Roxi Paolicchi,rpaolicchia7@ow.ly,4154727717,San Francisco,California,United States
ObjectId(5c7f5b90ae6ae747acd446c6),Oren Juanico,ojuanicoa9@auda.org.au,4066815510,Yeşilköy,Samsun,Turkey
ObjectId(5c7f5b90ae6ae747acd446c7),Zeke Manchett,zmanchettaa@mtv.com,6168866175,Grand Rapids,Michigan,United States
ObjectId(5c7f5b90ae6ae747acd446c8),Kikelia Dakhno,kdakhnoab@whitehouse.gov,3218335241,Gilowice,,Poland
ObjectId(5c7f5b90ae6ae747acd446c9),Ruggiero Marflitt,rmarflitta8@printfriendly.com,6827446838,Fort Worth,Texas,United States
ObjectId(5c7f5b90ae6ae747acd446ca),Buffy Lawman,blawmanac@tiny.cc,7457841258,Savelugu,,Ghana
ObjectId(5c7f5b90ae6ae747acd446cb),Zebulon Penson,zpensonad@constantcontact.com,9321513015,Nova Friburgo,,Brazil
ObjectId(5c7f5b90ae6ae747acd446cc),Vladimir Jeger,vjegerae@aol.com,1484457293,Chagoda,,Russia
ObjectId(5c7f5b90ae6ae747acd446cd),Emmi Kibel,ekibelaf@usgs.gov,3674025906,Toledo,,Philippines
ObjectId(5c7f5b90ae6ae747acd446ce),Murdoch Tremellan,mtremellanag@rambler.ru,9541092845,Sardasht,,Iran
ObjectId(5c7f5b90ae6ae747acd446cf),Trixi Drance,tdranceah@netvibes.com,6788473580,Manicahan,,Philippines
ObjectId(5c7f5b90ae6ae747acd446d0),Liz Dowsey,ldowseyaj@163.com,7109773133,Rufino,,Argentina
ObjectId(5c7f5b90ae6ae747acd446d1),Roderic Archbold,rarchboldak@unicef.org,4994858216,Caijiapu,,China
ObjectId(5c7f5b90ae6ae747acd446d2),Ricky Beak,rbeakai@bloomberg.com,3529260405,Kabīrwāla,,Pakistan
ObjectId(5c7f5b90ae6ae747acd446d3),Lyndsay Gerren,lgerrenal@theatlantic.com,8283562525,Żabieniec,,Poland
ObjectId(5c7f5b90ae6ae747acd446d4),Nikos Salvadori,nsalvadoriam@washingtonpost.com,6608046146,Rēzekne,,Latvia
ObjectId(5c7f5b90ae6ae747acd446d5),Cullan Shales,cshalesan@cbslocal.com,2157283797,Dār an Naşr,,Yemen
ObjectId(5c7f5b90ae6ae747acd446d6),Bettye Jakobsson,bjakobssonao@issuu.com,9673322055,Keda,,China
ObjectId(5c7f5b90ae6ae747acd446d7),Ave O'Dempsey,aodempseyap@1und1.de,9088621127,Nurabelen,,Indonesia
ObjectId(5c7f5b90ae6ae747acd446d8),Barr Boller,bbolleraq@wisc.edu,2276085819,Gojō,,Japan
ObjectId(5c7f5b90ae6ae747acd446d9),Dre Winfred,dwinfredar@gravatar.com,3506287773,Skien,Telemark,Norway
ObjectId(5c7f5b90ae6ae747acd446da),Andie Bottell,abottellas@canalblog.com,7882321892,Arcoverde,,Brazil
ObjectId(5c7f5b90ae6ae747acd446db),Korey Norcliff,knorcliffat@foxnews.com,8697521357,Ban Lam Luk Ka,,Thailand
ObjectId(5c7f5b90ae6ae747acd446dc),Irving Riddall,iriddallau@sbwire.com,2865513433,Bang Khon Thi,,Thailand
ObjectId(5c7f5b90ae6ae747acd446dd),Letisha Allom,lallomav@chron.com,1151810869,Stockholm,Stockholm,Sweden
ObjectId(5c7f5b90ae6ae747acd446de),Klara Soonhouse,ksoonhouseaw@techcrunch.com,3539960795,Zhongcun,,China
ObjectId(5c7f5b90ae6ae747acd446df),Felecia Simoncini,fsimonciniax@wikispaces.com,2331312311,Lyon,Rhône-Alpes,France
ObjectId(5c7f5b90ae6ae747acd446e0),Minor Torres,mtorresay@phoca.cz,5812442535,Tohautu,,French Polynesia
ObjectId(5c7f5b90ae6ae747acd446e1),Chico Kimmince,ckimminceb0@pcworld.com,2677994759,Alminhas,Braga,Portugal
ObjectId(5c7f5b90ae6ae747acd446e2),Stillman Kilban,skilbanaz@fastcompany.com,6488543148,Pácora,,Colombia
ObjectId(5c7f5b90ae6ae747acd446e3),Marcello Waywell,mwaywellb1@yellowbook.com,9345007821,Langxi,,China
ObjectId(5c7f5b90ae6ae747acd446e4),Anatola Beringer,aberingerb2@feedburner.com,4434998648,Kuiyong,,China
ObjectId(5c7f5b90ae6ae747acd446e5),Harrietta Sherer,hshererb4@youtu.be,9808053139,Santiago,,Paraguay
ObjectId(5c7f5b90ae6ae747acd446e6),Kattie Jeskins,kjeskinsb3@mozilla.com,3995189569,Vista Hermosa,Guerrero,Mexico
ObjectId(5c7f5b90ae6ae747acd446e7),Christyna Grierson,cgriersonb5@phpbb.com,5278390217,Shatian,,China
ObjectId(5c7f5b90ae6ae747acd446e8),Ethyl Clarae,eclaraeb6@godaddy.com,6197749982,Oripää,,Finland
ObjectId(5c7f5b90ae6ae747acd446e9),Joan Nealand,jnealandb7@canalblog.com,5237606863,Lazaro Cardenas,Tabasco,Mexico
ObjectId(5c7f5b90ae6ae747acd446ea),Ynez Livesley,ylivesleyb8@desdev.cn,9003487722,Qingyang,,China
ObjectId(5c7f5b90ae6ae747acd446eb),Nolly Halpen,nhalpenb9@rediff.com,8095597944,Sumbersewu,,Indonesia
ObjectId(5c7f5b90ae6ae747acd446ec),Odessa Marshman,omarshmanba@nbcnews.com,3056411238,Ulyanovsk,,Russia
ObjectId(5c7f5b90ae6ae747acd446ed),Althea Wickwarth,awickwarthbb@behance.net,9353052234,Al Quwaysimah,,Jordan
ObjectId(5c7f5b90ae6ae747acd446ee),Leann Joscelin,ljoscelinbc@hubpages.com,4409882225,Bayamo,,Cuba
ObjectId(5c7f5b90ae6ae747acd446ef),Aluin Mainstone,amainstonebd@blogspot.com,8689691480,Santa Fe de la Vera Cruz,,Argentina
ObjectId(5c7f5b90ae6ae747acd446f0),Janice Destouche,jdestouchebe@yellowbook.com,3524982792,Shinkafe,,Nigeria
ObjectId(5c7f5b90ae6ae747acd446f1),Joelle Rickell,jrickellbf@51.la,7886889917,Zhichu,,China
ObjectId(5c7f5b90ae6ae747acd446f2),Dallon Dyble,ddyblebg@princeton.edu,6596134251,Sanom,,Thailand
ObjectId(5c7f5b90ae6ae747acd446f3),Cameron Franssen,cfranssenbh@tumblr.com,5105127089,Yotsukaidō,,Japan
ObjectId(5c7f5b90ae6ae747acd446f4),Sarene Rivett,srivettbi@mac.com,9591276011,Sangpi,,China
ObjectId(5c7f5b90ae6ae747acd446f5),Peggie Goligly,pgoliglybj@baidu.com,3818244301,Votkinsk,,Russia
ObjectId(5c7f5b90ae6ae747acd446f6),Homerus Jillitt,hjillittbk@economist.com,6654896757,Russas,,Brazil
ObjectId(5c7f5b90ae6ae747acd446f7),Shell Cartan,scartanbl@google.cn,4828349726,Raheny,,Ireland
ObjectId(5c7f5b90ae6ae747acd446f8),Tressa Haxby,thaxbybm@kickstarter.com,9326476333,El Fasher,,Sudan
ObjectId(5c7f5b90ae6ae747acd446f9),Egon Matson,ematsonbn@sbwire.com,3307463720,Andrushivka,,Ukraine
ObjectId(5c7f5b90ae6ae747acd446fa),Woodrow Maymand,wmaymandbo@oracle.com,5321834472,Uścimów Stary,,Poland
ObjectId(5c7f5b90ae6ae747acd446fb),Enriqueta Barhem,ebarhembp@unc.edu,3427039010,Harrison,,Philippines
ObjectId(5c7f5b90ae6ae747acd446fc),Clovis Bermingham,cberminghambq@hp.com,3042695934,Huntington,West Virginia,United States
ObjectId(5c7f5b90ae6ae747acd446fd),Chancey Thombleson,cthomblesonbr@wordpress.com,8309879684,Krajan,,Indonesia
ObjectId(5c7f5b90ae6ae747acd446fe),Daron Aitken,daitkenbs@prweb.com,1485246527,Jasienica,,Poland
ObjectId(5c7f5b90ae6ae747acd446ff),Katrina Fuidge,kfuidgebu@paginegialle.it,6065902967,Xinji,,China
ObjectId(5c7f5b90ae6ae747acd44700),Almeria Tuny,atunybv@yandex.ru,3405738972,Hendaye,Aquitaine,France
ObjectId(5c7f5b90ae6ae747acd44701),Witty Jollye,wjollyebt@wikipedia.org,9167095248,Ugba,,Nigeria
ObjectId(5c7f5b90ae6ae747acd44702),Ashla Backler,abacklerbw@usatoday.com,7013752032,Lazaro Cardenas,Mexico,Mexico
ObjectId(5c7f5b90ae6ae747acd44703),Ethan Mitchenson,emitchensonby@icio.us,5739535865,Makabe,,Japan
ObjectId(5c7f5b90ae6ae747acd44704),Sisile Foreman,sforemanbz@tumblr.com,7378236311,Santa Lucía,,Colombia
ObjectId(5c7f5b90ae6ae747acd44705),Georas de Cullip,gdebx@ft.com,8198523198,Zhiqu,,China
ObjectId(5c7f5b90ae6ae747acd44706),Eugen Paolotto,epaolottoc0@nps.gov,1524260778,Trzciana,,Poland
ObjectId(5c7f5b90ae6ae747acd44707),Averill Bartelot,abartelotc1@oakley.com,2908087456,Talakag,,Philippines
ObjectId(5c7f5b90ae6ae747acd44708),Dahlia Shinfield,dshinfieldc2@angelfire.com,5531627510,Chenchang,,China
ObjectId(5c7f5b90ae6ae747acd44709),Tana Martins,tmartinsc3@wufoo.com,6785860910,Tuam,,Ireland
ObjectId(5c7f5b90ae6ae747acd4470a),Armin Becarra,abecarrac4@creativecommons.org,4328084151,Juxing,,China
ObjectId(5c7f5b90ae6ae747acd4470b),Allis Bosden,abosdenc5@bing.com,3222468826,Babica,,Poland
ObjectId(5c7f5b90ae6ae747acd4470c),Pollyanna Lummasana,plummasanac7@apache.org,2061704344,Jiekou,,China
ObjectId(5c7f5b90ae6ae747acd4470d),Melania McNamara,mmcnamarac6@jalbum.net,8685602006,Gaoping,,China
ObjectId(5c7f5b90ae6ae747acd4470e),Seka Baruch,sbaruchc8@qq.com,8491601232,Ramotswa,,Botswana
ObjectId(5c7f5b90ae6ae747acd4470f),Cleve Heys,cheysc9@examiner.com,5865314092,Udanin,,Poland
ObjectId(5c7f5b90ae6ae747acd44710),Lynelle Breed,lbreedca@twitpic.com,2388282848,Stamáta,,Greece
ObjectId(5c7f5b90ae6ae747acd44711),Myrtie Valadez,mvaladezcb@hubpages.com,6669900368,Hongdu,,China
ObjectId(5c7f5b90ae6ae747acd44712),Blane Weddup,bweddupcc@sbwire.com,7543952350,Gaozhou,,China
ObjectId(5c7f5b90ae6ae747acd44713),Garret Acors,gacorscd@zdnet.com,9972809374,Bitaogan,,Philippines
ObjectId(5c7f5b90ae6ae747acd44714),Hollis Ride,hridece@themeforest.net,6809525620,Dinggou,,China
ObjectId(5c7f5b90ae6ae747acd44715),Lory Axworthy,laxworthycf@thetimes.co.uk,3754728311,Cancas,,Peru
ObjectId(5c7f5b90ae6ae747acd44716),Stevana Puden,spudencg@paginegialle.it,8964643616,Chiguang,,China
ObjectId(5c7f5b90ae6ae747acd44717),Somerset Bryce,sbrycech@mashable.com,7868831548,Yueshan,,China
ObjectId(5c7f5b90ae6ae747acd44718),Ives Rennox,irennoxci@github.io,1442468268,Vilarinho da Castanheira,Bragança,Portugal
ObjectId(5c7f5b90ae6ae747acd44719),Norry Andreacci,nandreaccicj@google.co.jp,7995391734,Domašinec,,Croatia
ObjectId(5c7f5b90ae6ae747acd4471a),Thurstan Cordero,tcorderock@pbs.org,6582041377,Olmos,,Peru
ObjectId(5c7f5b90ae6ae747acd4471b),Hyacintha Moyse,hmoysecl@discuz.net,6272836957,Taghazout,,Morocco
ObjectId(5c7f5b90ae6ae747acd4471c),Alva Sutherby,asutherbycm@addtoany.com,7947963024,Tempeh Tengah,,Indonesia
ObjectId(5c7f5b90ae6ae747acd4471d),Corabel Duxbarry,cduxbarryco@senate.gov,8632933292,Cinyawang,,Indonesia
ObjectId(5c7f5b90ae6ae747acd4471e),Walden Fludder,wfluddercn@sbwire.com,8468658981,Siumate,,Indonesia
ObjectId(5c7f5b90ae6ae747acd4471f),Shannon Randals,srandalscp@last.fm,9545042652,Bantardawa,,Indonesia
ObjectId(5c7f5b90ae6ae747acd44720),Job Mcsarry,jmcsarrycq@rediff.com,4186620917,Dadaha,,Indonesia
ObjectId(5c7f5b90ae6ae747acd44721),Catlin Woolliams,cwoolliamscs@mayoclinic.com,1573447105,Vithkuq,,Albania
ObjectId(5c7f5b90ae6ae747acd44722),Emelita Creany,ecreanycr@etsy.com,7296268146,Borik,,Indonesia
ObjectId(5c7f5b90ae6ae747acd44723),Bordie Lundberg,blundbergcu@slate.com,1249997203,Sirājganj,,Bangladesh
ObjectId(5c7f5b90ae6ae747acd44724),Gilbertine Guyonneau,gguyonneauct@wp.com,5073935880,Bologoye,,Russia
ObjectId(5c7f5b90ae6ae747acd44725),Doloritas Draycott,ddraycottcv@mysql.com,1141006602,Chengnan,,China
ObjectId(5c7f5b90ae6ae747acd44726),Holmes Churches,hchurchescw@mozilla.org,4311194728,Mādabā,,Jordan
ObjectId(5c7f5b90ae6ae747acd44727),Billye Geggus,bgegguscx@skyrock.com,8148685591,Hongwei,,China
ObjectId(5c7f5b90ae6ae747acd44728),Birgit Tolson,btolsoncy@webeden.co.uk,3493028214,Gangtun,,China
ObjectId(5c7f5b90ae6ae747acd44729),Doug Pawels,dpawelscz@addtoany.com,5713975787,Sterling,Virginia,United States
ObjectId(5c7f5b90ae6ae747acd4472a),Lori Mayne,lmayned0@state.gov,3658698650,Tessaoua,,Niger
ObjectId(5c7f5b90ae6ae747acd4472b),Shae Bucknill,sbucknilld1@weather.com,2775678100,Jabon,,Indonesia
ObjectId(5c7f5b90ae6ae747acd4472c),Forster Forgan,fforgand2@homestead.com,7656315846,Calvinia,,South Africa
ObjectId(5c7f5b90ae6ae747acd4472d),Titus Costello,tcostellod3@cornell.edu,9083394290,Uglich,,Russia
ObjectId(5c7f5b90ae6ae747acd4472e),Caitrin Kittles,ckittlesd5@si.edu,4571858535,Anyu,,China
ObjectId(5c7f5b90ae6ae747acd4472f),Candida Fibbit,cfibbitd4@gravatar.com,6527783162,Bilozerka,,Ukraine
ObjectId(5c7f5b90ae6ae747acd44730),Berti Wakeling,bwakelingd6@yahoo.co.jp,7242735264,Puolanka,,Finland
ObjectId(5c7f5b90ae6ae747acd44731),Camille Gircke,cgircked7@google.nl,7824760244,Zorak,,Armenia
ObjectId(5c7f5b90ae6ae747acd44732),Madalyn Schukert,mschukertd8@state.tx.us,3656742133,Tartagal,,Argentina
ObjectId(5c7f5b90ae6ae747acd44733),Robinet Baselio,rbaseliod9@sitemeter.com,7019740804,Xinxu,,China
ObjectId(5c7f5b90ae6ae747acd44734),Martina Danovich,mdanovichda@storify.com,1285536232,Ovalle,,Chile
ObjectId(5c7f5b90ae6ae747acd44735),Dory Clemes,dclemesdb@hud.gov,7583845672,Steinkjer,Nord-Trondelag,Norway
ObjectId(5c7f5b90ae6ae747acd44736),Ulrick Thorowgood,uthorowgooddc@dot.gov,6739668343,Daying,,China
ObjectId(5c7f5b90ae6ae747acd44737),Maighdiln Primo,mprimodd@unicef.org,5942000167,Karangbungur,,Indonesia
ObjectId(5c7f5b90ae6ae747acd44738),Sena Akister,sakisterde@nifty.com,6293764481,Bibinje,,Croatia
ObjectId(5c7f5b90ae6ae747acd44739),Stanly Godbold,sgodbolddf@washington.edu,2691065912,Xikou,,China
ObjectId(5c7f5b90ae6ae747acd4473a),Britni Posse,bpossedg@ftc.gov,1985508375,Virojoki,,Finland
ObjectId(5c7f5b90ae6ae747acd4473b),Margette Sweedy,msweedydh@time.com,3621833182,Konin,,Poland
ObjectId(5c7f5b90ae6ae747acd4473c),Isidor Dradey,idradeydi@360.cn,8732434641,Rybatskoye,,Russia
ObjectId(5c7f5b90ae6ae747acd4473d),Haskell Scarr,hscarrdj@cpanel.net,2919627763,Quchanghī,,Afghanistan
ObjectId(5c7f5b90ae6ae747acd4473e),Vilma Mucklow,vmucklowdk@google.ru,7212438868,Canindé,,Brazil
ObjectId(5c7f5b90ae6ae747acd4473f),Renaud Okeshott,rokeshottdl@jugem.jp,9897651277,Dagushan,,China
ObjectId(5c7f5b90ae6ae747acd44740),Angelica Josuweit,ajosuweitdm@japanpost.jp,8168719663,Mang’it Shahri,,Uzbekistan
ObjectId(5c7f5b90ae6ae747acd44741),Elane Baggot,ebaggotdn@icio.us,6546605321,Bafang,,Cameroon
ObjectId(5c7f5b90ae6ae747acd44742),Misti Crumpe,mcrumpedo@istockphoto.com,1488960286,Karak City,,Jordan
ObjectId(5c7f5b90ae6ae747acd44743),Aldin MacComiskey,amaccomiskeydp@arizona.edu,9714279141,Oesain,,Indonesia
ObjectId(5c7f5b90ae6ae747acd44744),Martie Rowthorn,mrowthorndr@ask.com,3895127089,Colegiales,,Argentina
ObjectId(5c7f5b90ae6ae747acd44745),Harland Stiegar,hstiegardq@acquirethisname.com,7608698885,Hakui,,Japan
ObjectId(5c7f5b90ae6ae747acd44746),Sandro Buckeridge,sbuckeridgeds@i2i.jp,2315933017,Klenčí pod Čerchovem,,Czech Republic
ObjectId(5c7f5b90ae6ae747acd44747),Oates Espasa,oespasadt@sogou.com,7765911653,Seso,,Indonesia
ObjectId(5c7f5b90ae6ae747acd44748),Denna Cupitt,dcupittdu@google.de,9732054959,Wujingfu,,China
ObjectId(5c7f5b90ae6ae747acd44749),Annemarie Martygin,amartygindv@dot.gov,8791504717,Montes Velhos,Beja,Portugal
ObjectId(5c7f5b90ae6ae747acd4474a),Quinn Jannex,qjannexdw@hatena.ne.jp,4398281270,Margita,,Serbia
ObjectId(5c7f5b90ae6ae747acd4474b),Cora Steen,csteendx@studiopress.com,6953736089,Clogherhead,,Ireland
ObjectId(5c7f5b90ae6ae747acd4474c),Edmund McGrann,emcgranndy@psu.edu,2369950361,Água de Pau,Ilha de São Miguel,Portugal
ObjectId(5c7f5b90ae6ae747acd4474d),Andrei Matt,amattdz@photobucket.com,7869663508,La Esmeralda,,Venezuela
ObjectId(5c7f5b90ae6ae747acd4474e),Gertruda Sellwood,gsellwoode0@naver.com,2575828722,Houbai,,China
ObjectId(5c7f5b90ae6ae747acd4474f),Zonnya Loadsman,zloadsmane1@ask.com,6586215729,Mamburao,,Philippines
ObjectId(5c7f5b90ae6ae747acd44750),Constantine Phillipp,cphillippe2@youku.com,4054276994,Oklahoma City,Oklahoma,United States
ObjectId(5c7f5b90ae6ae747acd44751),Ajay Dantesia,adantesiae3@bloomberg.com,2201384493,Tangkanpulit,,Indonesia
ObjectId(5c7f5b90ae6ae747acd44752),Gnni O'Riordan,goriordane4@globo.com,1557771999,Nowogard,,Poland
ObjectId(5c7f5b90ae6ae747acd44753),Uri Yearns,uyearnse5@mozilla.org,2529372811,Ziyuan,,China
ObjectId(5c7f5b90ae6ae747acd44754),Cesya Virgo,cvirgoe6@tamu.edu,5023337494,Zarqa,,Jordan
ObjectId(5c7f5b90ae6ae747acd44755),Garrot Lowther,glowthere7@msn.com,8098466686,Aş Şafaqayn,,Yemen
ObjectId(5c7f5b90ae6ae747acd44756),El Boylund,eboylunde8@webnode.com,8196230895,Velestíno,,Greece
ObjectId(5c7f5b90ae6ae747acd44757),Peggy Sturr,psturre9@tiny.cc,4551490504,Villa Nueva,,Honduras
ObjectId(5c7f5b90ae6ae747acd44758),Bianka Bartod,bbartodec@odnoklassniki.ru,6162444553,Grand Rapids,Michigan,United States
ObjectId(5c7f5b90ae6ae747acd44759),Marleen Oylett,moylettea@google.ru,5271981864,Yunlong,,China
ObjectId(5c7f5b90ae6ae747acd4475a),Janna Paradine,jparadineeb@oaic.gov.au,4155254950,San Francisco,California,United States
ObjectId(5c7f5b90ae6ae747acd4475b),Marley Enders,mendersed@epa.gov,5217802263,Pehčevo,,Macedonia
ObjectId(5c7f5b90ae6ae747acd4475c),Courtnay Simester,csimesteree@goo.ne.jp,7185681561,Espírito Santo do Pinhal,,Brazil
ObjectId(5c7f5b90ae6ae747acd4475d),Rickert Chesney,rchesneyef@rambler.ru,2867736901,San Pedro Sacatepéquez,,Guatemala
ObjectId(5c7f5b90ae6ae747acd4475e),Emilia Retallack,eretallackeg@amazonaws.com,8093005869,Sanjiangkou,,China
ObjectId(5c7f5b90ae6ae747acd4475f),Viviene Moring,vmoringei@lulu.com,3715267985,Adani,,Nigeria
ObjectId(5c7f5b90ae6ae747acd44760),Elisabet Pegrum,epegrumeh@ameblo.jp,6676835032,Soacha,,Colombia
ObjectId(5c7f5b90ae6ae747acd44761),Ado Goby,agobyej@cafepress.com,7447991139,Tournon-sur-Rhône,Rhône-Alpes,France
ObjectId(5c7f5b90ae6ae747acd44762),Rosabella Bigby,rbigbyek@wordpress.com,5449251160,Benito Juarez,Chihuahua,Mexico
ObjectId(5c7f5b90ae6ae747acd44763),Kristy Hicken,khickenel@cam.ac.uk,8594569689,Wantou,,China
ObjectId(5c7f5b90ae6ae747acd44764),Etty Heffer,ehefferem@webs.com,7444389875,Subulussalam,,Indonesia
ObjectId(5c7f5b90ae6ae747acd44765),Eb Lucken,eluckenen@github.com,3584775523,Starobachaty,,Russia
ObjectId(5c7f5b90ae6ae747acd44766),Steffi Bynert,sbynerteo@vk.com,5079528522,Hostomice,,Czech Republic
ObjectId(5c7f5b90ae6ae747acd44767),Adara Hitscher,ahitscherep@mayoclinic.com,1381341086,Staré Křečany,,Czech Republic
ObjectId(5c7f5b90ae6ae747acd44768),Cristie Coldbath,ccoldbatheq@usa.gov,2601938245,Pomabamba,,Peru
ObjectId(5c7f5b90ae6ae747acd44769),Kariotta Mussington,kmussingtoner@google.it,1515572935,Gandoang,,Indonesia
ObjectId(5c7f5b90ae6ae747acd4476a),Gael Philipsen,gphilipsenes@youku.com,5028204302,Olyka,,Ukraine
ObjectId(5c7f5b90ae6ae747acd4476b),Earvin Fitzroy,efitzroyet@twitpic.com,8991759586,El Tambo,,Colombia
ObjectId(5c7f5b90ae6ae747acd4476c),Malinde Edy,medyeu@newyorker.com,4862024288,Château-Richer,Québec,Canada
ObjectId(5c7f5b90ae6ae747acd4476d),Ulberto Kohnemann,ukohnemannev@people.com.cn,1343649616,Xichang,,China
ObjectId(5c7f5b90ae6ae747acd4476e),Lurlene Legge,lleggeex@europa.eu,2233373663,Utrecht (stad),Provincie Utrecht,Netherlands
ObjectId(5c7f5b90ae6ae747acd4476f),Masha Rubel,mrubelew@mlb.com,9845883774,Gingsir,,Indonesia
ObjectId(5c7f5b90ae6ae747acd44770),Lawry Renner,lrennerez@gizmodo.com,1152530820,Rio de Janeiro,,Brazil
ObjectId(5c7f5b90ae6ae747acd44771),Kathy Tippetts,ktippettsey@bloglines.com,8774010415,Kabakovo,,Russia
ObjectId(5c7f5b90ae6ae747acd44772),Mehetabel Saltsberg,msaltsbergf0@epa.gov,7693390736,Orlová,,Czech Republic
ObjectId(5c7f5b90ae6ae747acd44773),Harold McIlhone,hmcilhonef1@plala.or.jp,4115436752,El Capulin,Mexico,Mexico
ObjectId(5c7f5b90ae6ae747acd44774),Teodora Eytel,teytelf2@ftc.gov,6203375174,Blora,,Indonesia
ObjectId(5c7f5b90ae6ae747acd44775),Klarrisa Ansill,kansillf3@phoca.cz,7173928030,Arvika,Värmland,Sweden
ObjectId(5c7f5b90ae6ae747acd44776),Florry Pitrollo,fpitrollof4@shop-pro.jp,2001763899,Glagahan,,Indonesia
ObjectId(5c7f5b90ae6ae747acd44777),Redford Jeff,rjefff5@skyrock.com,5988670079,Arue,,French Polynesia
ObjectId(5c7f5b90ae6ae747acd44778),Jaclin O'Kinneally,jokinneallyf6@reverbnation.com,1223941663,Sunampe,,Peru
ObjectId(5c7f5b90ae6ae747acd44779),Em Sellor,esellorf7@cbc.ca,9691148046,Banovo Polje,,Serbia
ObjectId(5c7f5b90ae6ae747acd4477a),Price Robion,probionf8@yellowpages.com,9086814218,Abobo,,Ivory Coast
ObjectId(5c7f5b90ae6ae747acd4477b),Webster Matiebe,wmatiebef9@homestead.com,3052359065,Morales,,Colombia
ObjectId(5c7f5b90ae6ae747acd4477c),Rocky Zylbermann,rzylbermannfa@hugedomains.com,4403442390,Uherce Mineralne,,Poland
ObjectId(5c7f5b90ae6ae747acd4477d),Benjamin Ledur,bledurfb@furl.net,7672320695,Bharatpur,,Nepal
ObjectId(5c7f5b90ae6ae747acd4477e),Leonidas Matzeitis,lmatzeitisfc@independent.co.uk,4391229475,Bazha,,China
ObjectId(5c7f5b90ae6ae747acd4477f),Perle Jedrys,pjedrysfd@sun.com,8769651981,Nynäshamn,Stockholm,Sweden
ObjectId(5c7f5b90ae6ae747acd44780),Hernando Kopisch,hkopischfe@washington.edu,9288206181,Montpellier,Languedoc-Roussillon,France
ObjectId(5c7f5b90ae6ae747acd44781),Jolee Skillitt,jskillittff@yelp.com,2621780163,Wudong,,China
ObjectId(5c7f5b90ae6ae747acd44782),Barde Woolaghan,bwoolaghanfg@wikipedia.org,3234199190,Zhukovskiy,,Russia
ObjectId(5c7f5b90ae6ae747acd44783),Roana Drewes,rdrewesfh@zimbio.com,9214679149,Obukhiv,,Ukraine
ObjectId(5c7f5b90ae6ae747acd44784),Mariette Humphery,mhumpheryfj@chronoengine.com,8818082400,Skhira,,Tunisia
ObjectId(5c7f5b90ae6ae747acd44785),Lula Hebble,lhebblefi@google.co.uk,5241002969,Qihama,,China
ObjectId(5c7f5b90ae6ae747acd44786),Morlee Hitschke,mhitschkefk@independent.co.uk,3449254304,Doushan,,China
ObjectId(5c7f5b90ae6ae747acd44787),Ellery Tibbits,etibbitsfl@uol.com.br,5124777577,Andrushivka,,Ukraine
ObjectId(5c7f5b90ae6ae747acd44788),Idalina Learoyd,ilearoydfn@uol.com.br,3843596008,Köln,Nordrhein-Westfalen,Germany
ObjectId(5c7f5b90ae6ae747acd44789),Chico Blaase,cblaasefm@issuu.com,7915651510,Mojo,,Ethiopia
ObjectId(5c7f5b90ae6ae747acd4478a),Florence Baudic,fbaudicfo@wikimedia.org,2073535818,Speightstown,,Barbados
ObjectId(5c7f5b90ae6ae747acd4478b),Falkner Utting,futtingfp@ibm.com,3375864496,Čair,,Macedonia
ObjectId(5c7f5b90ae6ae747acd4478c),Jere Preto,jpretofq@seattletimes.com,3113925718,Kaduy,,Russia
ObjectId(5c7f5b90ae6ae747acd4478d),Ajay Henze,ahenzefr@aboutads.info,2502590062,Esperanza,,Philippines
ObjectId(5c7f5b90ae6ae747acd4478e),Elisha Cosker,ecoskerfs@springer.com,4159203627,Igunga,,Tanzania
ObjectId(5c7f5b90ae6ae747acd4478f),Roddie Samett,rsamettft@ebay.co.uk,3929008315,Puteaux,Île-de-France,France
ObjectId(5c7f5b90ae6ae747acd44790),Almire Dibnah,adibnahfu@reuters.com,7702151430,Garmeh,,Iran
ObjectId(5c7f5b90ae6ae747acd44791),Nikki Decker,ndeckerfv@noaa.gov,4312168498,Rancho Viejo,Guerrero,Mexico
ObjectId(5c7f5b90ae6ae747acd44792),Ludvig Cowmeadow,lcowmeadowfw@posterous.com,1485009196,Xiaoshi,,China
ObjectId(5c7f5b90ae6ae747acd44793),Heinrick Kidby,hkidbyfx@fastcompany.com,5047012880,Dawa-Dawa,,Philippines
ObjectId(5c7f5b90ae6ae747acd44794),Goldia Errington,gerringtonfy@smugmug.com,2156137624,Itapema,,Brazil
ObjectId(5c7f5b90ae6ae747acd44795),Marlowe St Clair,mstfz@buzzfeed.com,3682059576,Morant Bay,,Jamaica
ObjectId(5c7f5b90ae6ae747acd44796),Merle Glancy,mglancyg0@addthis.com,9516477177,Nowa Dęba,,Poland
ObjectId(5c7f5b90ae6ae747acd44797),Orland Bolter,obolterg1@sina.com.cn,9988656970,Alderetes,,Argentina
ObjectId(5c7f5b90ae6ae747acd44798),Pandora Skittrell,pskittrellg4@typepad.com,8478451909,Apucarana,,Brazil
ObjectId(5c7f5b90ae6ae747acd44799),Mildred Milington,mmilingtong2@edublogs.org,9693431207,Santa Luzia,Ilha do Pico,Portugal
ObjectId(5c7f5b90ae6ae747acd4479a),Ricard Mullord,rmullordg3@theglobeandmail.com,6559842116,Río Tercero,,Argentina
ObjectId(5c7f5b90ae6ae747acd4479b),Goldarina Gibbonson,ggibbonsong5@sitemeter.com,6743834831,Zhongshan Donglu,,China
ObjectId(5c7f5b90ae6ae747acd4479c),Baryram Anthony,banthonyg6@github.com,2264015747,Pamanukan,,Indonesia
ObjectId(5c7f5b90ae6ae747acd4479d),Jarvis Binney,jbinneyg7@sitemeter.com,3642067651,Daying,,China
ObjectId(5c7f5b90ae6ae747acd4479e),Brade Northidge,bnorthidgeg8@si.edu,5565314661,Chenjiaba,,China
ObjectId(5c7f5b90ae6ae747acd4479f),Cordey Esch,ceschg9@wufoo.com,7543178966,Belūsovka,,Kazakhstan
ObjectId(5c7f5b90ae6ae747acd447a0),Graig Cuesta,gcuestaga@buzzfeed.com,4984616982,Armenia,,Colombia
ObjectId(5c7f5b90ae6ae747acd447a1),Jean Lazar,jlazargb@pbs.org,4879305475,Libas,,Philippines
ObjectId(5c7f5b90ae6ae747acd447a2),Grayce McInerney,gmcinerneygc@themeforest.net,1145412582,Nila Dua,,Indonesia
ObjectId(5c7f5b90ae6ae747acd447a3),Vivi Densell,vdensellgd@shareasale.com,2944128041,Luocun,,China
ObjectId(5c7f5b90ae6ae747acd447a4),Suki Kleinzweig,skleinzweigge@github.io,4153263853,Dengzhou,,China
ObjectId(5c7f5b90ae6ae747acd447a5),Alexandro Taveriner,ataverinergf@friendfeed.com,5661611346,Taunggyi,,Myanmar
ObjectId(5c7f5b90ae6ae747acd447a6),Chiquia Matuszak,cmatuszakgg@51.la,1931256026,Mombaça,,Brazil
ObjectId(5c7f5b90ae6ae747acd447a7),Tann Greetland,tgreetlandgh@people.com.cn,6506613508,Mineiros,,Brazil
ObjectId(5c7f5b90ae6ae747acd447a8),Piggy Shepherd,pshepherdgi@sourceforge.net,7689273222,Catarina,,Nicaragua
ObjectId(5c7f5b90ae6ae747acd447a9),Nevins Renouf,nrenoufgj@google.com.au,2708111183,Tournan-en-Brie,Île-de-France,France
ObjectId(5c7f5b90ae6ae747acd447aa),Celie Struttman,cstruttmangk@t-online.de,4199715078,Qiuchuan,,China
ObjectId(5c7f5b90ae6ae747acd447ab),Blaire McGillicuddy,bmcgillicuddygl@oakley.com,5016028048,Troitskiy,,Russia
ObjectId(5c7f5b90ae6ae747acd447ac),Mickie Gettens,mgettensgm@surveymonkey.com,5908130201,Zhenshan,,China
ObjectId(5c7f5b90ae6ae747acd447ad),Terry De Giovanni,tdegn@topsy.com,4358761105,Huinca Renancó,,Argentina
ObjectId(5c7f5b90ae6ae747acd447ae),Stu Lackington,slackingtongo@cornell.edu,8184165629,Azogues,,Ecuador
ObjectId(5c7f5b90ae6ae747acd447af),Keene Willans,kwillansgp@cargocollective.com,3798301512,Kaznějov,,Czech Republic
ObjectId(5c7f5b90ae6ae747acd447b0),Reynold Eneas,reneasgq@simplemachines.org,6297269392,Tsementnozavodskiy,,Russia
ObjectId(5c7f5b90ae6ae747acd447b1),Normie Gummoe,ngummoegr@yellowbook.com,7827366594,Hauhena,,Indonesia
ObjectId(5c7f5b90ae6ae747acd447b2),Jeddy Bignold,jbignoldgs@issuu.com,2086187022,Cibunut,,Indonesia
ObjectId(5c7f5b90ae6ae747acd447b3),Allys Loder,alodergt@instagram.com,6504783614,Sanski Most,,Bosnia and Herzegovina
ObjectId(5c7f5b90ae6ae747acd447b4),Steve Fierman,sfiermangu@youku.com,6888859665,Finzes,Porto,Portugal
ObjectId(5c7f5b90ae6ae747acd447b5),Estele Botwood,ebotwoodgv@google.com.hk,7541021377,Uyuni,,Bolivia
ObjectId(5c7f5b90ae6ae747acd447b6),Brear Kingston,bkingstongw@furl.net,8551175116,Puerto Quellón,,Chile
ObjectId(5c7f5b90ae6ae747acd447b7),Shirlee McArd,smcardgx@psu.edu,3754197085,Ximapo,,China
ObjectId(5c7f5b90ae6ae747acd447b8),Rosalynd Selburn,rselburngy@un.org,1018457282,Al Qanāwiş,,Yemen
ObjectId(5c7f5b90ae6ae747acd447b9),Harcourt Belliveau,hbelliveaugz@biblegateway.com,7903597435,Mirocin,,Poland
ObjectId(5c7f5b90ae6ae747acd447ba),Valentin Pehrsson,vpehrssonh0@skype.com,8314245416,Melenki,,Russia
ObjectId(5c7f5b90ae6ae747acd447bb),Fabien Fysh,ffyshh1@issuu.com,3904659720,Torre,Vila Real,Portugal
ObjectId(5c7f5b90ae6ae747acd447bc),Bernie Wooff,bwooffh2@deviantart.com,7292574502,Châteauroux,Centre,France
ObjectId(5c7f5b90ae6ae747acd447bd),Rahal Brandsma,rbrandsmah3@360.cn,3084026596,Machinga,,Malawi
ObjectId(5c7f5b90ae6ae747acd447be),Kerk McCrudden,kmccruddenh5@phoca.cz,9322326753,Dimitrovgrad,,Bulgaria
ObjectId(5c7f5b90ae6ae747acd447bf),Barbi Dallicott,bdallicotth4@canalblog.com,1997037550,Makungu,,Tanzania
ObjectId(5c7f5b90ae6ae747acd447c0),Samara Greasty,sgreastyh6@friendfeed.com,8536330967,Jacaltenango,,Guatemala
ObjectId(5c7f5b90ae6ae747acd447c1),Chance Folli,cfollih7@uol.com.br,2546697371,Julun,,China
ObjectId(5c7f5b90ae6ae747acd447c2),Ring Sokill,rsokillh8@parallels.com,4365195503,Saint-Sauveur,Québec,Canada
ObjectId(5c7f5b90ae6ae747acd447c3),Sybyl Oki,sokih9@pinterest.com,3266539936,Lyubashivka,,Ukraine
ObjectId(5c7f5b90ae6ae747acd447c4),Petrina Whittek,pwhittekha@whitehouse.gov,6782124567,San Benito,,Philippines
ObjectId(5c7f5b90ae6ae747acd447c5),Norrie Bille,nbillehb@wisc.edu,4202206936,Mellieħa,,Malta
ObjectId(5c7f5b90ae6ae747acd447c6),Rowney Fury,rfuryhc@spotify.com,2127734409,Clones,,Ireland
ObjectId(5c7f5b90ae6ae747acd447c7),Godwin Bosket,gboskethd@symantec.com,2176756753,Lumsden,Saskatchewan,Canada
ObjectId(5c7f5b90ae6ae747acd447c8),Sergei MacCart,smaccarthe@dailymotion.com,6205326289,Xiangtang,,China
ObjectId(5c7f5b90ae6ae747acd447c9),Breanne Shilburne,bshilburnehf@europa.eu,9118410149,Niamey,,Niger
ObjectId(5c7f5b90ae6ae747acd447ca),Bree Salazar,bsalazarhg@about.me,4003695515,Vichuga,,Russia
ObjectId(5c7f5b90ae6ae747acd447cb),Archy Slater,aslaterhh@jigsy.com,1926925034,Cimara,,Indonesia
ObjectId(5c7f5b90ae6ae747acd447cc),Kit Pietzke,kpietzkehi@fotki.com,3289227113,Santiaoshi,,China
ObjectId(5c7f5b90ae6ae747acd447cd),Shaw Mocquer,smocquerhj@ovh.net,1081404300,Šmarje pri Jelšah,,Slovenia
ObjectId(5c7f5b90ae6ae747acd447ce),Erick Elnough,eelnoughhk@deliciousdays.com,4002356678,Pilcomay,,Peru
ObjectId(5c7f5b90ae6ae747acd447cf),Dora Dundridge,ddundridgehl@networkadvertising.org,5003435950,Kalapagenep,,Indonesia
ObjectId(5c7f5b90ae6ae747acd447d0),Anselma Older,aolderhm@cmu.edu,5663072225,Boac,,Philippines
ObjectId(5c7f5b90ae6ae747acd447d1),Janeen Mawditt,jmawditthn@mit.edu,3817601352,Yinyang,,China
ObjectId(5c7f5b90ae6ae747acd447d2),Maddy Roseborough,mroseboroughho@behance.net,7965437022,Banjarbaru,,Indonesia
ObjectId(5c7f5b90ae6ae747acd447d3),Aubree Chatainier,achatainierhp@oaic.gov.au,2187172366,Głogów Małopolski,,Poland
ObjectId(5c7f5b90ae6ae747acd447d4),Midge Ivanilov,mivanilovhq@jugem.jp,8067201234,Banjar Dauhpangkung,,Indonesia
ObjectId(5c7f5b90ae6ae747acd447d5),Mar Diwell,mdiwellhr@usa.gov,1065388204,Mongar,,Bhutan
ObjectId(5c7f5b90ae6ae747acd447d6),Fairlie Kennelly,fkennellyhs@artisteer.com,3224254178,Debrecen,Hajdú-Bihar,Hungary
ObjectId(5c7f5b90ae6ae747acd447d7),Shaylyn Mooreed,smooreedht@nsw.gov.au,5485807289,Wyszogród,,Poland
ObjectId(5c7f5b90ae6ae747acd447d8),Stacy Farrow,sfarrowhu@opera.com,3886681003,Zghartā,,Lebanon
ObjectId(5c7f5b90ae6ae747acd447d9),Vale Tripet,vtripethv@tiny.cc,4687034502,Sundsvall,Västernorrland,Sweden
ObjectId(5c7f5b90ae6ae747acd447da),Cam Hearsey,chearseyhw@vimeo.com,8817860658,Zahlé,,Lebanon
ObjectId(5c7f5b90ae6ae747acd447db),Josee Lochhead,jlochheadhx@house.gov,9013780811,Zvishavane,,Zimbabwe
ObjectId(5c7f5b90ae6ae747acd447dc),Andie Scotchbrook,ascotchbrookhy@vk.com,2125130284,Leiden,Provincie Zuid-Holland,Netherlands
ObjectId(5c7f5b90ae6ae747acd447dd),Michell Danels,mdanelshz@infoseek.co.jp,2864234664,Sigli,,Indonesia
ObjectId(5c7f5b90ae6ae747acd447de),Matti Joule,mjoulei0@independent.co.uk,8796465290,Shamboyacu,,Peru
ObjectId(5c7f5b90ae6ae747acd447df),Kendal Ruck,krucki2@unblog.fr,5216434328,Pancas,,Brazil
ObjectId(5c7f5b90ae6ae747acd447e0),Brig Pattenden,bpattendeni1@desdev.cn,8167078983,Kansas City,Kansas,United States
ObjectId(5c7f5b90ae6ae747acd447e1),Willow Samett,wsametti3@prlog.org,7284127520,Huachos,,Peru
ObjectId(5c7f5b90ae6ae747acd447e2),Garv Schirok,gschiroki4@addthis.com,9772904096,Helmas,,Albania
ObjectId(5c7f5b90ae6ae747acd447e3),Persis Leyborne,pleybornei5@latimes.com,9001154271,Wafang,,China
ObjectId(5c7f5b90ae6ae747acd447e4),Leicester Prydie,lprydiei6@buzzfeed.com,8519341708,Malapaubhara,,Indonesia
ObjectId(5c7f5b90ae6ae747acd447e5),Lucio Liddicoat,lliddicoati7@arstechnica.com,6507251433,Sơn Tịnh,,Vietnam
ObjectId(5c7f5b90ae6ae747acd447e6),Berenice Essex,bessexi9@w3.org,8174791485,Mompach,,Luxembourg
ObjectId(5c7f5b90ae6ae747acd447e7),Dave Castellino,dcastellinoi8@multiply.com,3633119899,Novi Sad,,Serbia
ObjectId(5c7f5b90ae6ae747acd447e8),Ines Brewerton,ibrewertonia@tinypic.com,6086052789,Monze,,Zambia
ObjectId(5c7f5b90ae6ae747acd447e9),Danni Jiracek,djiracekib@rakuten.co.jp,7693710786,Dinjo,,Indonesia
ObjectId(5c7f5b90ae6ae747acd447ea),Ragnar Ebenezer,rebenezeric@tinypic.com,5251801474,Ortiga,Santarém,Portugal
ObjectId(5c7f5b90ae6ae747acd447eb),Fawn Maypother,fmaypotherie@apache.org,6248713220,Lauro de Freitas,,Brazil
ObjectId(5c7f5b90ae6ae747acd447ec),Filmer Pressdee,fpressdeeid@unicef.org,4538761631,Zykovo,,Russia
ObjectId(5c7f5b90ae6ae747acd447ed),Rafaello Orgill,rorgillii@about.me,3807005135,Psary,,Poland
ObjectId(5c7f5b90ae6ae747acd447ee),Sam Halesworth,shalesworthif@blogspot.com,8194611228,Oughterard,,Ireland
ObjectId(5c7f5b90ae6ae747acd447ef),Nadean Bischoff,nbischoffig@liveinternet.ru,1624024633,Matinha,,Brazil
ObjectId(5c7f5b90ae6ae747acd447f0),Cal Ledger,cledgerih@nba.com,5412230071,Neni,,Nigeria
ObjectId(5c7f5b90ae6ae747acd447f1),Marie-ann Capel,mcapelij@goo.gl,9143406141,Frei,More og Romdal,Norway
ObjectId(5c7f5b90ae6ae747acd447f2),Karon Buxsey,kbuxseyik@unblog.fr,1503307365,Matungao,,Philippines
ObjectId(5c7f5b90ae6ae747acd447f3),Mort Callan,mcallanil@vk.com,8867741394,São Pedro,Braga,Portugal
ObjectId(5c7f5b90ae6ae747acd447f4),Lilah Silmon,lsilmonim@github.com,7566789558,Camgyai,,China
ObjectId(5c7f5b90ae6ae747acd447f5),Honoria O' Brian,hoio@macromedia.com,3715674149,Mealhada,Aveiro,Portugal
ObjectId(5c7f5b90ae6ae747acd447f6),Marchall Wellan,mwellanin@upenn.edu,5376638040,Ijero-Ekiti,,Nigeria
ObjectId(5c7f5b90ae6ae747acd447f7),Gray Dantesia,gdantesiaip@flavors.me,5585634849,Paraíso das Águas,,Brazil
ObjectId(5c7f5b90ae6ae747acd447f8),Richie Derry,rderryiq@cocolog-nifty.com,1163345371,Tatebal,,Indonesia
ObjectId(5c7f5b90ae6ae747acd447f9),Wanids Toppas,wtoppasir@facebook.com,6996529106,Le Havre,Haute-Normandie,France
ObjectId(5c7f5b90ae6ae747acd447fa),Wittie Dorgon,wdorgonis@ebay.co.uk,2893859571,Şafāshahr,,Iran
ObjectId(5c7f5b90ae6ae747acd447fb),Nickie Ridge,nridgeit@kickstarter.com,4793838322,Kristiansund N,More og Romdal,Norway
ObjectId(5c7f5b90ae6ae747acd447fc),Luce Gerrett,lgerrettiw@so-net.ne.jp,5018160346,Bukonyo,,Tanzania
ObjectId(5c7f5b90ae6ae747acd447fd),Eyde Foxwell,efoxwelliv@marriott.com,4969218912,Cúa,,Venezuela
ObjectId(5c7f5b90ae6ae747acd447fe),Marlie Blunsum,mblunsumiu@soundcloud.com,3987264667,Dunmanway,,Ireland
ObjectId(5c7f5b90ae6ae747acd447ff),Jeramey Betjes,jbetjesix@wikipedia.org,5475589191,Los Lotes,,Panama
ObjectId(5c7f5b90ae6ae747acd44800),Ardenia Cheson,achesoniy@fastcompany.com,9875365960,Andongsari,,Indonesia
ObjectId(5c7f5b90ae6ae747acd44801),Jewel Pinchbeck,jpinchbeckiz@xing.com,2118112060,Nu’erbage,,China
ObjectId(5c7f5b90ae6ae747acd44802),Fanchon Carrel,fcarrelj0@ning.com,4241387481,Fengjiang,,China
ObjectId(5c7f5b90ae6ae747acd44803),Thorin Hugueville,thuguevillej1@youtube.com,9394011596,Jiworejo,,Indonesia
ObjectId(5c7f5b90ae6ae747acd44804),Samuel Maryon,smaryonj2@ucoz.com,1248720263,Ngrayun,,Indonesia
ObjectId(5c7f5b90ae6ae747acd44805),Rivalee Bartoszek,rbartoszekj3@addtoany.com,6971268719,Chongxian,,China
ObjectId(5c7f5b90ae6ae747acd44806),Claudine Covert,ccovertj4@histats.com,7039901730,Santo Tomas,,Philippines
ObjectId(5c7f5b90ae6ae747acd44807),Jorey Kernell,jkernellj5@jalbum.net,6629903971,Anthoúsa,,Greece
ObjectId(5c7f5b90ae6ae747acd44808),Sapphire Coggings,scoggingsj6@networkadvertising.org,5815248039,Kawaliwu,,Indonesia
ObjectId(5c7f5b90ae6ae747acd44809),Joelynn Bruffell,jbruffellj7@myspace.com,2099581151,El Copey,,Colombia
ObjectId(5c7f5b90ae6ae747acd4480a),Marjory Heady,mheadyj8@csmonitor.com,1887477266,Rokytnice nad Jizerou,,Czech Republic
ObjectId(5c7f5b90ae6ae747acd4480b),Sydney Whannel,swhannelj9@dedecms.com,3828021365,Stockholm,Stockholm,Sweden
ObjectId(5c7f5b90ae6ae747acd4480c),Inessa Korous,ikorousja@i2i.jp,3427953922,Lyuban’,,Russia
ObjectId(5c7f5b90ae6ae747acd4480d),Karna Khristoforov,kkhristoforovjb@yandex.ru,4722997622,Sebedo,,Indonesia
ObjectId(5c7f5b90ae6ae747acd4480e),Mollie Blankley,mblankleyjc@seattletimes.com,1232486174,Svenljunga,Västra Götaland,Sweden
ObjectId(5c7f5b90ae6ae747acd4480f),Jessee Waddams,jwaddamsjd@oaic.gov.au,3989954616,Vohipaho,,Madagascar
ObjectId(5c7f5b90ae6ae747acd44810),Amerigo Gretton,agrettonje@hp.com,8581420663,San Francisco,California,United States
ObjectId(5c7f5b90ae6ae747acd44811),Vinita McClymond,vmcclymondjf@nba.com,4302645110,Willowmore,,South Africa
ObjectId(5c7f5b90ae6ae747acd44812),Waldon Pollitt,wpollittjg@elegantthemes.com,4066896402,Beylagan,,Azerbaijan
ObjectId(5c7f5b90ae6ae747acd44813),Alexei Cristofano,acristofanojh@amazon.co.uk,9854715010,Quitilipi,,Argentina
ObjectId(5c7f5b90ae6ae747acd44814),Aliza Catlow,acatlowji@vk.com,5989603478,‘Alī al Gharbī,,Iraq
ObjectId(5c7f5b90ae6ae747acd44815),Farrand Pochon,fpochonjj@quantcast.com,5026086325,Louisville,Kentucky,United States
ObjectId(5c7f5b90ae6ae747acd44816),Agnes Rosendall,arosendalljk@google.it,2243072591,Vila Chã,Viseu,Portugal
ObjectId(5c7f5b90ae6ae747acd44817),Crystal Sarson,csarsonjl@domainmarket.com,6113418811,Mabiton,,Philippines
ObjectId(5c7f5b90ae6ae747acd44818),Cathryn Kearn,ckearnjm@sbwire.com,2748164452,Socorro,,Philippines
ObjectId(5c7f5b90ae6ae747acd44819),Elmer Sipson,esipsonjn@vk.com,4978356823,Shangdundu,,China
ObjectId(5c7f5b90ae6ae747acd4481a),Wright Josefsson,wjosefssonjo@techcrunch.com,7388277840,Malaga,Andalucia,Spain
ObjectId(5c7f5b90ae6ae747acd4481b),Eveleen Whipp,ewhippjp@slashdot.org,5939919149,Monte Alegre,,Brazil
ObjectId(5c7f5b90ae6ae747acd4481c),Guy Fairchild,gfairchildjq@is.gd,6762019403,Aranyaprathet,,Thailand
ObjectId(5c7f5b90ae6ae747acd4481d),Bell Liddell,bliddelljr@vkontakte.ru,6047957464,Leganes,Madrid,Spain
ObjectId(5c7f5b90ae6ae747acd4481e),Adriano Alabone,aalabonejs@mediafire.com,7445407845,Yanshan,,China
ObjectId(5c7f5b90ae6ae747acd4481f),Teressa Faveryear,tfaveryearjt@cafepress.com,8176712445,Fort Worth,Texas,United States
ObjectId(5c7f5b90ae6ae747acd44820),Aylmer Lambdean,alambdeanjv@bloomberg.com,5107854344,Sam Phran,,Thailand
ObjectId(5c7f5b90ae6ae747acd44821),Ulberto Wakely,uwakelyju@symantec.com,4772729662,Stepojevac,,Serbia
ObjectId(5c7f5b90ae6ae747acd44822),Hallie Doidge,hdoidgejw@webmd.com,6715427048,Tarumizu,,Japan
ObjectId(5c7f5b90ae6ae747acd44823),Whit Rebbeck,wrebbeckjx@uiuc.edu,5185203060,Schenectady,New York,United States
ObjectId(5c7f5b90ae6ae747acd44824),Louisa Rushforth,lrushforthjy@sphinn.com,5167407673,Jinlong,,China
ObjectId(5c7f5b90ae6ae747acd44825),Harmonia Rolley,hrolleyk0@fotki.com,9081398754,Novyye Kuz’minki,,Russia
ObjectId(5c7f5b90ae6ae747acd44826),Gerianna Pregal,gpregaljz@mtv.com,6031752227,Tayuan,,China
ObjectId(5c7f5b90ae6ae747acd44827),Cal Bonifacio,cbonifaciok1@google.cn,3173665394,Formosa do Rio Preto,,Brazil
ObjectId(5c7f5b90ae6ae747acd44828),Malanie Oleszczak,moleszczakk2@dell.com,8502197930,Linstead,,Jamaica
ObjectId(5c7f5b90ae6ae747acd44829),Kiah MacGrath,kmacgrathk3@sbwire.com,1119064787,Cascavel,,Brazil
ObjectId(5c7f5b90ae6ae747acd4482a),Sydney Lampbrecht,slampbrechtk5@kickstarter.com,5715810585,Chernivtsi,,Ukraine
ObjectId(5c7f5b90ae6ae747acd4482b),Tillie Anshell,tanshellk4@ocn.ne.jp,1326156727,Burgeo,Newfoundland and Labrador,Canada
ObjectId(5c7f5b90ae6ae747acd4482c),Anthia Govier,agovierk6@weather.com,3561720340,Guayabal,,Venezuela
ObjectId(5c7f5b90ae6ae747acd4482d),Onida Fincham,ofinchamk7@ftc.gov,1986175340,Jojoima,,Sierra Leone
ObjectId(5c7f5b90ae6ae747acd4482e),Evangeline Renshell,erenshellk8@joomla.org,1287001147,Łęczyce,,Poland
ObjectId(5c7f5b90ae6ae747acd4482f),Haroun Kentwell,hkentwellk9@studiopress.com,9111774915,Đắk Mâm,,Vietnam
ObjectId(5c7f5b90ae6ae747acd44830),Barbabas Bennen,bbennenka@arstechnica.com,4043965377,Atlanta,Georgia,United States
ObjectId(5c7f5b90ae6ae747acd44831),Nero Lympenie,nlympeniekb@sciencedirect.com,4735239485,Repki,,Poland
ObjectId(5c7f5b90ae6ae747acd44832),Ida Redwing,iredwingkc@homestead.com,7149385607,Sandur,,Faroe Islands
ObjectId(5c7f5b90ae6ae747acd44833),Kim Witten,kwittenkd@blogs.com,4606135751,Cañazas,,Panama
ObjectId(5c7f5b90ae6ae747acd44834),Theresa Parminter,tparminterke@cornell.edu,2906238288,Gorzyce,,Poland
ObjectId(5c7f5b90ae6ae747acd44835),Nissa Blague,nblaguekf@hhs.gov,3903521696,Shangcunba,,China
ObjectId(5c7f5b90ae6ae747acd44836),Batholomew De Bruijn,bdekg@bluehost.com,7904970457,Tangal,,Philippines
ObjectId(5c7f5b90ae6ae747acd44837),Shay Ottewell,sottewellkh@imageshack.us,3866969779,Jauja,,Peru
ObjectId(5c7f5b90ae6ae747acd44838),Tallulah Di Gregorio,tdikj@over-blog.com,5989279684,Kitamilo,,Uganda
ObjectId(5c7f5b90ae6ae747acd44839),Lanni Newband,lnewbandkl@nature.com,3512120916,Lancheng,,China
ObjectId(5c7f5b90ae6ae747acd4483a),Giana Marrill,gmarrillki@tinypic.com,9747188550,Doumen,,China
ObjectId(5c7f5b90ae6ae747acd4483b),Chrissy Watkin,cwatkinkk@ameblo.jp,9254314369,Xambabazar,,China
ObjectId(5c7f5b90ae6ae747acd4483c),Chandler Castiglio,ccastigliokm@prweb.com,6594538966,Labuhan Deli,,Indonesia
ObjectId(5c7f5b90ae6ae747acd4483d),Chandler Constable,cconstablekn@bloomberg.com,5877362889,Da’an,,China
ObjectId(5c7f5b90ae6ae747acd4483e),Diena Falls,dfallsko@51.la,5626308418,San Francisco,California,United States
ObjectId(5c7f5b90ae6ae747acd4483f),Luther Jossum,ljossumkr@histats.com,6021325124,Kacha,,Ukraine
ObjectId(5c7f5b90ae6ae747acd44840),Cordy Wattins,cwattinskp@paypal.com,6581837726,Miaojie,,China
ObjectId(5c7f5b90ae6ae747acd44841),Faustine Book,fbookkq@ucla.edu,7341578626,Burgaltay,,Mongolia
ObjectId(5c7f5b90ae6ae747acd44842),Viv Habin,vhabinks@sbwire.com,7014988211,Deranitan,,Indonesia
ObjectId(5c7f5b90ae6ae747acd44843),Charmaine Gowry,cgowrykt@jimdo.com,6504165909,Pasirnangka,,Indonesia
ObjectId(5c7f5b90ae6ae747acd44844),Marthe Oakinfold,moakinfoldku@de.vu,1107216161,Tchaourou,,Benin
ObjectId(5c7f5b90ae6ae747acd44845),Olav Thelwll,othelwllkv@webmd.com,9821397757,Qishn,,Yemen
ObjectId(5c7f5b90ae6ae747acd44846),Odelle Haste,ohastekw@whitehouse.gov,4764373182,Teodoro Sampaio,,Brazil
ObjectId(5c7f5b90ae6ae747acd44847),Kariotta Cicchitello,kcicchitelloky@hibu.com,5324910366,Thị Trấn Mộc Châu,,Vietnam
ObjectId(5c7f5b90ae6ae747acd44848),Dewie Blazdell,dblazdellkz@feedburner.com,1753277825,Rivne,,Ukraine
ObjectId(5c7f5b90ae6ae747acd44849),Duky Gilligan,dgilliganl1@examiner.com,3357630803,Nungga,,Indonesia
ObjectId(5c7f5b90ae6ae747acd4484a),Carling Djokovic,cdjokovicl2@uiuc.edu,5493756429,Andahuaylillas,,Peru
ObjectId(5c7f5b90ae6ae747acd4484b),Fredric Wigginton,fwiggintonkx@npr.org,3108236901,Garden Grove,California,United States
ObjectId(5c7f5b90ae6ae747acd4484c),Yovonnda Pyke,ypykel0@google.com,1693897523,Tawau,Sabah,Malaysia
ObjectId(5c7f5b90ae6ae747acd4484d),Lanae Cowser,lcowserl3@networksolutions.com,2038647537,Qiuchuan,,China
ObjectId(5c7f5b90ae6ae747acd4484e),Melisse Bigley,mbigleyl4@pinterest.com,4826017627,Xiaozhen,,China
ObjectId(5c7f5b90ae6ae747acd4484f),Chad Betke,cbetkel5@godaddy.com,5932118816,Tcholliré,,Cameroon
ObjectId(5c7f5b90ae6ae747acd44850),Corissa Jeschner,cjeschnerl6@list-manage.com,7732786445,Chicago,Illinois,United States
ObjectId(5c7f5b90ae6ae747acd44851),Devina Darnbrook,ddarnbrookl7@wp.com,1586119015,Huancheng,,China
ObjectId(5c7f5b90ae6ae747acd44852),Nike Burchett,nburchettl8@discovery.com,5857855212,Pau,Aquitaine,France
ObjectId(5c7f5b90ae6ae747acd44853),Adan Bonner,abonnerl9@g.co,4558825072,Yuanzhou,,China
ObjectId(5c7f5b90ae6ae747acd44854),Katya Slaughter,kslaughterla@domainmarket.com,4841827176,Abbottābād,,Pakistan
ObjectId(5c7f5b90ae6ae747acd44855),Lorena Gislebert,lgislebertlb@cbsnews.com,9895236119,Rivadavia,,Argentina
ObjectId(5c7f5b90ae6ae747acd44856),Joyce Christiensen,jchristiensenlc@vk.com,3508254967,Tchoban Bey,,Syria
ObjectId(5c7f5b90ae6ae747acd44857),Micky Dunston,mdunstonld@senate.gov,7991697226,Teluksantong,,Indonesia
ObjectId(5c7f5b90ae6ae747acd44858),Florette Dore,fdorelf@people.com.cn,7249554960,Zhuxi,,China
ObjectId(5c7f5b90ae6ae747acd44859),Hazlett Coxwell,hcoxwellli@army.mil,1861374115,Semampir,,Indonesia
ObjectId(5c7f5b90ae6ae747acd4485a),Ailyn Fontin,afontinlh@ovh.net,9633975091,Tangga,,Indonesia
ObjectId(5c7f5b90ae6ae747acd4485b),Aileen Bemlott,abemlottlg@goo.ne.jp,2576200069,Catriel,,Argentina
ObjectId(5c7f5b90ae6ae747acd4485c),Anallese Elliman,aellimanlk@webmd.com,8159167201,Taytayan,,Philippines
ObjectId(5c7f5b90ae6ae747acd4485d),Cullen Glasgow,cglasgowle@google.ca,4478111631,Primorka,,Russia
ObjectId(5c7f5b90ae6ae747acd4485e),Starla Course,scourselj@bbc.co.uk,5092403021,Jinhu,,China
ObjectId(5c7f5b90ae6ae747acd4485f),Luce Losano,llosanoll@edublogs.org,2652610198,Kandy,,Sri Lanka
ObjectId(5c7f5b90ae6ae747acd44860),Belicia Gier,bgierlm@amazon.com,7412372515,Kafachan,,Nigeria
ObjectId(5c7f5b90ae6ae747acd44861),Had Thews,hthewsln@about.com,8481878597,Jingxi,,China
ObjectId(5c7f5b90ae6ae747acd44862),Gaby Shepherd,gshepherdlo@howstuffworks.com,8623216545,Sult,,Albania
ObjectId(5c7f5b90ae6ae747acd44863),Karlee Loraine,klorainelp@blogspot.com,1738701486,Adtugan,,Philippines
ObjectId(5c7f5b90ae6ae747acd44864),Danella Quickenden,dquickendenlq@pbs.org,6335618493,Liangshan,,China
ObjectId(5c7f5b90ae6ae747acd44865),Gradey Edwin,gedwinlr@g.co,8152112142,San Francisco,,Colombia
ObjectId(5c7f5b90ae6ae747acd44866),Hillie Jerdein,hjerdeinls@ihg.com,5448305258,Miras,,Albania
ObjectId(5c7f5b90ae6ae747acd44867),Ladonna Maysor,lmaysorlt@creativecommons.org,9176158328,New Washington,,Philippines
ObjectId(5c7f5b90ae6ae747acd44868),Pat Blything,pblythinglu@google.ca,5515802489,Bojonggaling,,Indonesia
ObjectId(5c7f5b90ae6ae747acd44869),Noelle Ornillos,nornilloslv@fema.gov,6349789925,Sawahbaru,,Indonesia
ObjectId(5c7f5b90ae6ae747acd4486a),Zonnya Vasilmanov,zvasilmanovlw@cbc.ca,3294452367,San Jose,,Philippines
ObjectId(5c7f5b90ae6ae747acd4486b),Joline Stroder,jstroderlx@is.gd,9556473069,Kebon,,Indonesia
ObjectId(5c7f5b90ae6ae747acd4486c),Pedro York,pyorkly@miibeian.gov.cn,9289474746,Sudzha,,Russia
ObjectId(5c7f5b90ae6ae747acd4486d),Dino Paice,dpaicem0@naver.com,6262933059,Pärnu-Jaagupi,,Estonia
ObjectId(5c7f5b90ae6ae747acd4486e),Craig Guinness,cguinnesslz@businessinsider.com,7876355012,Shangyanzhuang,,China
ObjectId(5c7f5b90ae6ae747acd4486f),Farrell Simko,fsimkom2@alibaba.com,4501497205,Machinga,,Malawi
ObjectId(5c7f5b90ae6ae747acd44870),Barbee Burdfield,bburdfieldm1@deviantart.com,8787148557,Peremyshl’,,Russia
ObjectId(5c7f5b90ae6ae747acd44871),Mireielle Wrightson,mwrightsonm3@usa.gov,6508626146,Shentang,,China
ObjectId(5c7f5b90ae6ae747acd44872),Ula Urridge,uurridgem4@geocities.com,6498036113,Rosário do Sul,,Brazil
ObjectId(5c7f5b90ae6ae747acd44873),Nanice Gorries,ngorriesm5@tinypic.com,4718210952,Xiangjiazhai,,China
ObjectId(5c7f5b90ae6ae747acd44874),Melania Housin,mhousinm7@cmu.edu,5829907019,Uluale,,Indonesia
ObjectId(5c7f5b90ae6ae747acd44875),Bibbie Lucien,blucienm6@toplist.cz,7687697862,Benito Juarez,Veracruz Llave,Mexico
ObjectId(5c7f5b90ae6ae747acd44876),Andromache Gerardet,agerardetm8@ted.com,8508144947,Jūrmala,,Latvia
ObjectId(5c7f5b90ae6ae747acd44877),Pavia Cashin,pcashinma@marketwatch.com,2369279292,As Suwaydā’,,Syria
ObjectId(5c7f5b90ae6ae747acd44878),Theressa Labern,tlabernm9@i2i.jp,7933863440,Lampa,,Indonesia
ObjectId(5c7f5b90ae6ae747acd44879),Horatia Peevor,hpeevormb@google.com.au,6049393546,Moravský Beroun,,Czech Republic
ObjectId(5c7f5b90ae6ae747acd4487a),Blondy Bullers,bbullersmc@google.fr,1287341724,Lavras,,Brazil
ObjectId(5c7f5b90ae6ae747acd4487b),Binny Laws,blawsmd@cocolog-nifty.com,6612799508,Yerazgavors,,Armenia
ObjectId(5c7f5b90ae6ae747acd4487c),Buckie Redholls,bredhollsme@mozilla.com,7567041255,Pozuzo,,Peru
ObjectId(5c7f5b90ae6ae747acd4487d),Jacinthe Fresson,jfressonmf@histats.com,2202875446,San Salvador de Jujuy,,Argentina
ObjectId(5c7f5b90ae6ae747acd4487e),Mathias Bunning,mbunningmg@weibo.com,8378945246,Krajanjugosari,,Indonesia
ObjectId(5c7f5b90ae6ae747acd4487f),Morten Nancarrow,mnancarrowmh@reverbnation.com,3367731223,Greensboro,North Carolina,United States
ObjectId(5c7f5b90ae6ae747acd44880),Kerrin Jirieck,kjirieckmi@shop-pro.jp,6479481364,Sinilian First,,Philippines
ObjectId(5c7f5b90ae6ae747acd44881),Glori Davidof,gdavidofmj@addtoany.com,6539665282,Taokeng,,China
ObjectId(5c7f5b90ae6ae747acd44882),Ramona Schubbert,rschubbertmk@ftc.gov,6276125649,Dengfeng,,China
ObjectId(5c7f5b90ae6ae747acd44883),Corinna Tampling,ctamplingml@163.com,6496766165,Huai’an,,China
ObjectId(5c7f5b90ae6ae747acd44884),Michail Maffini,mmaffinimm@nifty.com,3727620951,Güira de Melena,,Cuba
ObjectId(5c7f5b90ae6ae747acd44885),Alick Doggart,adoggartmn@europa.eu,9608569017,Portela,Viseu,Portugal
ObjectId(5c7f5b90ae6ae747acd44886),Jeno Currum,jcurrummp@blogtalkradio.com,4164925725,Ryōtsu-minato,,Japan
ObjectId(5c7f5b90ae6ae747acd44887),Boniface Cleugher,bcleughermo@booking.com,4668272501,Vitry-le-François,Champagne-Ardenne,France
ObjectId(5c7f5b90ae6ae747acd44888),Collin Walkinshaw,cwalkinshawmq@unblog.fr,1225354129,Halden,Ostfold,Norway
ObjectId(5c7f5b90ae6ae747acd44889),Daryl Martland,dmartlandms@amazon.co.jp,9416123761,Rybatskoye,,Russia
ObjectId(5c7f5b90ae6ae747acd4488a),Nicholle Ianiello,nianiellomr@ted.com,7112739671,Sindangkopo,,Indonesia
ObjectId(5c7f5b90ae6ae747acd4488b),Gerty O'Sherrin,gosherrinmt@kickstarter.com,6024164703,Oullins,Rhône-Alpes,France
ObjectId(5c7f5b90ae6ae747acd4488c),Willie Pettifer,wpettifermv@nih.gov,1642583089,Ell,,Luxembourg
ObjectId(5c7f5b90ae6ae747acd4488d),Antoni Halfhead,ahalfheadmw@huffingtonpost.com,1026900531,Mostek,,Czech Republic
ObjectId(5c7f5b90ae6ae747acd4488e),Elladine Lascelles,elascellesmu@columbia.edu,6664929413,Huzhuang,,China
ObjectId(5c7f5b90ae6ae747acd4488f),Hamish Hazeldine,hhazeldinemx@reverbnation.com,3103033986,Tabou,,Ivory Coast
ObjectId(5c7f5b90ae6ae747acd44890),Lillis Ennion,lennionmy@cnbc.com,6831135260,Göteborg,Västra Götaland,Sweden
ObjectId(5c7f5b90ae6ae747acd44891),Haskel Shepheard,hshepheardmz@narod.ru,9917527489,San Andres,,Philippines
ObjectId(5c7f5b90ae6ae747acd44892),Colver Sedgebeer,csedgebeern0@biglobe.ne.jp,6923176553,Gryfino,,Poland
ObjectId(5c7f5b90ae6ae747acd44893),Thadeus Fronczak,tfronczakn2@rakuten.co.jp,8596455014,Cibulakan,,Indonesia
ObjectId(5c7f5b90ae6ae747acd44894),Audry Lark,alarkn1@webmd.com,8965214918,Eskilstuna,Södermanland,Sweden
ObjectId(5c7f5b90ae6ae747acd44895),Monique Dorin,mdorinn3@ocn.ne.jp,6665941654,Easington,,Jamaica
ObjectId(5c7f5b90ae6ae747acd44896),Bronnie Dagnall,bdagnalln5@technorati.com,2801329065,Staryy Saltiv,,Ukraine
ObjectId(5c7f5b90ae6ae747acd44897),Codi Colaton,ccolatonn4@bloomberg.com,6304232765,Shijiao,,China
ObjectId(5c7f5b90ae6ae747acd44898),Monroe Dirr,mdirrn6@ameblo.jp,2099205020,Annecy,Rhône-Alpes,France
ObjectId(5c7f5b90ae6ae747acd44899),Lamont Bummfrey,lbummfreyn7@barnesandnoble.com,1328415146,Ambositra,,Madagascar
ObjectId(5c7f5b90ae6ae747acd4489a),Iggy Starcks,istarcksn8@fastcompany.com,1478817085,Nampula,,Mozambique
ObjectId(5c7f5b90ae6ae747acd4489b),Eyde Marchetti,emarchettin9@ox.ac.uk,6273686446,Don Matías,,Colombia
ObjectId(5c7f5b90ae6ae747acd4489c),Reece Wormstone,rwormstonenb@sina.com.cn,3887628839,Chengzhong,,China
ObjectId(5c7f5b90ae6ae747acd4489d),Boone Sigmund,bsigmundna@bandcamp.com,1616356080,São Miguel do Rio Torto,Santarém,Portugal
ObjectId(5c7f5b90ae6ae747acd4489e),Cheri Balshaw,cbalshawnc@fc2.com,4495964938,Morangis,Île-de-France,France
ObjectId(5c7f5b90ae6ae747acd4489f),Derrek MacGill,dmacgillnd@princeton.edu,4542358505,Baiyun,,China
ObjectId(5c7f5b90ae6ae747acd448a0),Patrizio Pierse,ppiersene@nsw.gov.au,2537325787,Laoliangcang,,China
ObjectId(5c7f5b90ae6ae747acd448a1),Malory Sommerlie,msommerlieng@i2i.jp,7292958347,Los Charrúas,,Argentina
ObjectId(5c7f5b90ae6ae747acd448a2),Beilul Celler,bcellernf@hc360.com,1045662759,Mboursou Léré,,Chad
ObjectId(5c7f5b90ae6ae747acd448a3),Keelby Purdon,kpurdonnh@netscape.com,6243142681,Oświęcim,,Poland
ObjectId(5c7f5b90ae6ae747acd448a4),Barton Phebey,bphebeyni@time.com,7114994609,Tha Luang,,Thailand
ObjectId(5c7f5b90ae6ae747acd448a5),Madelle Heaffey,mheaffeynj@eventbrite.com,6014887560,Idrinskoye,,Russia
ObjectId(5c7f5b90ae6ae747acd448a6),Margarette Dadson,mdadsonnl@cpanel.net,7502595569,Nombre de Jesús,,Honduras
ObjectId(5c7f5b90ae6ae747acd448a7),Nata Snowdon,nsnowdonnk@prweb.com,4851478262,Coruripe,,Brazil
ObjectId(5c7f5b90ae6ae747acd448a8),Euell Anlay,eanlaynm@arizona.edu,8068162394,Cervantes,,Philippines
ObjectId(5c7f5b90ae6ae747acd448a9),Bertram Biford,bbifordnn@tiny.cc,1971041831,Wuppertal,Nordrhein-Westfalen,Germany
ObjectId(5c7f5b90ae6ae747acd448aa),Filbert Bartali,fbartalino@discovery.com,3708769811,Las Piñas,,Philippines
ObjectId(5c7f5b90ae6ae747acd448ab),Yankee Klemz,yklemznp@elpais.com,1851858852,Itzig,,Luxembourg
ObjectId(5c7f5b90ae6ae747acd448ac),Zebedee Aldcorn,zaldcornnq@dion.ne.jp,5966736648,Joyabaj,,Guatemala
ObjectId(5c7f5b90ae6ae747acd448ad),Glyn Snookes,gsnookesns@trellian.com,8568897601,Karakul’,,Uzbekistan
ObjectId(5c7f5b90ae6ae747acd448ae),Auberta Durbin,adurbinnt@paginegialle.it,6896159818,Smålandsstenar,Jönköping,Sweden
ObjectId(5c7f5b90ae6ae747acd448af),Hedvig Wooffitt,hwooffittnu@dmoz.org,1804419395,Riachão do Jacuípe,,Brazil
ObjectId(5c7f5b90ae6ae747acd448b0),Sheila Hritzko,shritzkonr@digg.com,3665215002,Kórnik,,Poland
ObjectId(5c7f5b90ae6ae747acd448b1),Benjamin Le Grys,blenw@sogou.com,7682071803,Aleksotas,,Lithuania
ObjectId(5c7f5b90ae6ae747acd448b2),Starla MacTeggart,smacteggartnv@taobao.com,2256519397,Okhotsk,,Russia
ObjectId(5c7f5b90ae6ae747acd448b3),Alphard Sawers,asawersny@rediff.com,8869707841,Canavieiras,,Brazil
ObjectId(5c7f5b90ae6ae747acd448b4),Ervin Oguz,eoguznx@yahoo.co.jp,9507820184,Awjilah,,Libya
ObjectId(5c7f5b90ae6ae747acd448b5),Farrah Duerden,fduerdennz@theguardian.com,1663729895,Mirovka,,Ukraine
ObjectId(5c7f5b90ae6ae747acd448b6),Davina Cammidge,dcammidgeo0@buzzfeed.com,6105621921,San Juan Nepomuceno,,Colombia
ObjectId(5c7f5b90ae6ae747acd448b7),Stormi Petyanin,spetyanino1@opera.com,1148247347,Seraya,,Indonesia
ObjectId(5c7f5b90ae6ae747acd448b8),Kermit Entwistle,kentwistleo2@blogs.com,4029266401,Lincoln,Nebraska,United States
ObjectId(5c7f5b90ae6ae747acd448b9),Yule Cyster,ycystero3@163.com,7709750595,Shimabara,,Japan
ObjectId(5c7f5b90ae6ae747acd448ba),Jerry Stuckford,jstuckfordo4@aol.com,2344914666,Cumedak,,Indonesia
ObjectId(5c7f5b90ae6ae747acd448bb),Floria Hriinchenko,fhriinchenkoo5@census.gov,4439493792,Vareiá,,Greece
ObjectId(5c7f5b90ae6ae747acd448bc),Chen Greed,cgreedo6@businessweek.com,2164732108,Shiquanhe,,China
ObjectId(5c7f5b90ae6ae747acd448bd),Kevyn Antonomolii,kantonomoliio8@hao123.com,8234549243,Sarrat,,Philippines
ObjectId(5c7f5b90ae6ae747acd448be),Dahlia Janeway,djanewayo7@nydailynews.com,9259485690,Belfast,Northern Ireland,United Kingdom
ObjectId(5c7f5b90ae6ae747acd448bf),Gerardo Shelbourne,gshelbourneo9@gizmodo.com,8323046205,Penápolis,,Brazil
ObjectId(5c7f5b90ae6ae747acd448c0),Olly Hasley,ohasleyoa@naver.com,1703405269,Pokrov,,Russia
ObjectId(5c7f5b90ae6ae747acd448c1),Gilberto Windows,gwindowsob@dell.com,8973348064,Kumbo,,Cameroon
ObjectId(5c7f5b90ae6ae747acd448c2),Dunstan Spilling,dspillingoc@example.com,7004445533,Thị Trấn Cao Phong,,Vietnam
ObjectId(5c7f5b90ae6ae747acd448c3),Padriac Gilli,pgilliod@tuttocitta.it,5307812257,Villa Yapacaní,,Bolivia
ObjectId(5c7f5b90ae6ae747acd448c4),Heidie Schukraft,hschukraftoe@youtu.be,2518455859,Anuling,,Philippines
ObjectId(5c7f5b90ae6ae747acd448c5),Maud Nattrass,mnattrassof@usa.gov,7741722323,Shilong,,China
ObjectId(5c7f5b90ae6ae747acd448c6),Winston Francklin,wfrancklinog@microsoft.com,5047448294,New Orleans,Louisiana,United States
ObjectId(5c7f5b90ae6ae747acd448c7),Mirabella Wayper,mwayperoi@princeton.edu,3217197205,Banjar Kertasari,,Indonesia
ObjectId(5c7f5b90ae6ae747acd448c8),Romy Malyan,rmalyanoh@gmpg.org,4037989358,Talok,,Indonesia
ObjectId(5c7f5b90ae6ae747acd448c9),Adeline Brundill,abrundilloj@joomla.org,8463674770,Aqqan,,China
ObjectId(5c7f5b90ae6ae747acd448ca),Gardiner Antonescu,gantonescuok@tuttocitta.it,3948224808,Belmopan,,Belize
ObjectId(5c7f5b90ae6ae747acd448cb),Germain Karadzas,gkaradzasom@dot.gov,1467997236,Toila,,Estonia
ObjectId(5c7f5b90ae6ae747acd448cc),Hadria Lourens,hlourensol@etsy.com,7586082500,Yunlong,,China
ObjectId(5c7f5b90ae6ae747acd448cd),Lowell Jemmison,ljemmisonon@4shared.com,2463913713,Longos,Braga,Portugal
ObjectId(5c7f5b90ae6ae747acd448ce),Cyndia Buzzing,cbuzzingoo@ameblo.jp,8233286911,Hongqi,,China
ObjectId(5c7f5b90ae6ae747acd448cf),Darill Da Costa,ddaop@multiply.com,7665645022,Shiroishi,,Japan
ObjectId(5c7f5b90ae6ae747acd448d0),Fidelity Naisbet,fnaisbetoq@indiegogo.com,8419853875,La Trinidad,,Philippines
ObjectId(5c7f5b90ae6ae747acd448d1),Jill Sprowell,jsprowellos@redcross.org,5015050082,Yabrūd,,Syria
ObjectId(5c7f5b90ae6ae747acd448d2),Danya Maffioni,dmaffionior@vinaora.com,6511482085,Francisco I Madero,Veracruz Llave,Mexico
ObjectId(5c7f5b90ae6ae747acd448d3),Jade Tupper,jtupperot@friendfeed.com,5769852321,Mujiangping,,China
ObjectId(5c7f5b90ae6ae747acd448d4),Merle Titterington,mtitteringtonou@alibaba.com,3727845713,São Félix do Xingu,,Brazil
ObjectId(5c7f5b90ae6ae747acd448d5),Bertie Shilleto,bshilletoov@imdb.com,8574773258,Mojomulyokrajan,,Indonesia
ObjectId(5c7f5b90ae6ae747acd448d6),Idell Fallon,ifallonow@mozilla.org,8486017506,Del Rosario,,Philippines
ObjectId(5c7f5b90ae6ae747acd448d7),Avivah Ranscombe,aranscombeox@noaa.gov,7828842076,Melong,,Cameroon
ObjectId(5c7f5b90ae6ae747acd448d8),Nanny Bancroft,nbancroftoy@tinyurl.com,1244252866,Taypano,,Philippines
ObjectId(5c7f5b90ae6ae747acd448d9),Maximilian Tonner,mtonneroz@ask.com,8304441139,Tsetsegnuur,,Mongolia
ObjectId(5c7f5b90ae6ae747acd448da),Karalee Larderot,klarderotp1@webmd.com,7177966101,Junbu,,China
ObjectId(5c7f5b90ae6ae747acd448db),Olimpia McIlwreath,omcilwreathp0@mediafire.com,4211338021,Al Mawşil al Jadīdah,,Iraq
ObjectId(5c7f5b90ae6ae747acd448dc),Guillaume Elverston,gelverstonp2@nps.gov,9629128582,Tokyo,,Japan
ObjectId(5c7f5b90ae6ae747acd448dd),Kristina Bizley,kbizleyp3@digg.com,4708732578,Sterlibashevo,,Russia
ObjectId(5c7f5b90ae6ae747acd448de),Karia Kochl,kkochlp4@phoca.cz,9775659590,Pagsañgahan,,Philippines
ObjectId(5c7f5b90ae6ae747acd448df),Bentlee Undy,bundyp5@slate.com,1436978054,Putrajaya,Putrajaya,Malaysia
ObjectId(5c7f5b90ae6ae747acd448e0),Jacquelyn Candy,jcandyp6@liveinternet.ru,6234754207,Panambi,,Brazil
ObjectId(5c7f5b90ae6ae747acd448e1),Brent Kibble,bkibblep7@1688.com,2455825376,Ciemas,,Indonesia
ObjectId(5c7f5b90ae6ae747acd448e2),Hinda Proffer,hprofferp8@about.com,6987204054,Majin,,China
ObjectId(5c7f5b90ae6ae747acd448e3),Shawna Jacquet,sjacquetp9@behance.net,4299044715,Betio Village,,Kiribati
ObjectId(5c7f5b90ae6ae747acd448e4),Bradford Philippart,bphilippartpa@soundcloud.com,6563574407,Versailles,Île-de-France,France
ObjectId(5c7f5b90ae6ae747acd448e5),Theresa Cazereau,tcazereaupb@engadget.com,4188242158,Tobias Barreto,,Brazil
ObjectId(5c7f5b90ae6ae747acd448e6),Calli Osborne,cosbornepc@epa.gov,1258932699,Aktau,,Kazakhstan
ObjectId(5c7f5b90ae6ae747acd448e7),Aeriell Stendall,astendallpd@census.gov,1451802927,Cañasgordas,,Colombia
ObjectId(5c7f5b90ae6ae747acd448e8),Josefa Anetts,janettsph@youku.com,1573014433,Itapaci,,Brazil
ObjectId(5c7f5b90ae6ae747acd448e9),Farica Gaule,fgaulepe@newyorker.com,2364137015,Żebbuġ,,Malta
ObjectId(5c7f5b90ae6ae747acd448ea),Mahmud Pounds,mpoundspf@pcworld.com,9152084415,Yarīm,,Yemen
ObjectId(5c7f5b90ae6ae747acd448eb),Kasper Frapwell,kfrapwellpg@ftc.gov,4481401484,Praszka,,Poland
ObjectId(5c7f5b90ae6ae747acd448ec),Janette Evers,jeverspi@simplemachines.org,5034834882,Ampera,,Indonesia
ObjectId(5c7f5b90ae6ae747acd448ed),Rosemarie MacAlister,rmacalisterpj@globo.com,5967896780,Lyeskawka,,Belarus
ObjectId(5c7f5b90ae6ae747acd448ee),Hanny Tuminelli,htuminellipk@usgs.gov,1506796369,Rakek,,Slovenia
ObjectId(5c7f5b90ae6ae747acd448ef),Ariela Scholz,ascholzpn@yelp.com,4735904618,Canha,Setúbal,Portugal
ObjectId(5c7f5b90ae6ae747acd448f0),Elden Caron,ecaronpl@joomla.org,9817141172,Cibeureum,,Indonesia
ObjectId(5c7f5b90ae6ae747acd448f1),Loralie Pavinese,lpavinesepm@msu.edu,7434984507,Veranópolis,,Brazil
ObjectId(5c7f5b90ae6ae747acd448f2),Blondell Hucker,bhuckerpo@virginia.edu,3208904954,Santarém,,Brazil
ObjectId(5c7f5b90ae6ae747acd448f3),Blake Flintoft,bflintoftpp@ftc.gov,2473270266,Matingain,,Philippines
ObjectId(5c7f5b90ae6ae747acd448f4),Saidee Peery,speerypq@yelp.com,9978482800,Hamakita,,Japan
ObjectId(5c7f5b90ae6ae747acd448f5),Alanna Wrenn,awrennpr@boston.com,5924768511,Albi,Midi-Pyrénées,France
ObjectId(5c7f5b90ae6ae747acd448f6),Courtney Heckner,checknerps@phoca.cz,5334283294,Riyom,,Nigeria
ObjectId(5c7f5b90ae6ae747acd448f7),Isiahi Pursehouse,ipursehousept@blogs.com,2838818454,Gujiang,,China
ObjectId(5c7f5b90ae6ae747acd448f8),Brien Cluse,bclusepu@themeforest.net,8212028971,Santana,Setúbal,Portugal
ObjectId(5c7f5b90ae6ae747acd448f9),Zonda Greenrod,zgreenrodpv@bing.com,6986204719,Quận Tân Phú,,Vietnam
ObjectId(5c7f5b90ae6ae747acd448fa),Agace Belcham,abelchampw@pbs.org,9148898288,Las Palmas,Tamaulipas,Mexico
ObjectId(5c7f5b90ae6ae747acd448fb),Christie Ickovici,cickovicipx@bloglovin.com,6114667909,Curiapo,,Venezuela
ObjectId(5c7f5b90ae6ae747acd448fc),Pippa Oakton,poaktonpy@creativecommons.org,9008893401,Banjar Dauhpangkung,,Indonesia
ObjectId(5c7f5b90ae6ae747acd448fd),Nan Fincham,nfinchampz@bbc.co.uk,9247881899,Smolenskoye,,Russia
ObjectId(5c7f5b90ae6ae747acd448fe),Hewett Audsley,haudsleyq0@ox.ac.uk,1338390322,Port Antonio,,Jamaica
ObjectId(5c7f5b90ae6ae747acd448ff),Teirtza Woolcocks,twoolcocksq1@globo.com,3096302771,Podu,,China
ObjectId(5c7f5b90ae6ae747acd44900),Niko Ahrendsen,nahrendsenq2@cloudflare.com,3593202073,Balally,,Ireland
ObjectId(5c7f5b90ae6ae747acd44901),Elissa Ready,ereadyq3@theglobeandmail.com,8658119994,Amarillo,Texas,United States
ObjectId(5c7f5b90ae6ae747acd44902),Israel Lambell,ilambellq4@blogtalkradio.com,4812025842,Thị Trấn Mỹ Lộc,,Vietnam
ObjectId(5c7f5b90ae6ae747acd44903),Murry Lief,mliefq5@google.co.uk,5206491216,Batur Kidul,,Indonesia
ObjectId(5c7f5b90ae6ae747acd44904),Carmine Scrowby,cscrowbyq6@addthis.com,8972474857,Port Loko,,Sierra Leone
ObjectId(5c7f5b90ae6ae747acd44905),Modesty Plowman,mplowmanq7@csmonitor.com,4809324132,Svetlyy,,Russia
ObjectId(5c7f5b90ae6ae747acd44906),Gibb Mabbutt,gmabbuttq8@discovery.com,5271643127,Wuchagou,,China
ObjectId(5c7f5b90ae6ae747acd44907),Alan Kinnen,akinnenq9@jugem.jp,7648829363,Durazno,,Uruguay
ObjectId(5c7f5b90ae6ae747acd44908),Christian Woodings,cwoodingsqa@vistaprint.com,1387388937,Calheta de Nesquim,Ilha do Pico,Portugal
ObjectId(5c7f5b90ae6ae747acd44909),Vonny Basten,vbastenqb@flavors.me,3487170487,Kokop,,Indonesia
ObjectId(5c7f5b90ae6ae747acd4490a),Chrisse Byars,cbyarsqc@nba.com,6338095929,Dishnā,,Egypt
ObjectId(5c7f5b90ae6ae747acd4490b),Jonas Tromans,jtromansqd@cbsnews.com,3169098510,Cabreúva,,Brazil
ObjectId(5c7f5b90ae6ae747acd4490c),Rosalynd Sammon,rsammonqe@telegraph.co.uk,7643899629,Lianzhu,,China
ObjectId(5c7f5b90ae6ae747acd4490d),Julianne Abate,jabateqf@nydailynews.com,4344539273,Daxi,,Taiwan
ObjectId(5c7f5b90ae6ae747acd4490e),Gabbi Coye,gcoyeqg@people.com.cn,8677660099,Tessalit,,Mali
ObjectId(5c7f5b90ae6ae747acd4490f),Cosmo Azema,cazemaqh@rediff.com,3187233766,Shreveport,Louisiana,United States
ObjectId(5c7f5b90ae6ae747acd44910),Trent Elstub,telstubqi@csmonitor.com,6151465403,Orekhovo-Borisovo,,Russia
ObjectId(5c7f5b90ae6ae747acd44911),Mallory Atthowe,matthoweqj@t.co,4483101119,El Cobre,,Venezuela
ObjectId(5c7f5b90ae6ae747acd44912),Colly Sindall,csindallqk@bandcamp.com,4738737743,Serrana,,Brazil
ObjectId(5c7f5b90ae6ae747acd44913),Ange Joskowitz,ajoskowitzql@bbc.co.uk,7228518340,Anju,,North Korea
ObjectId(5c7f5b90ae6ae747acd44914),Garrek Hardiker,ghardikerqm@vk.com,3089672457,Lolodorf,,Cameroon
ObjectId(5c7f5b90ae6ae747acd44915),Dmitri Babinski,dbabinskiqn@auda.org.au,8439626582,Benhao,,China
ObjectId(5c7f5b90ae6ae747acd44916),Anastasia Winwood,awinwoodqp@slashdot.org,7991419192,Dobřany,,Czech Republic
ObjectId(5c7f5b90ae6ae747acd44917),Nikkie Walwood,nwalwoodqo@google.com.au,7986159192,Gornji Breg,,Serbia
ObjectId(5c7f5b90ae6ae747acd44918),Becki Vezey,bvezeyqq@woothemes.com,2792065084,Gunungpeundeuy,,Indonesia
ObjectId(5c7f5b90ae6ae747acd44919),Velvet Lorraway,vlorrawayqr@latimes.com,5798754118,Bao’an,,China
ObjectId(5c7f5b90ae6ae747acd4491a),Rosabel Delos,rdelosqs@plala.or.jp,3415361330,Yuanqiao,,China
ObjectId(5c7f5b90ae6ae747acd4491b),Seward Ewan,sewanqt@squidoo.com,9073101911,Jingling,,China
ObjectId(5c7f5b90ae6ae747acd4491c),Cassandre Synder,csynderqw@tripod.com,2552562512,Bayan-Ovoo,,Mongolia
ObjectId(5c7f5b90ae6ae747acd4491d),Margo Zipsell,mzipsellqu@dagondesign.com,2198829401,Sandviken,Gävleborg,Sweden
ObjectId(5c7f5b90ae6ae747acd4491e),Godart Wellan,gwellanqv@google.com.br,8188985700,Avarua,,Cook Islands
ObjectId(5c7f5b90ae6ae747acd4491f),Benni Pudden,bpuddenqx@army.mil,3984604195,Yingchuan,,China
ObjectId(5c7f5b90ae6ae747acd44920),Menard Reeder,mreederqy@privacy.gov.au,7945630484,Qarāwul,,Afghanistan
ObjectId(5c7f5b90ae6ae747acd44921),Elladine Roddell,eroddellqz@hatena.ne.jp,5827600602,Kan,,China
ObjectId(5c7f5b90ae6ae747acd44922),Waring Silversmid,wsilversmidr0@wp.com,2709317859,Karangsuko,,Indonesia
ObjectId(5c7f5b90ae6ae747acd44923),Pepillo Greasley,pgreasleyr1@arstechnica.com,3388918672,Lingbei,,China
ObjectId(5c7f5b90ae6ae747acd44924),Winifield Caverhill,wcaverhillr2@surveymonkey.com,7352920142,Kut Chap,,Thailand
ObjectId(5c7f5b90ae6ae747acd44925),Suzie Tow,stowr3@1688.com,5575327527,Bordeaux,Aquitaine,France
ObjectId(5c7f5b90ae6ae747acd44926),Parrnell Thomton,pthomtonr4@cbslocal.com,3042118191,Pelileo,,Ecuador
ObjectId(5c7f5b90ae6ae747acd44927),Brandy Liquorish,bliquorishr5@dagondesign.com,9082366152,Buenaventura,,Colombia
ObjectId(5c7f5b90ae6ae747acd44928),Jayme Burnip,jburnipr6@loc.gov,8587923659,Dukhovnitskoye,,Russia
ObjectId(5c7f5b90ae6ae747acd44929),Collen Do Rosario,cdor7@reverbnation.com,2204230109,Suodenniemi,,Finland
ObjectId(5c7f5b90ae6ae747acd4492a),Paulie Pulver,ppulverr9@marketwatch.com,6694757862,Tawau,Sabah,Malaysia
ObjectId(5c7f5b90ae6ae747acd4492b),Kasper Betteson,kbettesonr8@state.tx.us,6832946607,Santa Maria,,Philippines
ObjectId(5c7f5b90ae6ae747acd4492c),Shara Goodfellowe,sgoodfellowera@ihg.com,8983469961,Tlumačov,,Czech Republic
ObjectId(5c7f5b90ae6ae747acd4492d),Alaine Bernath,abernathrb@vimeo.com,8436861580,Lyntupy,,Belarus
ObjectId(5c7f5b90ae6ae747acd4492e),Tomkin Chevers,tcheversrc@geocities.com,1027887049,Mafraq,,Jordan
ObjectId(5c7f5b90ae6ae747acd4492f),Lenee Astill,lastillre@newsvine.com,9532588686,Zürich,Kanton Zürich,Switzerland
ObjectId(5c7f5b90ae6ae747acd44930),Alli Gouthier,agouthierrd@squidoo.com,4165234730,Talodi,,Sudan
ObjectId(5c7f5b90ae6ae747acd44931),Zachary Kryska,zkryskarf@live.com,5776397220,Malie,,Samoa
ObjectId(5c7f5b90ae6ae747acd44932),Cyndy Yakuntzov,cyakuntzovrg@instagram.com,7188286446,Esquel,,Argentina
ObjectId(5c7f5b90ae6ae747acd44933),Winny Crowd,wcrowdrh@seesaa.net,3138082599,Zhangxi,,China
ObjectId(5c7f5b90ae6ae747acd44934),Anitra Halksworth,ahalksworthri@joomla.org,2883740940,Liujia,,China
ObjectId(5c7f5b90ae6ae747acd44935),Darrel Pierrepont,dpierrepontrj@pagesperso-orange.fr,9592715770,Quince Mil,,Peru
ObjectId(5c7f5b90ae6ae747acd44936),Modesta Ganter,mganterrk@flavors.me,9279446321,Baicheng,,China
ObjectId(5c7f5b90ae6ae747acd44937),Marissa MacBrearty,mmacbreartyrl@xinhuanet.com,4217326756,Jagdaqi,,China
ObjectId(5c7f5b90ae6ae747acd44938),Jesse Pentelo,jpentelorm@a8.net,4635687614,Orissaare,,Estonia
ObjectId(5c7f5b90ae6ae747acd44939),Terencio Simcoe,tsimcoern@examiner.com,3298637299,Zhenlong,,China
ObjectId(5c7f5b90ae6ae747acd4493a),Kliment Treadwell,ktreadwellro@mtv.com,1413274960,Qeshm,,Iran
ObjectId(5c7f5b90ae6ae747acd4493b),Diannne Eades,deadesrp@comcast.net,6408455082,Qianzhou,,China
ObjectId(5c7f5b90ae6ae747acd4493c),Rustin Bobasch,rbobaschrq@merriam-webster.com,4478994359,Klina,,Kosovo
ObjectId(5c7f5b90ae6ae747acd4493d),Bondon Beniesh,bbenieshrr@dyndns.org,4055305830,Maopingchang,,China
ObjectId(5c7f761b894162403e74a2b1),Vinod,vinod@vinod.co,9731424784,Bangalore,Karnataka,India
ObjectId(5c7f9389102d555486b7301a),Kishore,kishore@example.com,1231231231,Vasco,Goa,India
